{"type":"FeatureCollection","name":"aprhi_sr_pa","metadata":{"schema_version":"1.0","generated_at":"2026-09-22T22:03:31Z","fuente":"Obras_de_Saneamiento_Rural_CBA_SR_PA / Obras_Lineales_Rurales","service":"https://services1.arcgis.com/atxllciEI8CHWvwW/ArcGIS/rest/services/Obras_de_Saneamiento_Rural_CBA_SR_PA/FeatureServer/0","clip":"consorcio-web/public/capas/zona.geojson","counts":{"features":54,"estado":{"Vigente":50,"Eliminado":4},"tipo":{"Canal (CA)":39,"Alteo de Camino (AC)":6,"Terraplén (TE)":8,"Otro (OT)":1}}},"features":[{"type":"Feature","id":"CA00140","properties":{"OBJECTID":161,"Identificador":"CA00140","Nombre_Obra":"Tramo Nuevo - Canal San Marcos","Nombre_Tramo":null,"Tipo_Obra_Lineal":"Canal (CA)","Estado_Registro":"Vigente","Filtro_entidades":null,"Codigo_Anterior":"3-05-C014","Observaciones":"","Cuenca_Hidrografica":"Río Carcarañá","UGH_II":null,"Zona_Inspeccion":"Zona II","Chequeado":null,"Shape__Length":10251.535477028412,"Plan_Director":"Carcarañá","id":"CA00140","nombre_publico":"Tramo Nuevo - Canal San Marcos","origen":"aprhi"},"geometry":{"type":"LineString","coordinates":[[-62.46196079971651,-32.693123404910224],[-62.4622538842066,-32.6929256449024],[-62.4623236414509,-32.6926626380372],[-62.4617841210511,-32.6840764111592],[-62.4617993313527,-32.6839037672682],[-62.4619701569795,-32.6837739915528],[-62.468426992056,-32.6826314572753],[-62.4699067694769,-32.6823743802006],[-62.4699893958865,-32.6823218658232],[-62.4699487383532,-32.682065018753],[-62.4642553748334,-32.6594534242327],[-62.4588662378787,-32.6381093956404],[-62.4585039018974,-32.6365753994497],[-62.4584630261396,-32.6363506146923],[-62.458440469408,-32.6361274598772],[-62.4585502181133,-32.635955212877],[-62.4604012896355,-32.6356016383073],[-62.463542767708,-32.6350170163002],[-62.4635970364951,-32.6349376043554],[-62.462457754037,-32.6303384145543],[-62.4608320870926,-32.623732671272],[-62.4590399706806,-32.616624144801],[-62.4581761477922,-32.613156928246],[-62.4581848045188,-32.6130602854267],[-62.4582718948304,-32.6130161127145],[-62.4600830640156,-32.6127029085546],[-62.4601466549884,-32.6126185296976]]}},{"type":"Feature","id":"CA00672","properties":{"OBJECTID":716,"Identificador":"CA00672","Nombre_Obra":"Canal O_Consorcio canalero Leones","Nombre_Tramo":null,"Tipo_Obra_Lineal":"Canal (CA)","Estado_Registro":"Vigente","Filtro_entidades":null,"Codigo_Anterior":"3-04-C010","Observaciones":"Fuente: Calvo de SRH. $Origen: ","Cuenca_Hidrografica":"Río Carcarañá","UGH_II":null,"Zona_Inspeccion":"Zona II","Chequeado":null,"Shape__Length":3424.221299762582,"Plan_Director":"Carcarañá","id":"CA00672","nombre_publico":"Canal O_Consorcio canalero Leones","origen":"aprhi"},"geometry":{"type":"LineString","coordinates":[[-62.3104125362591,-32.5128569759583],[-62.31034566967011,-32.512830862559944]]}},{"type":"Feature","id":"OT01028","properties":{"OBJECTID":2594,"Identificador":"OT01028","Nombre_Obra":null,"Nombre_Tramo":null,"Tipo_Obra_Lineal":"Canal (CA)","Estado_Registro":"Vigente","Filtro_entidades":null,"Codigo_Anterior":"3-04-C150","Observaciones":"Origen: PoliciaAmbiental","Cuenca_Hidrografica":"Río Carcarañá","UGH_II":null,"Zona_Inspeccion":"Zona II","Chequeado":null,"Shape__Length":1085.8621312606,"Plan_Director":"Carcarañá","id":"OT01028","nombre_publico":"OT01028","origen":"aprhi"},"geometry":{"type":"LineString","coordinates":[[-62.5860110344039,-32.5156136530168],[-62.5851205411385,-32.515333194576],[-62.5751319950222,-32.5123114244207]]}},{"type":"Feature","id":"CA01838","properties":{"OBJECTID":3292,"Identificador":"CA01838","Nombre_Obra":"Sistemación de excedentes hídricos al norte de Monte Leña","Nombre_Tramo":null,"Tipo_Obra_Lineal":"Alteo de Camino (AC)","Estado_Registro":"Vigente","Filtro_entidades":null,"Codigo_Anterior":"3–05–T005","Observaciones":"","Cuenca_Hidrografica":"Río Carcarañá","UGH_II":null,"Zona_Inspeccion":"Insp. Daniel Bussolari","Chequeado":"Si","Shape__Length":119.831612656372,"Plan_Director":"Carcarañá","id":"CA01838","nombre_publico":"Sistemación de excedentes hídricos al norte de Monte Leña","origen":"aprhi"},"geometry":{"type":"LineString","coordinates":[[-62.6130996837186,-32.5254481449402],[-62.6126374534245,-32.5257780401493],[-62.6121656335951,-32.5261823216686]]}},{"type":"Feature","id":"CA01844","properties":{"OBJECTID":3298,"Identificador":"CA01844","Nombre_Obra":"Sistemación de excedentes hídricos al norte de Monte Leña","Nombre_Tramo":null,"Tipo_Obra_Lineal":"Alteo de Camino (AC)","Estado_Registro":"Vigente","Filtro_entidades":null,"Codigo_Anterior":"3–05–T008","Observaciones":"","Cuenca_Hidrografica":"Río Carcarañá","UGH_II":null,"Zona_Inspeccion":"Insp. Daniel Bussolari","Chequeado":"Si","Shape__Length":676.295715143794,"Plan_Director":"Carcarañá","id":"CA01844","nombre_publico":"Sistemación de excedentes hídricos al norte de Monte Leña","origen":"aprhi"},"geometry":{"type":"LineString","coordinates":[[-62.5719898860947,-32.5677410748514],[-62.5649356992304,-32.56896912689]]}},{"type":"Feature","id":"OT01162","properties":{"OBJECTID":2728,"Identificador":"OT01162","Nombre_Obra":"SOLICITA VISACION DE PLANOS DE MENSURA.- ESTABLECIMIENTO \"LA SARA\", PEDANÍA LITIN.","Nombre_Tramo":"Terraplen N° 1 ","Tipo_Obra_Lineal":"Terraplén (TE)","Estado_Registro":"Vigente","Filtro_entidades":null,"Codigo_Anterior":"3-04-T002","Observaciones":"","Cuenca_Hidrografica":"Río Carcarañá","UGH_II":null,"Zona_Inspeccion":"Zona II","Chequeado":"Si","Shape__Length":754.4785245484227,"Plan_Director":"Carcarañá","id":"OT01162","nombre_publico":"SOLICITA VISACION DE PLANOS DE MENSURA.- ESTABLECIMIENTO \"LA SARA\", PEDANÍA LITIN.","origen":"aprhi"},"geometry":{"type":"LineString","coordinates":[[-62.5275922368489,-32.4431968349276],[-62.528321796708,-32.4442109131059],[-62.5283003389591,-32.445043897149],[-62.5277853557334,-32.4498062452529]]}},{"type":"Feature","id":"OT01254","properties":{"OBJECTID":2820,"Identificador":"OT01254","Nombre_Obra":"Canal Planta Sobrero y Cagnolo SA","Nombre_Tramo":null,"Tipo_Obra_Lineal":"Canal (CA)","Estado_Registro":"Vigente","Filtro_entidades":null,"Codigo_Anterior":"3-05-C116","Observaciones":"","Cuenca_Hidrografica":"Río Carcarañá","UGH_II":null,"Zona_Inspeccion":"Zona III","Chequeado":null,"Shape__Length":3250.745039129189,"Plan_Director":"Carcarañá","id":"OT01254","nombre_publico":"Canal Planta Sobrero y Cagnolo SA","origen":"aprhi"},"geometry":{"type":"LineString","coordinates":[[-62.458802338998,-32.6356967166581],[-62.4579225737628,-32.633853571862],[-62.4576007087481,-32.6332753228126],[-62.4550901608782,-32.6322633765524],[-62.450090523622,-32.6321910949313],[-62.4473224841075,-32.6325163651751],[-62.4468289575108,-32.6326789987547],[-62.4431382379555,-32.6313237036954],[-62.4350486958109,-32.6286672646505],[-62.4306713308871,-32.6294804675904],[-62.4274865265212,-32.6300197652571]]}},{"type":"Feature","id":"CA01835","properties":{"OBJECTID":3289,"Identificador":"CA01835","Nombre_Obra":"Sistemación de excedentes hídricos al norte de Monte Leña","Nombre_Tramo":null,"Tipo_Obra_Lineal":"Alteo de Camino (AC)","Estado_Registro":"Vigente","Filtro_entidades":null,"Codigo_Anterior":"3–05–T003","Observaciones":"","Cuenca_Hidrografica":"Río Carcarañá","UGH_II":null,"Zona_Inspeccion":"Insp. Daniel Bussolari","Chequeado":"Si","Shape__Length":987.1506081597837,"Plan_Director":"Carcarañá","id":"CA01835","nombre_publico":"Sistemación de excedentes hídricos al norte de Monte Leña","origen":"aprhi"},"geometry":{"type":"LineString","coordinates":[[-62.6134846019087,-32.5133593976409],[-62.6157663193982,-32.5220483853638]]}},{"type":"Feature","id":"OT01194","properties":{"OBJECTID":2760,"Identificador":"OT01194","Nombre_Obra":"Extensión canal 2 hasta Saggioratto","Nombre_Tramo":null,"Tipo_Obra_Lineal":"Canal (CA)","Estado_Registro":"Vigente","Filtro_entidades":null,"Codigo_Anterior":"3-05-C115","Observaciones":"","Cuenca_Hidrografica":"Río Carcarañá","UGH_II":null,"Zona_Inspeccion":"Zona II","Chequeado":null,"Shape__Length":3541.240296423049,"Plan_Director":"Carcarañá","id":"OT01194","nombre_publico":"Extensión canal 2 hasta Saggioratto","origen":"aprhi"},"geometry":{"type":"LineString","coordinates":[[-62.448094576895144,-32.65267703535125],[-62.4484459456156,-32.6507047676151],[-62.4549261628104,-32.6498375557079],[-62.455956130863,-32.6504879649671]]}},{"type":"Feature","id":"CA01841","properties":{"OBJECTID":3295,"Identificador":"CA01841","Nombre_Obra":"Sistemación de excedentes hídricos al norte de Monte Leña","Nombre_Tramo":null,"Tipo_Obra_Lineal":"Alteo de Camino (AC)","Estado_Registro":"Vigente","Filtro_entidades":null,"Codigo_Anterior":"3–05–T007","Observaciones":"","Cuenca_Hidrografica":"Río Carcarañá","UGH_II":null,"Zona_Inspeccion":"Insp. Daniel Bussolari","Chequeado":"Si","Shape__Length":319.41170641846094,"Plan_Director":"Carcarañá","id":"CA01841","nombre_publico":"Sistemación de excedentes hídricos al norte de Monte Leña","origen":"aprhi"},"geometry":{"type":"LineString","coordinates":[[-62.5712852392791,-32.5649233588027],[-62.5719898860904,-32.5677410757531]]}},{"type":"Feature","id":"CA00146","properties":{"OBJECTID":167,"Identificador":"CA00146","Nombre_Obra":"Sistematizacimn cuenca cuatro caminos al Rio Tercero","Nombre_Tramo":null,"Tipo_Obra_Lineal":"Canal (CA)","Estado_Registro":"Eliminado","Filtro_entidades":"Repetida","Codigo_Anterior":"3-05-C020","Observaciones":"Se repite la traza. ","Cuenca_Hidrografica":"Río Carcarañá","UGH_II":null,"Zona_Inspeccion":"Zona III","Chequeado":"Si","Shape__Length":13904.187369751604,"Plan_Director":"Carcarañá","id":"CA00146","nombre_publico":"Sistematizacimn cuenca cuatro caminos al Rio Tercero","origen":"aprhi"},"geometry":{"type":"LineString","coordinates":[[-62.489922110189575,-32.69769418494319],[-62.4894082219321,-32.6974546082156]]}},{"type":"Feature","id":"CA00710","properties":{"OBJECTID":754,"Identificador":"CA00710","Nombre_Obra":"Limpieza y Re funcionalizacion del Canal Monte Castillo Este","Nombre_Tramo":"Canal Monte Castillo Este","Tipo_Obra_Lineal":"Canal (CA)","Estado_Registro":"Vigente","Filtro_entidades":null,"Codigo_Anterior":"3-04-C048","Observaciones":"Solo se cuenta con el antecedente de limpieza del canal ","Cuenca_Hidrografica":"Río Carcarañá","UGH_II":null,"Zona_Inspeccion":"Zona II","Chequeado":null,"Shape__Length":5544.997995173451,"Plan_Director":"Carcarañá","id":"CA00710","nombre_publico":"Limpieza y Re funcionalizacion del Canal Monte Castillo Este","origen":"aprhi"},"geometry":{"type":"LineString","coordinates":[[-62.30372510672907,-32.46299781668242],[-62.303733406342,-32.4630072342859],[-62.30440459865,-32.4637883609835],[-62.3045629104656,-32.4638807300568],[-62.3047292448345,-32.4638581632675],[-62.3050836098597,-32.4640184979203],[-62.3053029283042,-32.4641680061021],[-62.3056825614122,-32.4646435424229],[-62.305862072311,-32.464753940466],[-62.3071338306443,-32.4654079710617]]}},{"type":"Feature","id":"CA00723","properties":{"OBJECTID":768,"Identificador":"CA00723","Nombre_Obra":" ","Nombre_Tramo":null,"Tipo_Obra_Lineal":"Canal (CA)","Estado_Registro":"Eliminado","Filtro_entidades":"Repetida","Codigo_Anterior":"3-04-C062","Observaciones":"Se repite la traza. FCEFyN. Origen: PoliciaAmbiental","Cuenca_Hidrografica":"Río Carcarañá","UGH_II":null,"Zona_Inspeccion":"Zona II","Chequeado":"Si","Shape__Length":1491.272212385309,"Plan_Director":"Carcarañá","id":"CA00723","nombre_publico":" ","origen":"aprhi"},"geometry":{"type":"LineString","coordinates":[[-62.3784825813794,-32.4581908024184],[-62.3786038579519,-32.4581772690327],[-62.3786602149182,-32.4581651411102],[-62.3787148502924,-32.4581557513446],[-62.378769982511,-32.4581547050312],[-62.3788226926182,-32.4581309294],[-62.3788968352369,-32.4581244437836],[-62.3789574787711,-32.4581255824194],[-62.3790133385679,-32.4581257596319],[-62.3790631046852,-32.4581339114483],[-62.3791354226534,-32.458128909962],[-62.3791809194007,-32.4581239105542],[-62.3792390240308,-32.4581111155908],[-62.3792900188756,-32.4581057329607],[-62.3793348016482,-32.4580889894208],[-62.3793706355144,-32.4580755011956],[-62.3794119187158,-32.4580678109057],[-62.3794545160938,-32.4580494740113],[-62.3794914555438,-32.4580338865564],[-62.3795322136386,-32.4580261485524],[-62.3795700565672,-32.4580114149582],[-62.3796113978502,-32.4579967959762],[-62.3796533807365,-32.457989429169],[-62.3796991259676,-32.4579774892604],[-62.3797481934197,-32.457962964202],[-62.3797972899459,-32.4579454355965],[-62.3798380776461,-32.4579358508906],[-62.3798828454163,-32.4579274796666],[-62.379932977382,-32.4579168453437],[-62.3799703529427,-32.4579061995853],[-62.3800129333262,-32.4578974586542],[-62.3800501492073,-32.457884191651],[-62.3800819875642,-32.457874976698],[-62.380117853496,-32.457862213409],[-62.3801608584392,-32.4578517305669],[-62.3802037165746,-32.4578451343564],[-62.3802587618503,-32.4578283309885],[-62.3803044177812,-32.4578183814446],[-62.3803524941185,-32.4578044319869],[-62.3803857038805,-32.4577940532566],[-62.3804185046125,-32.4577856283627],[-62.3804573108025,-32.4577755693123],[-62.3804988568292,-32.4577676725587],[-62.3805558255924,-32.457753726195],[-62.3806183928263,-32.4577444629899],[-62.3806778403628,-32.4577338354172],[-62.3807938478275,-32.4576926773726],[-62.3808676107254,-32.4576979410055],[-62.3810141416601,-32.4576715201667],[-62.3811678186491,-32.4576343621788],[-62.3813056901158,-32.4576050985606],[-62.3814429790672,-32.4575788879012],[-62.3815480813858,-32.457543623414],[-62.381704614069,-32.4575199452693],[-62.3818550525341,-32.4574764746375],[-62.3820368043509,-32.4573901655931],[-62.3823068040253,-32.4573401655603],[-62.3824868050848,-32.457260164811],[-62.3826568056837,-32.4571401653015],[-62.3831368045109,-32.4567101656424],[-62.3832968045378,-32.4566201646997],[-62.3835068051127,-32.4565401660141],[-62.3846468048408,-32.456190166366],[-62.3847668051434,-32.4561701661705],[-62.3849268041133,-32.456210165992],[-62.3852468047547,-32.4563701659029],[-62.3854768036946,-32.4564401656638],[-62.3862468045011,-32.4565701674156],[-62.3871168050418,-32.4566901649863],[-62.3873868052487,-32.4567501645746],[-62.3876468035092,-32.4567701645559],[-62.3880368047487,-32.4567401653649],[-62.3884468039396,-32.4568601653336],[-62.3896668048556,-32.4571301654159],[-62.3899768043661,-32.45722016645],[-62.3901268039248,-32.4573101655593],[-62.3905968041813,-32.4577301645779],[-62.3916368046251,-32.4584301640374],[-62.3920768049473,-32.4586201643897],[-62.392906805228,-32.4589101636072]]}},{"type":"Feature","id":"OT01163","properties":{"OBJECTID":2729,"Identificador":"OT01163","Nombre_Obra":"SOLICITA VISACION DE PLANOS DE MENSURA.- ESTABLECIMIENTO \"LA SARA\", PEDANÍA LITIN.","Nombre_Tramo":"Terraplen N° 2 ","Tipo_Obra_Lineal":"Terraplén (TE)","Estado_Registro":"Vigente","Filtro_entidades":null,"Codigo_Anterior":"3-04-T003","Observaciones":"","Cuenca_Hidrografica":"Río Carcarañá","UGH_II":null,"Zona_Inspeccion":"Zona II","Chequeado":"Si","Shape__Length":1332.3105810539948,"Plan_Director":"Carcarañá","id":"OT01163","nombre_publico":"SOLICITA VISACION DE PLANOS DE MENSURA.- ESTABLECIMIENTO \"LA SARA\", PEDANÍA LITIN.","origen":"aprhi"},"geometry":{"type":"LineString","coordinates":[[-62.5222079723729,-32.4414820510856],[-62.5213711235946,-32.4416450317925],[-62.5208346811866,-32.4420253188936],[-62.5196330520108,-32.4425866922949],[-62.5175087417896,-32.4434740171622],[-62.5125520199005,-32.4442888999071],[-62.511361119151,-32.4444790381564],[-62.5101487601757,-32.4446329587322],[-62.509451385815,-32.4447325552606],[-62.5088398425347,-32.4449770167119]]}},{"type":"Feature","id":"OT00722","properties":{"OBJECTID":2288,"Identificador":"OT00722","Nombre_Obra":"Obra de Emergencia Desagües Zona Rural Sudoeste en Noetinger Colonia Margarita","Nombre_Tramo":null,"Tipo_Obra_Lineal":"Canal (CA)","Estado_Registro":"Vigente","Filtro_entidades":null,"Codigo_Anterior":"3-02-C076","Observaciones":"En el N° de nota SECRHC01-416664024-517, se informa que es inviable la obra por ocupar espacio disponible para el mantenimineto  del camino de red secundaria.","Cuenca_Hidrografica":"Río Carcarañá","UGH_II":null,"Zona_Inspeccion":"Zona II","Chequeado":"Si","Shape__Length":5233.4059986394195,"Plan_Director":"Carcarañá","id":"OT00722","nombre_publico":"Obra de Emergencia Desagües Zona Rural Sudoeste en Noetinger Colonia Margarita","origen":"aprhi"},"geometry":{"type":"LineString","coordinates":[[-62.347421591238685,-32.41451965639653],[-62.354696941901,-32.4445439033084]]}},{"type":"Feature","id":"CA00704","properties":{"OBJECTID":748,"Identificador":"CA00704","Nombre_Obra":"Limpieza del Canal Existente Monte Castillos OESTE 2","Nombre_Tramo":"Canal Secundario 1 - Monte Castillo Oeste 2","Tipo_Obra_Lineal":"Canal (CA)","Estado_Registro":"Vigente","Filtro_entidades":null,"Codigo_Anterior":"3-04-C042","Observaciones":"El canal  solo cuenta con el antecedente de limpieza del expediente referido. Fuente: Analia. $Origen: ","Cuenca_Hidrografica":"Río Carcarañá","UGH_II":null,"Zona_Inspeccion":"Zona II","Chequeado":null,"Shape__Length":746.5004160936699,"Plan_Director":"Carcarañá","id":"CA00704","nombre_publico":"Limpieza del Canal Existente Monte Castillos OESTE 2","origen":"aprhi"},"geometry":{"type":"LineString","coordinates":[[-62.3053771457692,-32.4525745302172],[-62.3053929008616,-32.4524821684096],[-62.3050315443848,-32.4492158056747],[-62.3049654492686,-32.4489258356303],[-62.3046452567528,-32.4458759967816]]}},{"type":"Feature","id":"CA01836","properties":{"OBJECTID":3290,"Identificador":"CA01836","Nombre_Obra":"Sistemación de excedentes hídricos al norte de Monte Leña","Nombre_Tramo":null,"Tipo_Obra_Lineal":"Terraplén (TE)","Estado_Registro":"Vigente","Filtro_entidades":null,"Codigo_Anterior":"3–05–T004","Observaciones":"","Cuenca_Hidrografica":"Río Carcarañá","UGH_II":null,"Zona_Inspeccion":"Insp. Daniel Bussolari","Chequeado":"Si","Shape__Length":679.9679909759085,"Plan_Director":"Carcarañá","id":"CA01836","nombre_publico":"Sistemación de excedentes hídricos al norte de Monte Leña","origen":"aprhi"},"geometry":{"type":"LineString","coordinates":[[-62.6220731370483,-32.5209203574616],[-62.6149921052432,-32.5221868585873]]}},{"type":"Feature","id":"TE01990","properties":{"OBJECTID":3788,"Identificador":"TE01990","Nombre_Obra":"Sistemación de excedentes hídricos al norte de Monte Leña","Nombre_Tramo":null,"Tipo_Obra_Lineal":"Terraplén (TE)","Estado_Registro":"Vigente","Filtro_entidades":null,"Codigo_Anterior":null,"Observaciones":null,"Cuenca_Hidrografica":"Río Carcarañá","UGH_II":null,"Zona_Inspeccion":"Insp. Daniel Bussolari","Chequeado":null,"Shape__Length":333.57777562377316,"Plan_Director":null,"id":"TE01990","nombre_publico":"Sistemación de excedentes hídricos al norte de Monte Leña","origen":"aprhi"},"geometry":{"type":"LineString","coordinates":[[-62.5648293931106,-32.5692470127772],[-62.565525323982,-32.5721966629548]]}},{"type":"Feature","id":"OT01160","properties":{"OBJECTID":2726,"Identificador":"OT01160","Nombre_Obra":"SOLICITA VISACION DE PLANOS DE MENSURA.- ESTABLECIMIENTO \"LA SARA\", PEDANÍA LITIN.","Nombre_Tramo":"Canal N° 3 ","Tipo_Obra_Lineal":"Canal (CA)","Estado_Registro":"Vigente","Filtro_entidades":null,"Codigo_Anterior":"3-04-C154","Observaciones":"","Cuenca_Hidrografica":"Río Carcarañá","UGH_II":null,"Zona_Inspeccion":"Zona II","Chequeado":"Si","Shape__Length":1076.7629015926655,"Plan_Director":"Carcarañá","id":"OT01160","nombre_publico":"SOLICITA VISACION DE PLANOS DE MENSURA.- ESTABLECIMIENTO \"LA SARA\", PEDANÍA LITIN.","origen":"aprhi"},"geometry":{"type":"LineString","coordinates":[[-62.5359194249696,-32.4420615355936],[-62.5371210548107,-32.4455202639025],[-62.53694939261,-32.4462808041904],[-62.5367562739203,-32.4469507977433],[-62.5365202396789,-32.4476026792608],[-62.5360481705115,-32.449051287805],[-62.5334517924584,-32.4501377290517]]}},{"type":"Feature","id":"CA00143","properties":{"OBJECTID":164,"Identificador":"CA00143","Nombre_Obra":"Canal de drenaje Monte Leta","Nombre_Tramo":null,"Tipo_Obra_Lineal":"Canal (CA)","Estado_Registro":"Vigente","Filtro_entidades":null,"Codigo_Anterior":"3-05-C017","Observaciones":"","Cuenca_Hidrografica":"Río Carcarañá","UGH_II":null,"Zona_Inspeccion":"Zona II","Chequeado":null,"Shape__Length":3135.6426606905393,"Plan_Director":"Carcarañá","id":"CA00143","nombre_publico":"Canal de drenaje Monte Leta","origen":"aprhi"},"geometry":{"type":"LineString","coordinates":[[-62.4749383857202,-32.5850689365557],[-62.4851984516039,-32.583305320171],[-62.4879117309712,-32.5828663642034],[-62.5006310459944,-32.580597479438],[-62.5051150245387,-32.579776557112],[-62.5067590930792,-32.5795049706265],[-62.5076455639801,-32.5793609744128]]}},{"type":"Feature","id":"CA00720","properties":{"OBJECTID":765,"Identificador":"CA00720","Nombre_Obra":"LIMPIEZA Y REFUNCIONALIZACIÓN DEL CANAL MONTE CASTILLO OESTE 1","Nombre_Tramo":null,"Tipo_Obra_Lineal":"Canal (CA)","Estado_Registro":"Vigente","Filtro_entidades":null,"Codigo_Anterior":"3-04-C059","Observaciones":"Tiene denuncia de PA 0694-003648/2020. $Origen: ","Cuenca_Hidrografica":"Río Carcarañá","UGH_II":null,"Zona_Inspeccion":"Zona II","Chequeado":null,"Shape__Length":4819.477324924516,"Plan_Director":"Carcarañá","id":"CA00720","nombre_publico":"LIMPIEZA Y REFUNCIONALIZACIÓN DEL CANAL MONTE CASTILLO OESTE 1","origen":"aprhi"},"geometry":{"type":"LineString","coordinates":[[-62.3194501446159,-32.4338671495621],[-62.3194500000227,-32.4341600004455],[-62.319479999229,-32.4343199988958],[-62.3195899992487,-32.4345299985685],[-62.322210000177,-32.4452499997209],[-62.3222699994695,-32.4453499989366],[-62.3225100004096,-32.4454300004425],[-62.3234299999266,-32.4456899987088],[-62.3237700006522,-32.4458199994],[-62.3239500008628,-32.4459299975595],[-62.3242899999965,-32.4461799990702],[-62.3249100006614,-32.4465899989029],[-62.3253500003606,-32.4467599991789],[-62.3261399992527,-32.4469799992129],[-62.3279199992855,-32.4471499991362],[-62.3285799999934,-32.4472599986039],[-62.328789999959,-32.4473299993906],[-62.329600000414,-32.4476699991891],[-62.3301900002215,-32.4478699989138],[-62.3311900000781,-32.448139999413],[-62.3316799993877,-32.4481899992837],[-62.3319399998414,-32.4482399992024],[-62.3322700001888,-32.4483799990445],[-62.3327499997092,-32.4486299987238],[-62.3330699994955,-32.4488199994436],[-62.3334299998254,-32.4489999989911],[-62.3337400008362,-32.4490699987349],[-62.3368599994112,-32.4501099993601],[-62.3382599993701,-32.4503699989794],[-62.3394400002947,-32.4506699986869],[-62.3400600007195,-32.450859998653],[-62.3405899991431,-32.4509599987162],[-62.3415799997768,-32.4510799988936],[-62.3420499999303,-32.4510999985874],[-62.3426700001747,-32.4511499992784],[-62.3432699993907,-32.4512799987665],[-62.3437399996898,-32.451439999387],[-62.3446800002087,-32.451729999317],[-62.3449900003841,-32.4517999994226],[-62.3456799992525,-32.4518799992254],[-62.346550000953,-32.4518999985819],[-62.34694000017,-32.4517699993021],[-62.3473699994235,-32.451589998633],[-62.3480699994139,-32.4511999990359],[-62.3483999995848,-32.4511199984446],[-62.3488399999167,-32.4511199984231],[-62.3491100003062,-32.4511899988778],[-62.3495199992819,-32.4513799993877],[-62.3500899999814,-32.4517199996303],[-62.3504199994453,-32.4519999991067],[-62.3507899992724,-32.4522799983537],[-62.3516200007824,-32.4526999988938],[-62.3520600006371,-32.4528599989727],[-62.3525200003347,-32.4529799985691],[-62.3538800000911,-32.4532399990297],[-62.354100000163,-32.453299998989],[-62.3545300008518,-32.453209999112],[-62.3553037295168,-32.4535097035767],[-62.356903291773,-32.4542580464044]]}},{"type":"Feature","id":3513,"properties":{"OBJECTID":3513,"Identificador":null,"Nombre_Obra":"Canal Los Patos - Cuatro Caminos al Rio Tercero","Nombre_Tramo":"Estancia Monte del Toro- Ruta Provincial N°3","Tipo_Obra_Lineal":"Canal (CA)","Estado_Registro":"Eliminado","Filtro_entidades":"Repetida","Codigo_Anterior":"3-05-C001","Observaciones":"Se repite la traza. Fuente: P. Speranza 2017- Verificar traza con expediente.. $Origen: ","Cuenca_Hidrografica":"Río Carcarañá","UGH_II":null,"Zona_Inspeccion":"Zona III","Chequeado":null,"Shape__Length":26453.831809182713,"Plan_Director":"Carcarañá","id":3513,"nombre_publico":"Canal Los Patos - Cuatro Caminos al Rio Tercero","origen":"aprhi"},"geometry":{"type":"LineString","coordinates":[[-62.49077512056966,-32.697220275784474],[-62.4898631379321,-32.6968054393681]]}},{"type":"Feature","id":"CA01833","properties":{"OBJECTID":3287,"Identificador":"CA01833","Nombre_Obra":"SISTEMATIZACION DE EXCEDENTEES HIDRICOS AL NORTE DE MONTE LEÑA","Nombre_Tramo":null,"Tipo_Obra_Lineal":"Canal (CA)","Estado_Registro":"Eliminado","Filtro_entidades":"Repetida","Codigo_Anterior":"3–05–C126","Observaciones":"Se repite la traza","Cuenca_Hidrografica":"Río Carcarañá","UGH_II":null,"Zona_Inspeccion":"Zona II","Chequeado":"Si","Shape__Length":22218.591675095537,"Plan_Director":"Carcarañá","id":"CA01833","nombre_publico":"SISTEMATIZACION DE EXCEDENTEES HIDRICOS AL NORTE DE MONTE LEÑA","origen":"aprhi"},"geometry":{"type":"LineString","coordinates":[[-62.6876940796633,-32.5124492383895],[-62.676536089362,-32.5083235498436],[-62.6686396664934,-32.5091197514133],[-62.6659789149448,-32.5077444908683],[-62.6658072541268,-32.507816873187],[-62.6653780999778,-32.5088302239899],[-62.6623740259773,-32.5089026057512],[-62.6616015503509,-32.5077444910409],[-62.648126131296,-32.5131006463311],[-62.6478686393531,-32.5133177808287],[-62.6464953489355,-32.5141139367927],[-62.6414313380254,-32.5128111320246],[-62.6406588614821,-32.5123768603003],[-62.6369681418803,-32.5102778469736],[-62.6353373587106,-32.5097711817844],[-62.6331057611378,-32.5104949875806],[-62.6182570519725,-32.5107845094321],[-62.6182570525717,-32.5108568902188],[-62.6135363647573,-32.5131730239539],[-62.6158537929065,-32.5291211453365],[-62.6025500366479,-32.5352719953552],[-62.6092370233783,-32.561538290788],[-62.605585317154,-32.5623142906374],[-62.6056555420302,-32.5630639792663],[-62.5641739536821,-32.5700903557332],[-62.6058701180959,-32.5638333904422]]}},{"type":"Feature","id":"OT01392","properties":{"OBJECTID":2958,"Identificador":"OT01392","Nombre_Obra":"APROBADA MEDIANTE 0416-009632/2017","Nombre_Tramo":null,"Tipo_Obra_Lineal":"Canal (CA)","Estado_Registro":"Vigente","Filtro_entidades":null,"Codigo_Anterior":"3-04-C166","Observaciones":"$Origen: PoliciaAmbiental","Cuenca_Hidrografica":"Río Carcarañá","UGH_II":null,"Zona_Inspeccion":"Zona III","Chequeado":null,"Shape__Length":1319.4250517257024,"Plan_Director":"Carcarañá","id":"OT01392","nombre_publico":"APROBADA MEDIANTE 0416-009632/2017","origen":"aprhi"},"geometry":{"type":"LineString","coordinates":[[-62.3571057465917,-32.4542290173733],[-62.3567168262194,-32.454240334393],[-62.3552764806594,-32.4535998165512],[-62.3545200971814,-32.4534142247508],[-62.3519559050935,-32.4530068260216],[-62.3507328182306,-32.452192021913],[-62.3491449502678,-32.4512866755763],[-62.3483188295925,-32.4512663053992],[-62.3478789479859,-32.4514632197298],[-62.3469991830901,-32.4519294734422],[-62.3461408759068,-32.4519204190954],[-62.3442526007761,-32.4515763882635]]}},{"type":"Feature","id":"CA01839","properties":{"OBJECTID":3293,"Identificador":"CA01839","Nombre_Obra":"Sistemación de excedentes hídricos al norte de Monte Leña","Nombre_Tramo":null,"Tipo_Obra_Lineal":"Terraplén (TE)","Estado_Registro":"Vigente","Filtro_entidades":null,"Codigo_Anterior":"3–05–T006","Observaciones":"","Cuenca_Hidrografica":"Río Carcarañá","UGH_II":null,"Zona_Inspeccion":"Insp. Daniel Bussolari","Chequeado":"Si","Shape__Length":270.0826522552916,"Plan_Director":"Carcarañá","id":"CA01839","nombre_publico":"Sistemación de excedentes hídricos al norte de Monte Leña","origen":"aprhi"},"geometry":{"type":"LineString","coordinates":[[-62.6042670707922,-32.539817089784],[-62.6056618195806,-32.5402874072383],[-62.607035110975,-32.5402512291567]]}},{"type":"Feature","id":"OT01161","properties":{"OBJECTID":2727,"Identificador":"OT01161","Nombre_Obra":"SOLICITA VISACION DE PLANOS DE MENSURA.- ESTABLECIMIENTO \"LA SARA\", PEDANÍA LITIN.","Nombre_Tramo":"Canal N° 2","Tipo_Obra_Lineal":"Canal (CA)","Estado_Registro":"Vigente","Filtro_entidades":null,"Codigo_Anterior":"3-04-C155","Observaciones":"","Cuenca_Hidrografica":"Río Carcarañá","UGH_II":null,"Zona_Inspeccion":"Zona II","Chequeado":"Si","Shape__Length":1537.2798944499857,"Plan_Director":"Carcarañá","id":"OT01161","nombre_publico":"SOLICITA VISACION DE PLANOS DE MENSURA.- ESTABLECIMIENTO \"LA SARA\", PEDANÍA LITIN.","origen":"aprhi"},"geometry":{"type":"LineString","coordinates":[[-62.5370352236024,-32.4458824270646],[-62.5398676365018,-32.445719453141],[-62.5407903165946,-32.44580999422],[-62.5417344544756,-32.4457013454412],[-62.5431506608687,-32.4455383720484],[-62.544695612722,-32.4451037746784],[-62.5446956131503,-32.4445605257434],[-62.5443952052432,-32.4428945395915],[-62.5434510679356,-32.4416269228127],[-62.5434296096785,-32.4412647429284],[-62.5433223219268,-32.4409387797476],[-62.5432579490898,-32.4406671444416],[-62.5427000488984,-32.4381499355949]]}},{"type":"Feature","id":"CA00144","properties":{"OBJECTID":165,"Identificador":"CA00144","Nombre_Obra":"Proyecto de canal zona norte de Bell Ville","Nombre_Tramo":"Canalización al Este de Monte Leña","Tipo_Obra_Lineal":"Canal (CA)","Estado_Registro":"Vigente","Filtro_entidades":null,"Codigo_Anterior":"3-05-C018","Observaciones":"Pablo tiene mas info, pedir. ver la ref. de este expte.0733-000213/2019 Edit. Ead , Alejandra. $Origen: ConsultoriaExterna","Cuenca_Hidrografica":"Río Carcarañá","UGH_II":null,"Zona_Inspeccion":"Zona II","Chequeado":"Si","Shape__Length":6710.397333920183,"Plan_Director":"Carcarañá","id":"CA00144","nombre_publico":"Proyecto de canal zona norte de Bell Ville","origen":"aprhi"},"geometry":{"type":"LineString","coordinates":[[-62.5633714641553,-32.6194869269677],[-62.5633403198537,-32.6192718294998],[-62.563372970016,-32.6190693633027],[-62.5631030303524,-32.6180323552812],[-62.5630687471275,-32.617917522673],[-62.5630327664029,-32.6178470569394],[-62.5629578760316,-32.6175300460903],[-62.5631360181033,-32.6172362485019],[-62.5672943210391,-32.6164818125899],[-62.5701894370097,-32.6159624122148],[-62.5706852449348,-32.6158711242112],[-62.5717528499911,-32.6156759546026],[-62.5730073173495,-32.6154734391734],[-62.5737128625559,-32.6154022336532],[-62.5762581188682,-32.6149573497744],[-62.5763777104597,-32.6149029537314],[-62.5764040200989,-32.6148767626753],[-62.5764269271246,-32.6148262713506],[-62.5761648374283,-32.6138116665819],[-62.5755672487725,-32.611211994571],[-62.5753687082861,-32.610420059181],[-62.5750865146467,-32.6092746112512],[-62.5743340370615,-32.6062412109104],[-62.5742331323132,-32.6057857664852],[-62.5740847380969,-32.6051849951992],[-62.5737385708649,-32.6038863058479],[-62.5737173930416,-32.6036491320756],[-62.5736850030965,-32.6035190017288],[-62.5735105982672,-32.6028714942436],[-62.5727564737309,-32.5999891150967],[-62.5723748364108,-32.5984721219802],[-62.5712582884044,-32.5940514911327],[-62.5706572400779,-32.5916674220398],[-62.5700970389951,-32.5894975046159],[-62.5696885474769,-32.5878639974989],[-62.5679919396892,-32.5811148248415],[-62.5677589844557,-32.580162738288],[-62.5673724543653,-32.5786671342522],[-62.5669889637847,-32.5771568509778],[-62.566449206648,-32.5749827500216],[-62.5661797267702,-32.573907773499],[-62.5658329101129,-32.5725250661384],[-62.565501242504,-32.5712115409079],[-62.5649834606524,-32.5692124945864]]}},{"type":"Feature","id":"CA01221","properties":{"OBJECTID":1347,"Identificador":"CA01221","Nombre_Obra":"Obra Irregular","Nombre_Tramo":null,"Tipo_Obra_Lineal":"Canal (CA)","Estado_Registro":"Vigente","Filtro_entidades":null,"Codigo_Anterior":"3-04-C108","Observaciones":"Origen: PoliciaAmbiental","Cuenca_Hidrografica":"Río Carcarañá","UGH_II":" ","Zona_Inspeccion":"Zona II","Chequeado":null,"Shape__Length":372.6669752833166,"Plan_Director":"Carcarañá","id":"CA01221","nombre_publico":"Obra Irregular","origen":"aprhi"},"geometry":{"type":"LineString","coordinates":[[-62.3564363082361,-32.5344514135907],[-62.3557175989282,-32.5311466768921]]}},{"type":"Feature","id":"CA00975","properties":{"OBJECTID":1032,"Identificador":"CA00975","Nombre_Obra":"Canal de desague/drenaje Monte Le-a","Nombre_Tramo":null,"Tipo_Obra_Lineal":"Canal (CA)","Estado_Registro":"Vigente","Filtro_entidades":null,"Codigo_Anterior":"3-05-C074","Observaciones":"","Cuenca_Hidrografica":"Río Carcarañá","UGH_II":null,"Zona_Inspeccion":"Zona II","Chequeado":null,"Shape__Length":9796.393235917185,"Plan_Director":"Carcarañá","id":"CA00975","nombre_publico":"Canal de desague/drenaje Monte Le-a","origen":"aprhi"},"geometry":{"type":"LineString","coordinates":[[-62.4551353742463,-32.5886141474483],[-62.4687123137961,-32.5862168166458],[-62.4749137004193,-32.5850926857252],[-62.4739808086591,-32.5812909027829],[-62.4716068771399,-32.5714818780352],[-62.4712590732841,-32.5698552262195],[-62.4745682595176,-32.5666719546805],[-62.4798331677206,-32.5616558084047],[-62.4853703312392,-32.5563482833987],[-62.4899581215764,-32.5518416684018],[-62.4906041154877,-32.5522631726983],[-62.4921788176078,-32.5532962171746],[-62.4987813091207,-32.5570264018122],[-62.5099777492458,-32.5657050872943],[-62.519102538455,-32.5716313835656]]}},{"type":"Feature","id":"CA01834","properties":{"OBJECTID":3288,"Identificador":"CA01834","Nombre_Obra":"Sistemación de excedentes hídricos al norte de Monte Leña","Nombre_Tramo":null,"Tipo_Obra_Lineal":"Terraplén (TE)","Estado_Registro":"Vigente","Filtro_entidades":null,"Codigo_Anterior":"3–05–T002","Observaciones":"","Cuenca_Hidrografica":"Río Carcarañá","UGH_II":null,"Zona_Inspeccion":"Insp. Daniel Bussolari","Chequeado":"Si","Shape__Length":1518.5051556286883,"Plan_Director":"Carcarañá","id":"CA01834","nombre_publico":"Sistemación de excedentes hídricos al norte de Monte Leña","origen":"aprhi"},"geometry":{"type":"LineString","coordinates":[[-62.6446304916389,-32.5064147378189],[-62.6452187657341,-32.5087900578982],[-62.6455124221485,-32.5099072997187],[-62.6457237168932,-32.5107080847432],[-62.6457172119314,-32.5107437591054],[-62.6456914847382,-32.5107741203861],[-62.6456518719429,-32.5108074029662],[-62.6455961491151,-32.5108314541262],[-62.645453599469,-32.5108576375925],[-62.6451387002775,-32.5109128749917],[-62.6448092397982,-32.5109906617866],[-62.6445851980855,-32.5110678140704],[-62.6444457454177,-32.5111538211658],[-62.6443040421883,-32.5112561811094],[-62.64418962474,-32.511369460584],[-62.6440682932176,-32.5115074731538],[-62.6437944292213,-32.5117786438969],[-62.6435239793418,-32.512048028335],[-62.64344651848,-32.5121642514008],[-62.6434147598728,-32.5122593932359],[-62.6434021626303,-32.5123375582143],[-62.6434074526325,-32.5123969338411],[-62.6434303492668,-32.5125129237063],[-62.6436455360729,-32.5132905184017],[-62.6437979426885,-32.5138896113868],[-62.6438760885659,-32.5142223310771],[-62.6439965109781,-32.5146340202571],[-62.6440504200806,-32.5148486326125],[-62.6440756532025,-32.514988095801],[-62.6441086307662,-32.5150682112645],[-62.6441714170778,-32.5151716182028],[-62.6442798435538,-32.5153001233361],[-62.6443817881773,-32.515405852853],[-62.6445064613038,-32.515494063498],[-62.6446071844836,-32.5155470926282],[-62.6447106750385,-32.5155903420136],[-62.6451214743164,-32.5157359493661],[-62.6453513933728,-32.5158179021821],[-62.6455104350343,-32.5158609450047],[-62.6456279600904,-32.5158734892787],[-62.6456725771791,-32.5158784618037],[-62.6458000339366,-32.5159010783658],[-62.6458840324993,-32.5159051833035],[-62.6459528333774,-32.5158932440479],[-62.6460144028369,-32.5158880104811],[-62.6461115729121,-32.515898610587],[-62.6461863158381,-32.5159031771267],[-62.6462841490386,-32.5159202868182],[-62.6464734964348,-32.5159655173909],[-62.6466905252563,-32.5160304635073],[-62.6469032485529,-32.5161184925162],[-62.6470167921034,-32.5161804730057],[-62.6470893073878,-32.5162289889507],[-62.6471445880407,-32.5162829075285],[-62.6471990021137,-32.5163581588068],[-62.6472867931802,-32.5164985154525],[-62.6473520754375,-32.5166831826329],[-62.6474777861846,-32.5170536980825]]}},{"type":"Feature","id":"CA00744","properties":{"OBJECTID":789,"Identificador":"CA00744","Nombre_Obra":"Canal El Achalay","Nombre_Tramo":null,"Tipo_Obra_Lineal":"Canal (CA)","Estado_Registro":"Vigente","Filtro_entidades":null,"Codigo_Anterior":"3-04-C083","Observaciones":"Fuente: Analia. Ancho de solera: 4.00 metros Ancho de boca: 8.00 mertros Profundidad: 3.5 metros. La traza se superponia con el Canal 10 de Mayo. $Origen: ","Cuenca_Hidrografica":"Río Carcarañá","UGH_II":null,"Zona_Inspeccion":"Zona II","Chequeado":"Si","Shape__Length":7070.02415396728,"Plan_Director":"Carcarañá","id":"CA00744","nombre_publico":"Canal El Achalay","origen":"aprhi"},"geometry":{"type":"LineString","coordinates":[[-62.4780317081883,-32.500591288089],[-62.4475176594574,-32.4800528047144],[-62.4446389600266,-32.4691934709476],[-62.4390687794403,-32.4694602714041],[-62.4383978236069,-32.4670105291486],[-62.4246137736854,-32.4630067911949]]}},{"type":"Feature","id":"CA00127","properties":{"OBJECTID":148,"Identificador":"CA00127","Nombre_Obra":"READECUACIÓN CANAL LOS PATOS-CUATRO CAMINO AL RIO TERCERO","Nombre_Tramo":"Estancia Monte del Toro- Ruta Provincial N°3","Tipo_Obra_Lineal":"Canal (CA)","Estado_Registro":"Vigente","Filtro_entidades":null,"Codigo_Anterior":"3-05-C001","Observaciones":"Fuente: P. Speranza 2017- Verificar traza con expediente.. $Origen: ","Cuenca_Hidrografica":"Río Carcarañá","UGH_II":null,"Zona_Inspeccion":"Zona III","Chequeado":"Si","Shape__Length":25954.217912973887,"Plan_Director":"Carcarañá","id":"CA00127","nombre_publico":"READECUACIÓN CANAL LOS PATOS-CUATRO CAMINO AL RIO TERCERO","origen":"aprhi"},"geometry":{"type":"LineString","coordinates":[[-62.4898328449204,-32.696773326349],[-62.49064024110421,-32.697295211114096]]}},{"type":"Feature","id":"CA00238","properties":{"OBJECTID":262,"Identificador":"CA00238","Nombre_Obra":"Canal de Sistematizacion Cauce Pampa Coche","Nombre_Tramo":null,"Tipo_Obra_Lineal":"Canal (CA)","Estado_Registro":"Vigente","Filtro_entidades":null,"Codigo_Anterior":"3-03-C010","Observaciones":"Fuente: Analia. $Origen: ","Cuenca_Hidrografica":"Río Carcarañá","UGH_II":null,"Zona_Inspeccion":"Zona II","Chequeado":null,"Shape__Length":43678.56579633926,"Plan_Director":"Carcarañá","id":"CA00238","nombre_publico":"Canal de Sistematizacion Cauce Pampa Coche","origen":"aprhi"},"geometry":{"type":"MultiLineString","coordinates":[[[-62.76232200267141,-32.44601582321461],[-62.7622605190232,-32.4460513863999]],[[-62.7622605190232,-32.4460513863999],[-62.7622441648434,-32.4460608455812]]]}},{"type":"Feature","id":"CA02259","properties":{"OBJECTID":3603,"Identificador":"CA02259","Nombre_Obra":"SISTEMATIZACIÓN DE ESCURRIMIENTOS RURALES CAMPO BOJANICH AL CANAL NOR-NORESTE DE SAN MARCOS SUD","Nombre_Tramo":"Canal Sur ","Tipo_Obra_Lineal":"Canal (CA)","Estado_Registro":"Vigente","Filtro_entidades":null,"Codigo_Anterior":null,"Observaciones":null,"Cuenca_Hidrografica":"Río Carcarañá","UGH_II":null,"Zona_Inspeccion":"Insp. Daniel Bussolari","Chequeado":null,"Shape__Length":3960.9762702572407,"Plan_Director":null,"id":"CA02259","nombre_publico":"SISTEMATIZACIÓN DE ESCURRIMIENTOS RURALES CAMPO BOJANICH AL CANAL NOR-NORESTE DE SAN MARCOS SUD","origen":"aprhi"},"geometry":{"type":"LineString","coordinates":[[-62.4475930103836,-32.5242419910211],[-62.4419730218391,-32.5211769900008],[-62.4399939353755,-32.5203919026604],[-62.4343117680337,-32.5175122941154],[-62.4342046240899,-32.5174538573027],[-62.4321184903997,-32.5087403476401],[-62.4478407410931,-32.5060366233444]]}},{"type":"Feature","id":"OT01018","properties":{"OBJECTID":2584,"Identificador":"OT01018","Nombre_Obra":null,"Nombre_Tramo":null,"Tipo_Obra_Lineal":"Canal (CA)","Estado_Registro":"Vigente","Filtro_entidades":null,"Codigo_Anterior":"3-05-C106","Observaciones":"Origen: PoliciaAmbiental","Cuenca_Hidrografica":"Río Carcarañá","UGH_II":null,"Zona_Inspeccion":"Zona II","Chequeado":null,"Shape__Length":1840.6887586203484,"Plan_Director":"Carcarañá","id":"OT01018","nombre_publico":"OT01018","origen":"aprhi"},"geometry":{"type":"LineString","coordinates":[[-62.3877774257907,-32.5432176698552],[-62.3876701377421,-32.5430820056093],[-62.3866401690093,-32.5427021457366],[-62.3837755701734,-32.5418519759913],[-62.3811255475824,-32.541001799292],[-62.3791728993403,-32.5403777279248],[-62.3762439274779,-32.5394732683179],[-62.3760186218807,-32.5394099561496],[-62.3754178072749,-32.5392652418628],[-62.3705683728717,-32.5377276368593],[-62.3701928639861,-32.5376010100407],[-62.369849540482,-32.5374743819831],[-62.3695705917995,-32.537248260683]]}},{"type":"Feature","id":"OT01164","properties":{"OBJECTID":2730,"Identificador":"OT01164","Nombre_Obra":"SOLICITA VISACION DE PLANOS DE MENSURA.- ESTABLECIMIENTO \"LA SARA\", PEDANÍA LITIN.","Nombre_Tramo":"Canal N° 1","Tipo_Obra_Lineal":"Canal (CA)","Estado_Registro":"Vigente","Filtro_entidades":null,"Codigo_Anterior":"3-04-C156","Observaciones":"","Cuenca_Hidrografica":"Río Carcarañá","UGH_II":null,"Zona_Inspeccion":"Zona II","Chequeado":"Si","Shape__Length":3061.36990930581,"Plan_Director":"Carcarañá","id":"OT01164","nombre_publico":"SOLICITA VISACION DE PLANOS DE MENSURA.- ESTABLECIMIENTO \"LA SARA\", PEDANÍA LITIN.","origen":"aprhi"},"geometry":{"type":"LineString","coordinates":[[-62.5382475818285,-32.4230271092276],[-62.5330548252378,-32.4241863125657],[-62.5317888228375,-32.424385550412],[-62.5315742466927,-32.4244398873997],[-62.5314454999076,-32.4244036633935],[-62.5299434635556,-32.4246572365908],[-62.5231842966342,-32.4257077472188],[-62.5230555503752,-32.4256171862426],[-62.5227766002999,-32.4253273916149],[-62.5217895476307,-32.424385550347],[-62.5210599868947,-32.4236429384241],[-62.5208883256155,-32.4234255870337],[-62.5202231374158,-32.4225199519885],[-62.5199012720959,-32.4220127928261],[-62.5191931699397,-32.4209078992655],[-62.5188069310369,-32.4203645046577],[-62.5180773708839,-32.4194588385698],[-62.5177769633594,-32.4189154335677],[-62.5171117756215,-32.4175025697987],[-62.5164036722636,-32.4169048127325],[-62.5155453657057,-32.4168685847036],[-62.5119833918254,-32.4179010720469]]}},{"type":"Feature","id":"CA00995","properties":{"OBJECTID":1055,"Identificador":"CA00995","Nombre_Obra":"CANAL DESVIADOR AL RIO III - BELL VILLE","Nombre_Tramo":null,"Tipo_Obra_Lineal":"Canal (CA)","Estado_Registro":"Vigente","Filtro_entidades":null,"Codigo_Anterior":"3-03-C016","Observaciones":"Fuente: Analia y P. Speranza. - 2016-2017-Ancho de ocupación aproximado 100 metros. Se hizo en la decada del 40, presumiblemente para aliviar la llegada de caudales al Canal San Antonio. Fue intervenido bajo expediente 0733-001810/2020.","Cuenca_Hidrografica":"Río Carcarañá","UGH_II":null,"Zona_Inspeccion":"Insp. Daniel Bussolari","Chequeado":null,"Shape__Length":34492.22728363167,"Plan_Director":"Carcarañá","id":"CA00995","nombre_publico":"CANAL DESVIADOR AL RIO III - BELL VILLE","origen":"aprhi"},"geometry":{"type":"MultiLineString","coordinates":[[[-62.6688894963614,-32.6106933579455],[-62.6691685213041,-32.6101611139771],[-62.6693077449796,-32.6098955432863],[-62.6693628482188,-32.6096686488274],[-62.6694785414659,-32.609192270655],[-62.6696525827428,-32.6081943560647],[-62.6698884473235,-32.6073016818288],[-62.670015487403,-32.6067258181424],[-62.6702676836426,-32.6062675074241],[-62.6708835962157,-32.6050101431615],[-62.6714828082899,-32.6037309948373],[-62.6721550896114,-32.6023796766709],[-62.6724375321695,-32.6018767450615],[-62.6725047741539,-32.6017570112598],[-62.67255328510627,-32.601693016396965]],[[-62.67299948458131,-32.60110150679194],[-62.6731074061016,-32.6009575845759],[-62.6733030427354,-32.6007578313302],[-62.6736662775198,-32.6005346580068],[-62.6746321185258,-32.6000053083427],[-62.680024605003,-32.5971152314414],[-62.6840320547469,-32.5950609039083],[-62.685488316894286,-32.59428030346363]],[[-62.692885576510726,-32.58966465199706],[-62.6951178469303,-32.5872516611084],[-62.69733188014471,-32.584917966091744]],[[-62.69806153076048,-32.58414096374708],[-62.69963820506682,-32.5824264673713]],[[-62.70509168067673,-32.57111108199555],[-62.70511928995675,-32.571034851741274]],[[-62.70528756661483,-32.57046509844908],[-62.7053367606214,-32.5702213772261],[-62.7054357445201,-32.5695514937528],[-62.7054356130315,-32.5688354949494],[-62.7054061345921,-32.5680509540983],[-62.7053097466084,-32.5675453259365],[-62.7049489838555,-32.5662764481117],[-62.7048079545649,-32.5654645992059],[-62.7047522239683,-32.5647490897692],[-62.7048092528198,-32.56396258458],[-62.7049766776932,-32.5633408509214],[-62.7052976223961,-32.5625312533149],[-62.7056740497234,-32.5618508482285],[-62.7059948747187,-32.5614048099418],[-62.7067742809909,-32.5605727001729],[-62.7071282695585,-32.5603004239868],[-62.7074353945207,-32.5600641937142],[-62.707580656385,-32.5599524631085],[-62.7082079226401,-32.5595884733777],[-62.7090725811985,-32.5592006453443],[-62.7102589010218,-32.5587887769874],[-62.7153793004324,-32.5572297021708],[-62.7161060403488,-32.5570084217819],[-62.718133369748664,-32.55637914076295]],[[-62.71884330829904,-32.556088967816265],[-62.7191967181895,-32.5559306951026],[-62.71962577229872,-32.55563351412997]],[[-62.72156551695593,-32.55386694644728],[-62.7216263616707,-32.5537921067375],[-62.72210397526322,-32.55305715944742]],[[-62.72250169594642,-32.55203891158048],[-62.7227086418253,-32.551153823705],[-62.7227274394126,-32.5502705629813],[-62.7225995808862,-32.5491939896965],[-62.7223328021484,-32.5483728521146],[-62.7220272481459,-32.5477397360565],[-62.7216352672494,-32.5471184309312],[-62.7213610144328,-32.5466837296068],[-62.7201398453984,-32.5449190748624],[-62.7186373371349,-32.5427557821082],[-62.7173034049395,-32.5408794008456],[-62.71644258348,-32.5395532929456],[-62.71642162288,-32.53949979911744]],[[-62.716404995167444,-32.53945736278993],[-62.716179765368,-32.5388825404504],[-62.7159848532997,-32.5383671624487],[-62.7159258243783,-32.5379908768659],[-62.7158598425471,-32.5375702649749],[-62.7159163378837,-32.5364788564446],[-62.7160973162087,-32.5355995256834],[-62.7161778188038,-32.5354037883042],[-62.7164734793105,-32.5346849059952],[-62.7170316645989,-32.5337456001917],[-62.717696905635,-32.5330089573102],[-62.7177826854379,-32.532913969401],[-62.7183344388995,-32.53247827102701]],[[-62.71846701178063,-32.53237358334897],[-62.7186592521294,-32.5322217785789],[-62.7220558349414,-32.5303576178217],[-62.7240347449845,-32.5292902471574],[-62.72926082777259,-32.52647143762787]],[[-62.731565993809824,-32.525181853019156],[-62.7318208861036,-32.5250371066916],[-62.73289131523844,-32.52443566177073]],[[-62.737261918981346,-32.520235547516364],[-62.7374384003301,-32.5199994936357],[-62.7381481556072,-32.5187918512097],[-62.7385243524674,-32.5179587059376],[-62.738749455221345,-32.51736341443193]],[[-62.739331539962336,-32.51474470811886],[-62.7393752385507,-32.5141008817822],[-62.7395110430111,-32.5120999955761],[-62.7396795861603,-32.5086085073204],[-62.7400009829979,-32.5029852742098],[-62.7400281269581,-32.5024806914099],[-62.7403057973465,-32.4973191833327],[-62.7404464384729,-32.4965676196935],[-62.7406571043484,-32.4957791356764],[-62.7408887396973,-32.4952322351107],[-62.7410034952074,-32.4949612920196],[-62.7414768095073,-32.4940929578212],[-62.7417966101352,-32.493553904041],[-62.7424495838962,-32.4928395360697],[-62.7435317219302,-32.4916232937736],[-62.74597064406592,-32.48895128798023]],[[-62.74762066983049,-32.48646472899007],[-62.7477259388896,-32.4860031290208],[-62.747753707392,-32.4852895724498],[-62.7476431180336,-32.4845281793948],[-62.7474351820621,-32.4837068753244],[-62.74674187515,-32.4809211067279],[-62.7455077881759,-32.4759905656189],[-62.7438308652266,-32.4690608957596],[-62.7436645945788,-32.4683234761449],[-62.743650612139,-32.4679266038295],[-62.7436919302364,-32.467262208323],[-62.7438031509073,-32.4668986047501],[-62.7441366584484,-32.4661704705631],[-62.7460389534585,-32.4626590899075],[-62.7474921398151,-32.4600308956638],[-62.7481453593874,-32.4590934845956],[-62.7486729368646,-32.4583440427066],[-62.7491313865152,-32.457793221233],[-62.7498671139997,-32.4570321493721],[-62.750182524668,-32.4567474405753],[-62.7502421059025,-32.4566936583661],[-62.7506582694521,-32.4563180026989],[-62.7518642343467,-32.4553011411445],[-62.75254908500571,-32.45484517978569]],[[-62.75315606426352,-32.45444106381746],[-62.753968962392,-32.4538998507364],[-62.7541098165848,-32.4538516052743],[-62.7541938469416,-32.453831386121],[-62.7542718225826,-32.4538264163499],[-62.75429510101518,-32.45381824799012]],[[-62.75469105383877,-32.45360174427762],[-62.7548030561357,-32.4535374249017],[-62.7549079398182,-32.4534771954492],[-62.75753968381423,-32.451926084329955]],[[-62.75928084532861,-32.450656263929055],[-62.7595313333801,-32.4504362546922],[-62.7598901644703,-32.4500520992122],[-62.7599372537688,-32.4499989098191],[-62.76014568407741,-32.44976347526013]],[[-62.760932677512045,-32.448680011618414],[-62.7614884460434,-32.4475390911194],[-62.7624913086273,-32.4456066784322],[-62.7639348516532,-32.4428288914261],[-62.764937808712,-32.4410658964258],[-62.7654450238698,-32.4401872654003],[-62.7659520076151,-32.4395746195795],[-62.7664590053076,-32.4391456789149],[-62.7672063169238,-32.4386780164307],[-62.7680997403209,-32.4382046786836],[-62.7684362505613,-32.4380263959337],[-62.7699845507322,-32.4371158136874],[-62.7719828358472,-32.4360479751174],[-62.7744857675915,-32.4347677005638],[-62.7755069897759,-32.4342923120701],[-62.7763632824648,-32.4338458917201],[-62.7771351785526,-32.4334651398662],[-62.7778197425713,-32.4331232969069],[-62.7783725575312,-32.4327093196768],[-62.7788274316013,-32.4323398194056],[-62.7791416532063,-32.4319969153169],[-62.7793338015664,-32.4317532413934],[-62.77943515969672,-32.4316106046835]],[[-62.78098617709642,-32.42748480979621],[-62.7810162319902,-32.4273929318187],[-62.7813349191277,-32.4264265298174],[-62.7814819800752,-32.4260513069615],[-62.781786976832,-32.425144201924],[-62.7819876345844,-32.4245226453508],[-62.7820399350938,-32.4243623917066],[-62.7821376484772,-32.4240629843679],[-62.7821596085111,-32.4238569771381],[-62.7822784522727,-32.4233418589718],[-62.7823007279496,-32.4229134860995],[-62.7823402207909,-32.4223322571857],[-62.7823401377444,-32.4219860885947],[-62.7823286517089,-32.4216202049994],[-62.7823286460025,-32.4216057579324],[-62.7822826557573,-32.4211585852759],[-62.7822023944058,-32.420562572341],[-62.7821051378958,-32.4200292083868],[-62.7818082731673,-32.4180505724424],[-62.7815970168735,-32.4166699087598],[-62.7815108535163,-32.4160374979031],[-62.7811945957871,-32.4140118539976],[-62.7810801463672,-32.4132476943261],[-62.7810514480895,-32.4128971128227],[-62.7810512341248,-32.4126040309386],[-62.7811022160236,-32.4122726392898],[-62.7811532315424,-32.411998954817],[-62.7812383041889,-32.4116537090413],[-62.7813943022033,-32.4112566404205],[-62.7815935610921,-32.4108870934031],[-62.7816186753333,-32.4108456587174],[-62.7818258682527,-32.4105038306992],[-62.7821483143381,-32.410121051638],[-62.7822785883488,-32.409966401447],[-62.7829660676832,-32.4090813175901],[-62.7836031569855,-32.4082539028043],[-62.7842579504412,-32.4073135100626],[-62.7849049783691,-32.40652620126],[-62.7850923783478,-32.4063006039977],[-62.7858134471936,-32.4053693595556],[-62.7862556299507,-32.4048570223809],[-62.7867243214551,-32.4041768892648],[-62.787479440622,-32.4032014404263],[-62.7880026867927,-32.4025241167269],[-62.788452094399,-32.4019471509202],[-62.7886565835861,-32.4016204452894],[-62.7888373647645,-32.4012562945586],[-62.7889852412062,-32.4008909513376],[-62.7890356156171,-32.4006984277047],[-62.7891129490517,-32.4004028679875],[-62.7892204427818,-32.3998088027873],[-62.7892165037963,-32.3996929920761],[-62.78921534078323,-32.39965879559529]]]}},{"type":"Feature","id":"CA00705","properties":{"OBJECTID":749,"Identificador":"CA00705","Nombre_Obra":"Limpieza del Canal Existente Monte Castillos OESTE 2","Nombre_Tramo":"Canal Secundario 2 - Monte Castillo Oeste 2","Tipo_Obra_Lineal":"Canal (CA)","Estado_Registro":"Vigente","Filtro_entidades":null,"Codigo_Anterior":"3-04-C043","Observaciones":"El canal  solo cuenta con el antecedente de limpieza del expediente referido. Fuente: Analia. $Origen: ","Cuenca_Hidrografica":"Río Carcarañá","UGH_II":null,"Zona_Inspeccion":"Zona II","Chequeado":null,"Shape__Length":227.9863462816928,"Plan_Director":"Carcarañá","id":"CA00705","nombre_publico":"Limpieza del Canal Existente Monte Castillos OESTE 2","origen":"aprhi"},"geometry":{"type":"LineString","coordinates":[[-62.3087814627068,-32.4467056629789],[-62.3088004754241,-32.4474089614351],[-62.3088822497518,-32.4482042379039],[-62.3089262734641,-32.4484310649115],[-62.3089249226176,-32.4487551828641]]}},{"type":"Feature","id":"CA01837","properties":{"OBJECTID":3291,"Identificador":"CA01837","Nombre_Obra":"Sistemación de excedentes hídricos al norte de Monte Leña","Nombre_Tramo":null,"Tipo_Obra_Lineal":"Terraplén (TE)","Estado_Registro":"Vigente","Filtro_entidades":null,"Codigo_Anterior":"3–05–T004","Observaciones":"","Cuenca_Hidrografica":"Río Carcarañá","UGH_II":null,"Zona_Inspeccion":"Insp. Daniel Bussolari","Chequeado":"Si","Shape__Length":441.8436415291651,"Plan_Director":"Carcarañá","id":"CA01837","nombre_publico":"Sistemación de excedentes hídricos al norte de Monte Leña","origen":"aprhi"},"geometry":{"type":"LineString","coordinates":[[-62.6182921947168,-32.5301649690288],[-62.6170261915797,-32.5302735164238],[-62.6144298131719,-32.5283739278127]]}},{"type":"Feature","id":"CA01943","properties":{"OBJECTID":3397,"Identificador":"CA01943","Nombre_Obra":"Sitematización Cuenca Campomaggi","Nombre_Tramo":null,"Tipo_Obra_Lineal":"Canal (CA)","Estado_Registro":"Vigente","Filtro_entidades":null,"Codigo_Anterior":"C1","Observaciones":"","Cuenca_Hidrografica":"Río Carcarañá","UGH_II":null,"Zona_Inspeccion":null,"Chequeado":null,"Shape__Length":5469.543649793707,"Plan_Director":"Carcarañá","id":"CA01943","nombre_publico":"Sitematización Cuenca Campomaggi","origen":"aprhi"},"geometry":{"type":"MultiLineString","coordinates":[[[-62.3596682648954,-32.4545794488993],[-62.3572368036719,-32.4542462638428],[-62.359597147246,-32.4545631256861],[-62.3596682648954,-32.4545794488993]],[[-62.3600569777137,-32.4546686665853],[-62.3596682648954,-32.4545794488993]],[[-62.3596682648954,-32.4545794488993],[-62.3597473510572,-32.4545902858764],[-62.3600569777137,-32.4546686665853]],[[-62.392861903561,-32.4588957862854],[-62.391650215262,-32.4584358637624],[-62.3901324202012,-32.4572462977393],[-62.3879787740407,-32.4567239325615],[-62.3862367633952,-32.4566257031089],[-62.3851082659012,-32.4563774229079],[-62.3847800510147,-32.4561627519138],[-62.3844518373503,-32.4562377771669],[-62.3831871754518,-32.4566939629838],[-62.3824602973078,-32.4573528465606],[-62.3805344705536,-32.4578739519402],[-62.3791504510363,-32.4581557213321],[-62.3775196680708,-32.458194197443],[-62.3763341317722,-32.4582485125793],[-62.3747730859568,-32.4584974651834],[-62.3744404919965,-32.4585789394164],[-62.3737753041121,-32.4585925187395],[-62.3731423029236,-32.4584748327705],[-62.3719031218438,-32.4581262996284],[-62.3704010847247,-32.45753333879],[-62.368636191877,-32.4564062478163],[-62.3684430728885,-32.4563292976216],[-62.3655945667082,-32.4557317978534],[-62.365240515351,-32.455713691336],[-62.3648220899975,-32.4553606210536],[-62.363953054201,-32.4550338896448],[-62.3635024439016,-32.4550519963811],[-62.3623115429263,-32.4555770774437],[-62.3618716609542,-32.4554412800245],[-62.3609275229426,-32.4548890398338],[-62.3600569777137,-32.4546686665853]],[[-62.3600569777137,-32.4546686665853],[-62.3609382520769,-32.454870933412],[-62.3618716609647,-32.4554322266398],[-62.3623866441934,-32.4554141207993],[-62.3631591204718,-32.4549614651792],[-62.364210546432,-32.4499187266794],[-62.3638564954987,-32.4495927947093],[-62.362579763962,-32.4443958341327],[-62.3626441364249,-32.4441513709182],[-62.3626334078609,-32.4441694793343]]]}},{"type":"Feature","id":"CA00741","properties":{"OBJECTID":786,"Identificador":"CA00741","Nombre_Obra":"SISTEMATIZACION CUENCA NOR-NORESTE SAN MARCOS SUD","Nombre_Tramo":null,"Tipo_Obra_Lineal":"Canal (CA)","Estado_Registro":"Vigente","Filtro_entidades":null,"Codigo_Anterior":"3-04-C080","Observaciones":"fcefyn Cuya Fuente Es Rrhh. $Origen: ","Cuenca_Hidrografica":"Río Carcarañá","UGH_II":null,"Zona_Inspeccion":"Zona II","Chequeado":null,"Shape__Length":3538.7218050756583,"Plan_Director":"Carcarañá","id":"CA00741","nombre_publico":"SISTEMATIZACION CUENCA NOR-NORESTE SAN MARCOS SUD","origen":"aprhi"},"geometry":{"type":"LineString","coordinates":[[-62.4478213717891,-32.5059613719],[-62.4478999996102,-32.5060399988674],[-62.4507199995269,-32.5068899987523],[-62.4529100001211,-32.5075199988447],[-62.4538699995146,-32.5078199994289],[-62.4539999995556,-32.5078499988475],[-62.4542100000375,-32.5078199995939],[-62.4544199998573,-32.5078099985657],[-62.4576600000056,-32.5090499996845],[-62.4613000000505,-32.5109899988374],[-62.4641299999693,-32.512240000411],[-62.4643900001891,-32.512320000016],[-62.4645100000005,-32.5124799990249],[-62.4661299995095,-32.5122399992815],[-62.4681700001895,-32.5133299987333],[-62.4683700004927,-32.513409999784],[-62.4731900007046,-32.5151899992621],[-62.4738799994015,-32.5154599993266],[-62.476879999999,-32.516529999614],[-62.481959999941,-32.5184299990585]]}},{"type":"Feature","id":"CA01843","properties":{"OBJECTID":3297,"Identificador":"CA01843","Nombre_Obra":"Sistemación de excedentes hídricos al norte de Monte Leña","Nombre_Tramo":null,"Tipo_Obra_Lineal":"Canal (CA)","Estado_Registro":"Vigente","Filtro_entidades":null,"Codigo_Anterior":"3–05–C125","Observaciones":"","Cuenca_Hidrografica":"Río Carcarañá","UGH_II":null,"Zona_Inspeccion":"Insp. Daniel Bussolari","Chequeado":null,"Shape__Length":17234.908768201927,"Plan_Director":"Carcarañá","id":"CA01843","nombre_publico":"Sistemación de excedentes hídricos al norte de Monte Leña","origen":"aprhi"},"geometry":{"type":"LineString","coordinates":[[-62.6878496473252,-32.5119050266438],[-62.6868415450648,-32.5121340218732],[-62.675766335454,-32.5081000069604],[-62.6663157727679,-32.5083010467763],[-62.6586467530569,-32.5081228853436],[-62.6579250241766,-32.5082059548204],[-62.6578036216929,-32.5082142777945],[-62.6570472762198,-32.5089895623859],[-62.6534547026969,-32.5096831607686],[-62.6514880382392,-32.5100701405716],[-62.6486733663244,-32.5111281322814],[-62.6462069463449,-32.5123597019567],[-62.6447149443771,-32.5129645883566],[-62.6430670697326,-32.5134409064252],[-62.6411163276562,-32.5136749146387],[-62.6392910099795,-32.5133501241487],[-62.6380037965526,-32.5124265812999],[-62.6325758466221,-32.5135337016355],[-62.6309037859176,-32.5125635890833],[-62.6287567509906,-32.5121164808657],[-62.626904200361,-32.5116316540601],[-62.6190450445269,-32.5139008554182],[-62.6148664490355,-32.5159432887494],[-62.6160604884972,-32.5218499599746],[-62.6175075481611,-32.5274447950579],[-62.6134231802133,-32.5312723548967],[-62.6045397032677,-32.5403354499884],[-62.6096987381685,-32.561199582188],[-62.6071018525677,-32.561674782597],[-62.6061543128148,-32.5624246989539],[-62.606222506272,-32.5632402685876],[-62.6019355192843,-32.563801013567],[-62.5999830263657,-32.5640248577262],[-62.5952958338333,-32.5646045501648],[-62.5932449395297,-32.5648415625955],[-62.5917907935981,-32.5649745212559],[-62.5881554289858,-32.5654947908444],[-62.5858027306511,-32.5658011707068],[-62.5831550878777,-32.5661422335599],[-62.5790471583294,-32.5667044212049],[-62.5725010942753,-32.5678420831592],[-62.5650056997532,-32.5692001791041]]}},{"type":"Feature","id":"OT01159","properties":{"OBJECTID":2725,"Identificador":"OT01159","Nombre_Obra":"SOLICITA VISACION DE PLANOS DE MENSURA.- ESTABLECIMIENTO \"LA SARA\", PEDANÍA LITIN.","Nombre_Tramo":"Canal N° 4","Tipo_Obra_Lineal":"Canal (CA)","Estado_Registro":"Vigente","Filtro_entidades":null,"Codigo_Anterior":"3-04-C153","Observaciones":"","Cuenca_Hidrografica":"Río Carcarañá","UGH_II":null,"Zona_Inspeccion":"Zona II","Chequeado":"Si","Shape__Length":1365.9248887674398,"Plan_Director":"Carcarañá","id":"OT01159","nombre_publico":"SOLICITA VISACION DE PLANOS DE MENSURA.- ESTABLECIMIENTO \"LA SARA\", PEDANÍA LITIN.","origen":"aprhi"},"geometry":{"type":"LineString","coordinates":[[-62.5216286147776,-32.4558051186792],[-62.5198261706152,-32.4539582763715],[-62.5188391176584,-32.4529080946653],[-62.5180666415339,-32.4521657165979],[-62.517208335129,-32.4515138697184],[-62.5166933507938,-32.4507895878782],[-62.5157921279853,-32.4497755837509],[-62.5151483985197,-32.4491961478111],[-62.514826533213,-32.4489788579176],[-62.5140325991878,-32.4481278034432],[-62.5135390729904,-32.447638894813],[-62.5128738849793,-32.4467878270508],[-62.5125734779324,-32.4462445865823]]}},{"type":"Feature","id":"CA00996","properties":{"OBJECTID":1056,"Identificador":"CA00996","Nombre_Obra":"CANAL LITIN-TORTUGAS","Nombre_Tramo":null,"Tipo_Obra_Lineal":"Canal (CA)","Estado_Registro":"Vigente","Filtro_entidades":null,"Codigo_Anterior":"3-04-C093","Observaciones":"Fuente: Analia y P. Speranza. - 2016. La traza de Analia es mas corta. $Origen: ","Cuenca_Hidrografica":"Río Carcarañá","UGH_II":null,"Zona_Inspeccion":"Zona II","Chequeado":null,"Shape__Length":78945.4928599762,"Plan_Director":"Carcarañá","id":"CA00996","nombre_publico":"CANAL LITIN-TORTUGAS","origen":"aprhi"},"geometry":{"type":"LineString","coordinates":[[-62.29673391564633,-32.43289052130464],[-62.2971681880196,-32.4328148195663],[-62.2992749341442,-32.4324290750552],[-62.3038781533587,-32.4316035239307],[-62.3057970404074,-32.4312808392297],[-62.30627295799,-32.4311951915643],[-62.3067398929241,-32.4311750583959],[-62.3072449752186,-32.4311948022256],[-62.3078114074852,-32.4312612896341],[-62.308368741866,-32.4313998521906],[-62.3092900282032,-32.4316219348266],[-62.3126165874742,-32.432460166233],[-62.3166117476313,-32.4334755423425],[-62.3215581784336,-32.4347196038671],[-62.3254643749991,-32.4357010672349],[-62.3262297872974,-32.435922032061],[-62.3272177136158,-32.4362486943602],[-62.3285746980402,-32.4367316517467],[-62.3301159208176,-32.4373089633131],[-62.3334211364978,-32.4385583983446],[-62.3367200289462,-32.4398076669137],[-62.3416594431993,-32.4416679085737],[-62.3428501127994,-32.4421377566959],[-62.3469137338288,-32.4436671337151],[-62.3499775620058,-32.4448156435564],[-62.3506790925136,-32.4450302325731],[-62.3510430701316,-32.4451160490686],[-62.351484368769,-32.4451812027379],[-62.3521636570198,-32.4452060960107],[-62.3526129234741,-32.4451847637026],[-62.3531011283815,-32.4451368645848],[-62.3536737440699,-32.4450305136659],[-62.3548828892386,-32.4448294382091],[-62.356973656917,-32.444455560422],[-62.3592060069974,-32.4440509788882],[-62.3598491278371,-32.4439454940992],[-62.3604335872573,-32.4438933765803],[-62.3609147016456,-32.443883240576],[-62.3611837723866,-32.4438974715809],[-62.3619706022812,-32.4440048474232],[-62.3656415958316,-32.4445545644271],[-62.368385474102,-32.4449572006828],[-62.3714173470917,-32.4453904609715],[-62.3746346336783,-32.4458584356882],[-62.3772317418229,-32.4462211517087],[-62.3839636573838,-32.4472915035563],[-62.3915644947016,-32.4484665222994],[-62.3948301994688,-32.4489969860286],[-62.3971459725942,-32.4493648672403],[-62.3978441437995,-32.4494488839452],[-62.3988257369401,-32.4494987181276],[-62.3996151675731,-32.4494707981386],[-62.4007335417794,-32.4493590067421],[-62.410224018204,-32.4480312917257],[-62.4201476576391,-32.4466075993064],[-62.4213712436728,-32.4464340960588],[-62.4226554061661,-32.4461985179007],[-62.4236725403509,-32.4459094302914],[-62.4247662242859,-32.4454956518649],[-62.4257121517916,-32.4450172587836],[-62.4273082790017,-32.4439437923819],[-62.4282017149983,-32.4430502131633],[-62.4288240592455,-32.4423417613823],[-62.4294812922698,-32.4413322513601],[-62.4298357599166,-32.4406205390281],[-62.4299321074894,-32.4402071727523],[-62.430254286969124,-32.439587794772436]]}},{"type":"Feature","id":"CA01832","properties":{"OBJECTID":3286,"Identificador":"CA01832","Nombre_Obra":"Sistemación de excedentes hídricos al norte de Monte Leña","Nombre_Tramo":null,"Tipo_Obra_Lineal":"Terraplén (TE)","Estado_Registro":"Vigente","Filtro_entidades":null,"Codigo_Anterior":"3–05–T001","Observaciones":null,"Cuenca_Hidrografica":"Río Carcarañá","UGH_II":null,"Zona_Inspeccion":"Insp. Daniel Bussolari","Chequeado":null,"Shape__Length":1043.1353942797707,"Plan_Director":"Carcarañá","id":"CA01832","nombre_publico":"Sistemación de excedentes hídricos al norte de Monte Leña","origen":"aprhi"},"geometry":{"type":"LineString","coordinates":[[-62.675859202022,-32.5046906713622],[-62.6784527408111,-32.513836693994]]}},{"type":"Feature","id":"CA00139","properties":{"OBJECTID":160,"Identificador":"CA00139","Nombre_Obra":"Canal Chico- San Marcos","Nombre_Tramo":null,"Tipo_Obra_Lineal":"Canal (CA)","Estado_Registro":"Vigente","Filtro_entidades":null,"Codigo_Anterior":"3-05-C013","Observaciones":"","Cuenca_Hidrografica":"Río Carcarañá","UGH_II":null,"Zona_Inspeccion":"Zona II","Chequeado":"Si","Shape__Length":5531.994509944211,"Plan_Director":"Carcarañá","id":"CA00139","nombre_publico":"Canal Chico- San Marcos","origen":"aprhi"},"geometry":{"type":"LineString","coordinates":[[-62.5653916879567,-32.5694811600636],[-62.5076566505666,-32.5793555534028],[-62.5076478922037,-32.5793621242147]]}},{"type":"Feature","id":"OT00895","properties":{"OBJECTID":2461,"Identificador":"OT00895","Nombre_Obra":null,"Nombre_Tramo":null,"Tipo_Obra_Lineal":"Otro (OT)","Estado_Registro":"Vigente","Filtro_entidades":null,"Codigo_Anterior":"3-03-C091","Observaciones":"Se obtiene traza a partir de expte de Pl. Ambiental 0694-009265/2017. Origen: PoliciaAmbiental","Cuenca_Hidrografica":"Río Carcarañá","UGH_II":null,"Zona_Inspeccion":"Zona II","Chequeado":null,"Shape__Length":248.0892912381298,"Plan_Director":"Carcarañá","id":"OT00895","nombre_publico":"OT00895","origen":"aprhi"},"geometry":{"type":"LineString","coordinates":[[-62.72271810884672,-32.54943317945149],[-62.7226433532173,-32.549449983131]]}},{"type":"Feature","id":"CA01840","properties":{"OBJECTID":3294,"Identificador":"CA01840","Nombre_Obra":"Sistemación de excedentes hídricos al norte de Monte Leña","Nombre_Tramo":null,"Tipo_Obra_Lineal":"Alteo de Camino (AC)","Estado_Registro":"Vigente","Filtro_entidades":null,"Codigo_Anterior":"3–05–T006","Observaciones":"","Cuenca_Hidrografica":"Río Carcarañá","UGH_II":null,"Zona_Inspeccion":"Insp. Daniel Bussolari","Chequeado":"Si","Shape__Length":410.9039759141418,"Plan_Director":"Carcarañá","id":"CA01840","nombre_publico":"Sistemación de excedentes hídricos al norte de Monte Leña","origen":"aprhi"},"geometry":{"type":"LineString","coordinates":[[-62.6031581031276,-32.5366111367707],[-62.6041022399877,-32.5402290340919]]}},{"type":"Feature","id":"CA00145","properties":{"OBJECTID":166,"Identificador":"CA00145","Nombre_Obra":"Canal San Marcos","Nombre_Tramo":null,"Tipo_Obra_Lineal":"Canal (CA)","Estado_Registro":"Vigente","Filtro_entidades":null,"Codigo_Anterior":"3-05-C019","Observaciones":"","Cuenca_Hidrografica":"Río Carcarañá","UGH_II":null,"Zona_Inspeccion":"Zona II","Chequeado":null,"Shape__Length":19853.368179514553,"Plan_Director":"Carcarañá","id":"CA00145","nombre_publico":"Canal San Marcos","origen":"aprhi"},"geometry":{"type":"LineString","coordinates":[[-62.3905634483646,-32.544755208011],[-62.3974731947147,-32.5497180447624],[-62.3977241408513,-32.5497400876833],[-62.399683568179,-32.5517435807187],[-62.3998346407489,-32.5519605084304],[-62.4045457036968,-32.5546150410231],[-62.405846338957,-32.5554127150176],[-62.4064845632886,-32.556218572065],[-62.406647855217,-32.5563521527723],[-62.4080639289147,-32.5568424652702],[-62.4090070876813,-32.5572068081728],[-62.4106348882009,-32.5579638501861],[-62.4108435403145,-32.5585861316544],[-62.4110035048025,-32.5593270196442],[-62.4111072461201,-32.5593633950388],[-62.4114282242191,-32.5593142603554],[-62.4132699950958,-32.5603662489016],[-62.4162710214879,-32.5621629538408],[-62.4170798902639,-32.56282590728],[-62.4172805595569,-32.5629195669857],[-62.4177603660104,-32.5628301782324],[-62.4179409006623,-32.5628720218512],[-62.4215073992163,-32.564943944737],[-62.4233777646444,-32.5660403199188],[-62.4238157315994,-32.5662547185767],[-62.424011095254,-32.5662219527463],[-62.4245980403041,-32.5665368499054],[-62.4268010726928,-32.5678573242981],[-62.4295458039478,-32.569486177196],[-62.4319778414701,-32.57084105238],[-62.4319816995385,-32.570841066209],[-62.4345229027912,-32.572174958078],[-62.4366732224635,-32.5733252056061],[-62.4368736004637,-32.5734523876657],[-62.4369316169939,-32.5736124477223],[-62.4371126406315,-32.5737471405828],[-62.4373901902302,-32.5738697106708],[-62.4413682413852,-32.5756246446045],[-62.4441299975082,-32.576788495908],[-62.4463352971734,-32.5777429683588],[-62.4483931505419,-32.5786437331251],[-62.449065621624,-32.5789104748924],[-62.4508959104556,-32.579681720317],[-62.4515627129749,-32.5799960140861],[-62.4517348913089,-32.5800277998813],[-62.4519341904614,-32.580156035382],[-62.4520957749839,-32.580171095366],[-62.4530483105862,-32.5800059693232],[-62.4531490185368,-32.5800254420086],[-62.45321237813,-32.5801069194091],[-62.4532555473374,-32.5802482156167],[-62.4533550155724,-32.5806424610739],[-62.4540185585933,-32.5832200266892],[-62.4542081462103,-32.5847169628273],[-62.4540884416124,-32.5851401220775],[-62.4537707445149,-32.5860214778938],[-62.4537543905272,-32.5862649801323],[-62.4538576188904,-32.5865841559562],[-62.4547379507854,-32.5887012527079],[-62.4545950889526,-32.5887472515525],[-62.4546046125543,-32.5889390677847],[-62.4547966645359,-32.5900381381034],[-62.4549975868889,-32.5914123445852],[-62.4555666688019,-32.594936768945],[-62.4556288393075,-32.5952388208691],[-62.456916781307,-32.5999967465757],[-62.4570639283369,-32.6005535376278],[-62.4574444339582,-32.6019682493675],[-62.4583866571146,-32.6054803131161],[-62.4590172600147,-32.6080424488077],[-62.4600993172937,-32.6125137307803],[-62.4605703381737,-32.6142714341733],[-62.4609264813221,-32.6155201505713],[-62.4612847734563,-32.6156896206912],[-62.4616896360546,-32.6156451112037],[-62.4658010062461,-32.6149147442229],[-62.4665537577479,-32.6147662478986],[-62.4668733334864,-32.614742084433],[-62.4670995980604,-32.6147874866291],[-62.467292878841,-32.6149700753798],[-62.4681777059633,-32.6185906832636],[-62.4690892618619,-32.6220953428312],[-62.4691695930753,-32.6224587787557],[-62.4707817000608,-32.628809165945],[-62.4712093927035,-32.63052977211],[-62.4720186317934,-32.6337878741122],[-62.4721231881705,-32.6341496249851],[-62.4722355872022,-32.6346749903863],[-62.4730482856777,-32.6378705278334],[-62.4735498402165,-32.6399393915716],[-62.4745655922987,-32.64404055482],[-62.4748967192914,-32.6452997865765],[-62.4750485812977,-32.6454450833903],[-62.4752046369543,-32.6455233498385],[-62.4754950043016,-32.6455510439364],[-62.4758024819815,-32.645498369767],[-62.4759964384727,-32.6454570325752],[-62.4780635828262,-32.6450863431705],[-62.481883433827,-32.6444150676564],[-62.4845626625725,-32.6439438983403],[-62.4849926931512,-32.6438751492409],[-62.4853178878694,-32.64396109782],[-62.4854160132874,-32.6440795721783],[-62.4855634348791,-32.6443645937856],[-62.4856754966696,-32.644936219576],[-62.4865877710637,-32.6486079930889],[-62.4875611316027,-32.6525584148498],[-62.4881938554076,-32.6552248170575],[-62.4886995394926,-32.6571272448979],[-62.4898869403077,-32.6619363804033],[-62.49090998148,-32.6660924992068],[-62.4915999940306,-32.6688457600754],[-62.4923212514937,-32.6715856512314],[-62.4931820974482,-32.6750517290633]]}},{"type":"Feature","id":"CA00703","properties":{"OBJECTID":747,"Identificador":"CA00703","Nombre_Obra":"Limpieza del Canal Existente Monte Castillos OESTE 2","Nombre_Tramo":"Canal Principal - Monte Castillo Oeste 2","Tipo_Obra_Lineal":"Canal (CA)","Estado_Registro":"Vigente","Filtro_entidades":null,"Codigo_Anterior":"3-04-C041","Observaciones":"El canal  solo cuenta con el antecedente de limpieza del expediente referido. Fuente: Analia. $Origen: ","Cuenca_Hidrografica":"Río Carcarañá","UGH_II":null,"Zona_Inspeccion":"Zona II","Chequeado":null,"Shape__Length":3452.5575105994453,"Plan_Director":"Carcarañá","id":"CA00703","nombre_publico":"Limpieza del Canal Existente Monte Castillos OESTE 2","origen":"aprhi"},"geometry":{"type":"LineString","coordinates":[[-62.3220597928116,-32.4455356068041],[-62.3114020198811,-32.4473071832205],[-62.3087793345698,-32.4467300692082],[-62.3060152185038,-32.4461659026285],[-62.3046420114925,-32.4458794189572],[-62.3004251633078,-32.4447985259022],[-62.2999007054693,-32.4426394997598],[-62.298085600831,-32.4353201659131],[-62.2974851904281,-32.4327744410572]]}},{"type":"Feature","id":"OT01027","properties":{"OBJECTID":2593,"Identificador":"OT01027","Nombre_Obra":null,"Nombre_Tramo":null,"Tipo_Obra_Lineal":"Canal (CA)","Estado_Registro":"Vigente","Filtro_entidades":null,"Codigo_Anterior":"3-04-C149","Observaciones":"Origen: PoliciaAmbiental","Cuenca_Hidrografica":"Río Carcarañá","UGH_II":null,"Zona_Inspeccion":"Zona II","Chequeado":null,"Shape__Length":1220.1371965478959,"Plan_Director":"Carcarañá","id":"OT01027","nombre_publico":"OT01027","origen":"aprhi"},"geometry":{"type":"LineString","coordinates":[[-62.5891425637345,-32.5272589574212],[-62.5889172582561,-32.5265262393954],[-62.5887080459427,-32.5258025611206],[-62.5882842568034,-32.5241697411205],[-62.5878308774692,-32.5226293350806],[-62.5905622721269,-32.5217399640424],[-62.5911221905825,-32.5214113170369],[-62.5914510152512,-32.5211441324449],[-62.5924961408233,-32.5205574190547],[-62.5930187928472,-32.5203491598245],[-62.5932068420126,-32.5202512119035],[-62.5934272685407,-32.5202024020753],[-62.5938847797411,-32.5200922089222],[-62.5943943289199,-32.5199224607886]]}},{"type":"Feature","id":"CA00697","properties":{"OBJECTID":741,"Identificador":"CA00697","Nombre_Obra":"Canal 10 de Mayo ( SISTEMATIZACION CUENCA NOR-NORESTE SAN MARCOS SUD)","Nombre_Tramo":null,"Tipo_Obra_Lineal":"Canal (CA)","Estado_Registro":"Vigente","Filtro_entidades":null,"Codigo_Anterior":"3-04-C035","Observaciones":"Fuente: Calvo de LRantica. Se superpone en parte con el canal El Achalay. $Origen: ","Cuenca_Hidrografica":"Río Carcarañá","UGH_II":null,"Zona_Inspeccion":"Zona II","Chequeado":null,"Shape__Length":20739.794809000265,"Plan_Director":"Carcarañá","id":"CA00697","nombre_publico":"Canal 10 de Mayo ( SISTEMATIZACION CUENCA NOR-NORESTE SAN MARCOS SUD)","origen":"aprhi"},"geometry":{"type":"LineString","coordinates":[[-62.5495966355819,-32.497015332943],[-62.539125749245,-32.4991192142609],[-62.5366924574305,-32.5004325066345],[-62.5307997823009,-32.505172464438],[-62.5278254540195,-32.5076001984221],[-62.5278289501982,-32.5076241489983],[-62.5272603285447,-32.5086179185499],[-62.5248160240865,-32.5132422585898],[-62.514735124121,-32.5149681332288],[-62.5125443493649,-32.5130794289951],[-62.5097888956484,-32.5116678914154],[-62.5096287443591,-32.5115963234124],[-62.5093881065381,-32.5114887841184],[-62.5082585665593,-32.5109839960721],[-62.5080943851963,-32.5109841892455],[-62.5060792176024,-32.5114926903728],[-62.5057932440968,-32.511493021815],[-62.505548121677,-32.5114933048666],[-62.49900517321,-32.509378007979],[-62.4789753014969,-32.5006179981912],[-62.47805379533,-32.5005682583724],[-62.4478640546942,-32.5058598314037],[-62.4442176686059,-32.5030220769245],[-62.4366059901335,-32.4925250582682],[-62.4364829542601,-32.4922129185601],[-62.4363595683661,-32.49189988444],[-62.4306971754756,-32.483854130345],[-62.4305482807898,-32.4834320321372],[-62.4286646123597,-32.4778866224136],[-62.427451757859,-32.4736403345815],[-62.4274208036785,-32.473524182153],[-62.4262209530273,-32.4672889778141],[-62.4261858137875,-32.4671885754497],[-62.4244579428738,-32.4632046031111],[-62.4243421907397,-32.4629121174111],[-62.4238622789855,-32.4612334525923],[-62.4225401779463,-32.4601583438784],[-62.4129926380094,-32.4614564813745],[-62.4116509982735,-32.4579907616712],[-62.3960775518026,-32.4601133938946],[-62.3929579090514,-32.448766410558],[-62.3928597515607,-32.4486769163112],[-62.3924486261224,-32.4483020788697]]}},{"type":"Feature","id":"CA00733","properties":{"OBJECTID":778,"Identificador":"CA00733","Nombre_Obra":" ","Nombre_Tramo":null,"Tipo_Obra_Lineal":"Canal (CA)","Estado_Registro":"Vigente","Filtro_entidades":null,"Codigo_Anterior":"3-04-C072","Observaciones":"Fcefyn. Origen: PoliciaAmbiental","Cuenca_Hidrografica":"Río Carcarañá","UGH_II":null,"Zona_Inspeccion":"Zona II","Chequeado":null,"Shape__Length":4084.9993302245093,"Plan_Director":"Carcarañá","id":"CA00733","nombre_publico":" ","origen":"aprhi"},"geometry":{"type":"LineString","coordinates":[[-62.4241199994598,-32.4624399989182],[-62.4241900000126,-32.4624399989553],[-62.4242700003245,-32.4624699994144],[-62.4244100006363,-32.4625799992266],[-62.4245599999406,-32.462619998711],[-62.4250799992812,-32.4629199990822],[-62.4254399992852,-32.4631599989361],[-62.4260000000326,-32.4633599989114],[-62.4266600000265,-32.4636199987911],[-62.4286400001456,-32.4641899988387],[-62.4289899999689,-32.4643199991635],[-62.4291499993431,-32.4643599997796],[-62.4295799993587,-32.4643999992001],[-62.4299700001505,-32.4645699986555],[-62.4301700005998,-32.4646399985576],[-62.4305900000178,-32.4647299991807],[-62.4310900002768,-32.4648899991291],[-62.4327999997019,-32.4653099985981],[-62.4348599998034,-32.465719998862],[-62.4353899991059,-32.465849999394],[-62.4359299999808,-32.465939999154],[-62.4369699992329,-32.4661599986901],[-62.4408099994549,-32.4668999990388],[-62.4427699995915,-32.4673299991328],[-62.4431100001317,-32.4673599992862],[-62.4435700002522,-32.4673599997849],[-62.4440500004144,-32.4673399989583],[-62.4444000004287,-32.4672699994314],[-62.4453699993073,-32.4671299987015],[-62.4456900001337,-32.4670499993241],[-62.4461399999023,-32.4668899991989],[-62.4467499995107,-32.4667199997586],[-62.4490700010449,-32.4660999987829],[-62.449449999984,-32.4659699985672],[-62.4497199991001,-32.4658599975941],[-62.4542699999209,-32.4627499986757],[-62.4548200002759,-32.4624299987013],[-62.4552199998713,-32.4621099984016],[-62.4585200000014,-32.4598399992089],[-62.46015000019,-32.4587399989103],[-62.4602500006655,-32.4584699991238],[-62.4607800005349,-32.4561099991821]]}},{"type":"Feature","id":"OT01139","properties":{"OBJECTID":2705,"Identificador":"OT01139","Nombre_Obra":"ALTEO CAMINO t27-59","Nombre_Tramo":null,"Tipo_Obra_Lineal":"Alteo de Camino (AC)","Estado_Registro":"Vigente","Filtro_entidades":null,"Codigo_Anterior":"3-04-T001","Observaciones":"Alteo de Camino. Origen: PoliciaAmbiental","Cuenca_Hidrografica":"Río Carcarañá","UGH_II":null,"Zona_Inspeccion":"Zona II","Chequeado":null,"Shape__Length":232.20852030944658,"Plan_Director":"Carcarañá","id":"OT01139","nombre_publico":"ALTEO CAMINO t27-59","origen":"aprhi"},"geometry":{"type":"LineString","coordinates":[[-62.3375428012288,-32.5227632994257],[-62.3380255989291,-32.5248167890679]]}}]}