{"type":"FeatureCollection","name":"caminos_huecos","metadata":{"schema_version":"1.1","generated_at":"2026-09-22T20:14:40Z","priority":"1 Red Vial 380, 2 IDECOR faltantes, 3 remainder. OSM minus 20 m buffer; IGN minus 150 m (generalized).","osm":"Overpass unclassified remainder","ign":"WFS ign:vial_terciaria remainder","stats":{"osm_n":47,"osm_km":105.7,"ign_n":12,"ign_km":34.3,"osm_dropped_km":443.6,"ign_dropped_km":119.5}},"features":[{"type":"Feature","id":"osm-124809371","properties":{"osm_id":124809371,"highway":"unclassified","nombre":"","fuente":"osm","longitud_km":3.131,"recortado_km":6.082},"geometry":{"type":"LineString","coordinates":[[-62.51669674281769,-32.626075399275244],[-62.5254339,-32.6245154],[-62.5320554,-32.6233253],[-62.5356963,-32.6226709],[-62.5443513,-32.621125],[-62.549401665040016,-32.620223017981914]]}},{"type":"Feature","id":"osm-141609465","properties":{"osm_id":141609465,"highway":"unclassified","nombre":"","fuente":"osm","longitud_km":0.152,"recortado_km":0.022},"geometry":{"type":"LineString","coordinates":[[-62.509732136367205,-32.41018491968466],[-62.509402585325766,-32.40885083472942]]}},{"type":"Feature","id":"osm-224934786","properties":{"osm_id":224934786,"highway":"unclassified","nombre":"","fuente":"osm","longitud_km":0.222,"recortado_km":9.714},"geometry":{"type":"LineString","coordinates":[[-62.502047506159265,-32.59252416686206],[-62.5003334,-32.5927409],[-62.49970638653779,-32.59282475174757]]}},{"type":"Feature","id":"osm-244901732","properties":{"osm_id":244901732,"highway":"unclassified","nombre":"","fuente":"osm","longitud_km":2.547,"recortado_km":6.503},"geometry":{"type":"LineString","coordinates":[[-62.54963364127191,-32.61977605734883],[-62.5628618,-32.6174099],[-62.5629369,-32.6173738],[-62.562996,-32.6173105],[-62.5629852,-32.6172337],[-62.56015887653156,-32.606200600430334]]}},{"type":"Feature","id":"osm-244901757","properties":{"osm_id":244901757,"highway":"unclassified","nombre":"","fuente":"osm","longitud_km":1.303,"recortado_km":1.761},"geometry":{"type":"MultiLineString","coordinates":[[[-62.60352875424529,-32.60991337278813],[-62.6007525417647,-32.59889804688683]],[[-62.59709347390696,-32.58398107174397],[-62.59730676876438,-32.5835575053859]]]}},{"type":"Feature","id":"osm-246067744","properties":{"osm_id":246067744,"highway":"unclassified","nombre":"","fuente":"osm","longitud_km":0.829,"recortado_km":5.124},"geometry":{"type":"LineString","coordinates":[[-62.530395926953666,-32.46799967285909],[-62.5218201,-32.4697804]]}},{"type":"Feature","id":"osm-246067760","properties":{"osm_id":246067760,"highway":"unclassified","nombre":"","fuente":"osm","longitud_km":2.374,"recortado_km":0.401},"geometry":{"type":"LineString","coordinates":[[-62.75942266631333,-32.42092820189252],[-62.752527,-32.4220779],[-62.7523725,-32.4220916],[-62.7522668,-32.4220573],[-62.7522099,-32.4219681],[-62.74861700850402,-32.40718546905651]]}},{"type":"Feature","id":"osm-246067791","properties":{"osm_id":246067791,"highway":"unclassified","nombre":"","fuente":"osm","longitud_km":2.648,"recortado_km":0.031},"geometry":{"type":"LineString","coordinates":[[-62.702355292305526,-32.41556113774469],[-62.707846,-32.4371709],[-62.7081419,-32.4375315],[-62.707977,-32.4378459],[-62.7082149,-32.4387412],[-62.70820669764447,-32.4387564834531]]}},{"type":"Feature","id":"osm-246067792","properties":{"osm_id":246067792,"highway":"unclassified","nombre":"","fuente":"osm","longitud_km":2.921,"recortado_km":7.652},"geometry":{"type":"LineString","coordinates":[[-62.453412765595274,-32.50478048420695],[-62.4532614,-32.5045186],[-62.4531693,-32.5043585],[-62.4495559,-32.4891356],[-62.4495229,-32.4889182],[-62.4495559,-32.4885726],[-62.4494898,-32.4883161],[-62.4494766,-32.4882325],[-62.4495097,-32.4881544],[-62.4496286,-32.4881321],[-62.4502103,-32.4880151],[-62.4503226,-32.4879649],[-62.4503953,-32.4878757],[-62.4507853,-32.4873126],[-62.4509109,-32.4872234],[-62.4511422,-32.4871398],[-62.4598096,-32.4856911]]}},{"type":"Feature","id":"osm-354957517","properties":{"osm_id":354957517,"highway":"unclassified","nombre":"","fuente":"osm","longitud_km":3.495,"recortado_km":2.82},"geometry":{"type":"LineString","coordinates":[[-62.46932368129579,-32.464828647383435],[-62.4663627,-32.452635],[-62.466116,-32.4525173],[-62.4636054,-32.4529518],[-62.463423,-32.452807],[-62.4600864,-32.4386555],[-62.459657606105175,-32.43674502742408]]}},{"type":"Feature","id":"osm-677245319","properties":{"osm_id":677245319,"highway":"unclassified","nombre":"","fuente":"osm","longitud_km":2.69,"recortado_km":6.562},"geometry":{"type":"MultiLineString","coordinates":[[[-62.58366219657723,-32.578059553491286],[-62.5857999,-32.5783946],[-62.5873781,-32.5787838],[-62.5915191,-32.5802676],[-62.5934119,-32.5809432],[-62.595726,-32.5818027],[-62.59633616057693,-32.58205117036323]],[[-62.59666947614017,-32.58218104002238],[-62.5971418,-32.5823586],[-62.5974108,-32.5823714],[-62.5978124,-32.5825275],[-62.6003839,-32.583529],[-62.6032771,-32.5844795],[-62.6048503,-32.5847574],[-62.6069512,-32.5849285],[-62.609545,-32.5848322],[-62.610281,-32.5847326],[-62.6111615396898,-32.58457079033727]]]}},{"type":"Feature","id":"osm-677245320","properties":{"osm_id":677245320,"highway":"unclassified","nombre":"","fuente":"osm","longitud_km":0.736,"recortado_km":16.618},"geometry":{"type":"LineString","coordinates":[[-62.642709393842786,-32.42085308712543],[-62.644360916752404,-32.427327601389244]]}},{"type":"Feature","id":"osm-681298673","properties":{"osm_id":681298673,"highway":"unclassified","nombre":"","fuente":"osm","longitud_km":5.029,"recortado_km":0.115},"geometry":{"type":"MultiLineString","coordinates":[[[-62.562996,-32.6173105],[-62.5728207,-32.6155164],[-62.5731056,-32.615485],[-62.5735446,-32.6154692],[-62.5738715,-32.615422],[-62.5762252,-32.6149893],[-62.5763513,-32.6149697],[-62.5764353,-32.6149107],[-62.576468,-32.6148438],[-62.5764587,-32.6147612],[-62.573653695591524,-32.603776855762916]],[[-62.573565270998834,-32.60342663360578],[-62.57077392177783,-32.59219695840033]],[[-62.5706866148862,-32.59184854276823],[-62.56802083869482,-32.58130852831123]]]}},{"type":"Feature","id":"osm-682172738","properties":{"osm_id":682172738,"highway":"unclassified","nombre":"","fuente":"osm","longitud_km":0.24,"recortado_km":11.366},"geometry":{"type":"LineString","coordinates":[[-62.456367684253586,-32.684516978624984],[-62.4558400354417,-32.68240469213611]]}},{"type":"Feature","id":"osm-686380646","properties":{"osm_id":686380646,"highway":"unclassified","nombre":"","fuente":"osm","longitud_km":7.78,"recortado_km":0.046},"geometry":{"type":"LineString","coordinates":[[-62.67865518981898,-32.47077920186006],[-62.6898766,-32.4688209],[-62.6956487,-32.4917732],[-62.704567988591755,-32.527831500175175]]}},{"type":"Feature","id":"osm-686380647","properties":{"osm_id":686380647,"highway":"unclassified","nombre":"","fuente":"osm","longitud_km":1.301,"recortado_km":0.015},"geometry":{"type":"LineString","coordinates":[[-62.6547909,-32.5339167],[-62.66836466670397,-32.53146171738578]]}},{"type":"Feature","id":"osm-686380648","properties":{"osm_id":686380648,"highway":"unclassified","nombre":"","fuente":"osm","longitud_km":6.925,"recortado_km":0.03},"geometry":{"type":"LineString","coordinates":[[-62.66612295629307,-32.5219140737536],[-62.6661168,-32.521907],[-62.6660108,-32.5218493],[-62.6658947,-32.5218405],[-62.6616251,-32.5223721],[-62.6589597,-32.5227039],[-62.6586992,-32.5227002],[-62.6520915,-32.5217867],[-62.651841,-32.5217329],[-62.6517744,-32.5217387],[-62.6517275,-32.5217724],[-62.6516983,-32.5218211],[-62.6517054,-32.5218771],[-62.6517463,-32.5219752],[-62.6518452,-32.522126],[-62.6547909,-32.5339167],[-62.6560714,-32.5391243],[-62.663824342324475,-32.57066025310388]]}},{"type":"Feature","id":"osm-686380649","properties":{"osm_id":686380649,"highway":"unclassified","nombre":"","fuente":"osm","longitud_km":0.182,"recortado_km":0.018},"geometry":{"type":"LineString","coordinates":[[-62.552675384423644,-32.42849241756465],[-62.554585124232375,-32.42820165048562]]}},{"type":"Feature","id":"osm-686380650","properties":{"osm_id":686380650,"highway":"unclassified","nombre":"","fuente":"osm","longitud_km":2.249,"recortado_km":0.019},"geometry":{"type":"LineString","coordinates":[[-62.5795412,-32.4431103],[-62.5749064,-32.4406475],[-62.55686506439747,-32.44406058929929]]}},{"type":"Feature","id":"osm-686380651","properties":{"osm_id":686380651,"highway":"unclassified","nombre":"","fuente":"osm","longitud_km":1.412,"recortado_km":0.022},"geometry":{"type":"LineString","coordinates":[[-62.61454381679136,-32.465222993574095],[-62.6111913,-32.4528432]]}},{"type":"Feature","id":"osm-686380652","properties":{"osm_id":686380652,"highway":"unclassified","nombre":"","fuente":"osm","longitud_km":5.019,"recortado_km":0.0},"geometry":{"type":"LineString","coordinates":[[-62.5318657,-32.4304699],[-62.5064725,-32.4347664],[-62.5063169,-32.4346079],[-62.5042999,-32.4246829],[-62.5040209,-32.4240671],[-62.5036991,-32.4234241],[-62.4900842,-32.4252896]]}},{"type":"Feature","id":"osm-686380653","properties":{"osm_id":686380653,"highway":"unclassified","nombre":"","fuente":"osm","longitud_km":2.866,"recortado_km":0.028},"geometry":{"type":"LineString","coordinates":[[-62.46541646495565,-32.4182197877071],[-62.4653959,-32.4182697],[-62.4653763,-32.4183861],[-62.4653832,-32.4184961],[-62.4669206,-32.4253168],[-62.4696565,-32.4341189],[-62.4695492,-32.4343815],[-62.4626827,-32.4381846],[-62.4600864,-32.4386555]]}},{"type":"Feature","id":"osm-686380656","properties":{"osm_id":686380656,"highway":"unclassified","nombre":"","fuente":"osm","longitud_km":5.858,"recortado_km":0.031},"geometry":{"type":"LineString","coordinates":[[-62.527513530939316,-32.4075332646535],[-62.5289807,-32.413099],[-62.5291332,-32.4134102],[-62.529451,-32.4137428],[-62.5294891,-32.4138823],[-62.529451,-32.4140432],[-62.5292476,-32.4144832],[-62.5292349,-32.4146763],[-62.5306584,-32.4204488],[-62.5308999,-32.420996],[-62.5309,-32.4213718],[-62.5321627,-32.4277166],[-62.5318657,-32.4304699],[-62.5308967,-32.4394523],[-62.5315619,-32.4395428],[-62.55455833155863,-32.43679876479862]]}},{"type":"Feature","id":"osm-686679464","properties":{"osm_id":686679464,"highway":"unclassified","nombre":"","fuente":"osm","longitud_km":3.181,"recortado_km":2.941},"geometry":{"type":"LineString","coordinates":[[-62.38217832901041,-32.508239867821935],[-62.3797059,-32.4980171],[-62.3752577072272,-32.48023332034669]]}},{"type":"Feature","id":"osm-686679466","properties":{"osm_id":686679466,"highway":"unclassified","nombre":"","fuente":"osm","longitud_km":1.078,"recortado_km":1.137},"geometry":{"type":"LineString","coordinates":[[-62.368445195252896,-32.49998264836527],[-62.3797059,-32.4980171]]}},{"type":"Feature","id":"osm-686679467","properties":{"osm_id":686679467,"highway":"unclassified","nombre":"","fuente":"osm","longitud_km":1.998,"recortado_km":4.123},"geometry":{"type":"LineString","coordinates":[[-62.35652447936226,-32.50187595328963],[-62.35220525906078,-32.484279524945954]]}},{"type":"Feature","id":"osm-686679468","properties":{"osm_id":686679468,"highway":"unclassified","nombre":"","fuente":"osm","longitud_km":2.198,"recortado_km":0.016},"geometry":{"type":"LineString","coordinates":[[-62.3356832,-32.5152031],[-62.35862097798533,-32.51111190157519]]}},{"type":"Feature","id":"osm-686679469","properties":{"osm_id":686679469,"highway":"unclassified","nombre":"","fuente":"osm","longitud_km":2.208,"recortado_km":0.016},"geometry":{"type":"LineString","coordinates":[[-62.310386946949,-32.51010604929569],[-62.333438,-32.5060682]]}},{"type":"Feature","id":"osm-686679471","properties":{"osm_id":686679471,"highway":"unclassified","nombre":"","fuente":"osm","longitud_km":4.064,"recortado_km":0.018},"geometry":{"type":"LineString","coordinates":[[-62.3421636689828,-32.5418711472962],[-62.3356832,-32.5152031],[-62.333438,-32.5060682]]}},{"type":"Feature","id":"osm-784603164","properties":{"osm_id":784603164,"highway":"unclassified","nombre":"","fuente":"osm","longitud_km":0.676,"recortado_km":0.0},"geometry":{"type":"LineString","coordinates":[[-62.4773267,-32.6391122],[-62.477296,-32.6392102],[-62.4772611,-32.6392305],[-62.4771834,-32.6392577],[-62.4703649,-32.6404908]]}},{"type":"Feature","id":"osm-855688878","properties":{"osm_id":855688878,"highway":"unclassified","nombre":"","fuente":"osm","longitud_km":1.07,"recortado_km":0.018},"geometry":{"type":"LineString","coordinates":[[-62.4450756077449,-32.638470392474915],[-62.4500063,-32.6375759],[-62.4562492,-32.6364433]]}},{"type":"Feature","id":"osm-856576017","properties":{"osm_id":856576017,"highway":"unclassified","nombre":"","fuente":"osm","longitud_km":5.026,"recortado_km":12.423},"geometry":{"type":"LineString","coordinates":[[-62.72992578346394,-32.525686754266225],[-62.7301213,-32.5257032],[-62.7303083,-32.5256689],[-62.7304791,-32.5256072],[-62.7321459,-32.5246954],[-62.7339917,-32.5235026],[-62.7344551,-32.5231118],[-62.7358292,-32.5218503],[-62.7371139,-32.520294],[-62.7373416,-32.5199306],[-62.7381872,-32.5183537],[-62.738358,-32.5179492],[-62.7387118,-32.5168993],[-62.7388757,-32.5163446],[-62.7390898,-32.5152821],[-62.7392605,-32.5141988],[-62.7402118,-32.4967542],[-62.7402362,-32.4964868],[-62.7403257,-32.4961987],[-62.7412282,-32.4941002],[-62.741342,-32.4938876],[-62.7415453,-32.4935927],[-62.7464322,-32.4882654],[-62.7467027,-32.4878844],[-62.7473935,-32.4864565],[-62.7474229,-32.4861487],[-62.747411940813485,-32.48550122419045]]}},{"type":"Feature","id":"osm-856998182","properties":{"osm_id":856998182,"highway":"unclassified","nombre":"","fuente":"osm","longitud_km":0.425,"recortado_km":0.024},"geometry":{"type":"LineString","coordinates":[[-62.70867311403417,-32.41016858324955],[-62.70948519648504,-32.413929545893154]]}},{"type":"Feature","id":"osm-857001208","properties":{"osm_id":857001208,"highway":"unclassified","nombre":"","fuente":"osm","longitud_km":0.178,"recortado_km":0.013},"geometry":{"type":"LineString","coordinates":[[-62.55191932122085,-32.41838544930729],[-62.5500714771403,-32.41874668541615]]}},{"type":"Feature","id":"osm-857003698","properties":{"osm_id":857003698,"highway":"unclassified","nombre":"","fuente":"osm","longitud_km":0.051,"recortado_km":0.023},"geometry":{"type":"LineString","coordinates":[[-62.34987556949721,-32.42342502951728],[-62.3504109499296,-32.42333042062157]]}},{"type":"Feature","id":"osm-857008543","properties":{"osm_id":857008543,"highway":"unclassified","nombre":"","fuente":"osm","longitud_km":1.865,"recortado_km":3.667},"geometry":{"type":"LineString","coordinates":[[-62.606259239586706,-32.434650010419844],[-62.5868583,-32.4382752]]}},{"type":"Feature","id":"osm-874907239","properties":{"osm_id":874907239,"highway":"unclassified","nombre":"","fuente":"osm","longitud_km":2.299,"recortado_km":0.031},"geometry":{"type":"LineString","coordinates":[[-62.462380789417104,-32.54089846672125],[-62.48635720172852,-32.536548598600575]]}},{"type":"Feature","id":"osm-874944071","properties":{"osm_id":874944071,"highway":"unclassified","nombre":"","fuente":"osm","longitud_km":1.326,"recortado_km":0.035},"geometry":{"type":"LineString","coordinates":[[-62.45577939065566,-32.56081809575068],[-62.441906392980464,-32.56318073409615]]}},{"type":"Feature","id":"osm-885311204","properties":{"osm_id":885311204,"highway":"unclassified","nombre":"","fuente":"osm","longitud_km":1.341,"recortado_km":0.036},"geometry":{"type":"LineString","coordinates":[[-62.69864831896273,-32.544037539450066],[-62.6985553,-32.5440502],[-62.6982281,-32.5440321],[-62.6926899,-32.543702],[-62.6926174,-32.543702],[-62.6925696,-32.5437154],[-62.6925236,-32.5437363],[-62.6924793,-32.5437602],[-62.691906,-32.5441644],[-62.6918228,-32.5442152],[-62.691745,-32.5442495],[-62.6916441,-32.5442808],[-62.6915326,-32.5442987],[-62.6914105,-32.5443136],[-62.6912849,-32.5443151],[-62.6907522,-32.5442957],[-62.6906832,-32.5443017],[-62.6906372,-32.5443166],[-62.6906071,-32.544339],[-62.6905806,-32.5443748],[-62.6905806,-32.544424],[-62.6905894,-32.5444732],[-62.6908156,-32.5452754],[-62.690811,-32.5453265],[-62.6907829,-32.5453718],[-62.6907386,-32.5454013],[-62.6906592,-32.5454131],[-62.686062703156594,-32.54538623056397]]}},{"type":"Feature","id":"osm-885317764","properties":{"osm_id":885317764,"highway":"unclassified","nombre":"","fuente":"osm","longitud_km":1.099,"recortado_km":0.018},"geometry":{"type":"LineString","coordinates":[[-62.6956487,-32.4917732],[-62.68418000189984,-32.49381803714357]]}},{"type":"Feature","id":"osm-885883905","properties":{"osm_id":885883905,"highway":"unclassified","nombre":"","fuente":"osm","longitud_km":0.863,"recortado_km":2.684},"geometry":{"type":"LineString","coordinates":[[-62.43636917147352,-32.60348165795744],[-62.4400718,-32.6028888],[-62.4453892,-32.6019131]]}},{"type":"Feature","id":"osm-1006867162","properties":{"osm_id":1006867162,"highway":"unclassified","nombre":"","fuente":"osm","longitud_km":2.712,"recortado_km":0.1},"geometry":{"type":"MultiLineString","coordinates":[[[-62.52274251575848,-32.61286408063957],[-62.5227633,-32.6129419],[-62.53257951720834,-32.61118545689436]],[[-62.53293490200466,-32.61112183507607],[-62.5407381,-32.6097244],[-62.5511989,-32.6078509],[-62.55132156359203,-32.60777077452668]]]}},{"type":"Feature","id":"osm-1009021020","properties":{"osm_id":1009021020,"highway":"unclassified","nombre":"","fuente":"osm","longitud_km":2.561,"recortado_km":0.032},"geometry":{"type":"LineString","coordinates":[[-62.532753008705555,-32.52679203864411],[-62.5431064,-32.5247755],[-62.5481809,-32.523765],[-62.5503206,-32.5233385],[-62.55934672237277,-32.52153951761625]]}},{"type":"Feature","id":"osm-1009021021","properties":{"osm_id":1009021021,"highway":"unclassified","nombre":"","fuente":"osm","longitud_km":1.03,"recortado_km":0.017},"geometry":{"type":"LineString","coordinates":[[-62.5481809,-32.523765],[-62.55057893377206,-32.53280192626797]]}},{"type":"Feature","id":"osm-1009021031","properties":{"osm_id":1009021031,"highway":"unclassified","nombre":"","fuente":"osm","longitud_km":2.807,"recortado_km":0.015},"geometry":{"type":"LineString","coordinates":[[-62.63011102004916,-32.55908549598129],[-62.630137,-32.5590636],[-62.6301573,-32.5589814],[-62.6301533,-32.558882],[-62.6280954,-32.5506512],[-62.6258675,-32.5417958],[-62.6239649,-32.5344065]]}},{"type":"Feature","id":"osm-1009021032","properties":{"osm_id":1009021032,"highway":"unclassified","nombre":"","fuente":"osm","longitud_km":2.834,"recortado_km":0.014},"geometry":{"type":"LineString","coordinates":[[-62.64569454807664,-32.536436157886236],[-62.6362208,-32.537806],[-62.6361469,-32.537832],[-62.6360914,-32.5378891],[-62.6360976,-32.537993],[-62.6361838,-32.5382891],[-62.6377428,-32.5444927],[-62.6377468,-32.5445475],[-62.6377062,-32.544592],[-62.6376574,-32.5446092],[-62.6375923,-32.544616],[-62.6374948,-32.5446057],[-62.6258675,-32.5417958]]}},{"type":"Feature","id":"osm-1088043482","properties":{"osm_id":1088043482,"highway":"unclassified","nombre":"","fuente":"osm","longitud_km":0.864,"recortado_km":0.019},"geometry":{"type":"LineString","coordinates":[[-62.43666215793418,-32.60465384223814],[-62.4397664,-32.6039574],[-62.4414935,-32.6035758],[-62.4456258,-32.6028116]]}},{"type":"Feature","id":"ign-779678","properties":{"gid":779678,"nombre":"","fuente":"ign","longitud_km":1.599,"recortado_km":0.0},"geometry":{"type":"LineString","coordinates":[[-62.45455662996005,-32.41794925852634],[-62.45822525,-32.43199158]]}},{"type":"Feature","id":"ign-779680","properties":{"gid":779680,"nombre":"","fuente":"ign","longitud_km":4.534,"recortado_km":0.26},"geometry":{"type":"LineString","coordinates":[[-62.60524956431712,-32.43525387711741],[-62.57525253,-32.4409256],[-62.558106391062985,-32.44417565276228]]}},{"type":"Feature","id":"ign-779729","properties":{"gid":779729,"nombre":"","fuente":"ign","longitud_km":0.719,"recortado_km":0.189},"geometry":{"type":"LineString","coordinates":[[-62.60407101873254,-32.427111555680945],[-62.605806216929395,-32.43340781483584]]}},{"type":"Feature","id":"ign-779758","properties":{"gid":779758,"nombre":"","fuente":"ign","longitud_km":2.476,"recortado_km":2.063},"geometry":{"type":"LineString","coordinates":[[-62.45822525,-32.43199158],[-62.43228544905395,-32.43604597457099]]}},{"type":"Feature","id":"ign-779812","properties":{"gid":779812,"nombre":"","fuente":"ign","longitud_km":3.512,"recortado_km":2.771},"geometry":{"type":"MultiLineString","coordinates":[[[-62.45822525,-32.43199158],[-62.4590992019596,-32.43533403718895]],[[-62.4597904873829,-32.43797788037428],[-62.46357346,-32.45244598],[-62.46559143,-32.45257568],[-62.468497205333165,-32.46395118708401]]]}},{"type":"Feature","id":"ign-779828","properties":{"gid":779828,"nombre":"","fuente":"ign","longitud_km":5.935,"recortado_km":0.263},"geometry":{"type":"LineString","coordinates":[[-62.4949551685652,-32.46084879185973],[-62.557006557285916,-32.45050689214355]]}},{"type":"Feature","id":"ign-780088","properties":{"gid":780088,"nombre":"","fuente":"ign","longitud_km":2.035,"recortado_km":5.148},"geometry":{"type":"LineString","coordinates":[[-62.68568250158255,-32.550163396799064],[-62.67947288935418,-32.532624251936824]]}},{"type":"Feature","id":"ign-780117","properties":{"gid":780117,"nombre":"","fuente":"ign","longitud_km":3.697,"recortado_km":9.74},"geometry":{"type":"LineString","coordinates":[[-62.52291664005536,-32.57530164582278],[-62.51586777094471,-32.542593031150254]]}},{"type":"Feature","id":"ign-780211","properties":{"gid":780211,"nombre":"","fuente":"ign","longitud_km":0.188,"recortado_km":7.426},"geometry":{"type":"LineString","coordinates":[[-62.58981323,-32.61378479],[-62.591772418285245,-32.613401872858205]]}},{"type":"Feature","id":"ign-780242","properties":{"gid":780242,"nombre":"","fuente":"ign","longitud_km":3.269,"recortado_km":3.75},"geometry":{"type":"MultiLineString","coordinates":[[[-62.518318055271806,-32.62756448965654],[-62.54957779776463,-32.62154634796749]],[[-62.58704762985994,-32.614327618607284],[-62.58981323,-32.61378479]]]}},{"type":"Feature","id":"ign-780258","properties":{"gid":780258,"nombre":"","fuente":"ign","longitud_km":3.133,"recortado_km":0.105},"geometry":{"type":"LineString","coordinates":[[-62.48303604,-32.63430405],[-62.515661299077834,-32.628081014410476]]}},{"type":"Feature","id":"ign-780351","properties":{"gid":780351,"nombre":"","fuente":"ign","longitud_km":3.209,"recortado_km":0.424},"geometry":{"type":"MultiLineString","coordinates":[[[-62.446919306764194,-32.641051101598656],[-62.4516716,-32.64016724],[-62.4576481842348,-32.63905509546999]],[[-62.460310127009485,-32.638559751477544],[-62.47573852,-32.63568878],[-62.48303604,-32.63430405]]]}}]}