{"type":"FeatureCollection","name":"red_vial_oficial_clip","metadata":{"schema_version":"1.0","generated_at":"2026-09-22T14:38:02Z","fuente":"IDECOR WFS idecor:red_vial_provincial + idecor:red_vial_nacional","wfs":"https://idecor-ws.mapascordoba.gob.ar/geoserver/idecor/wfs","clip":"consorcio-web/public/capas/zona.geojson","match":"buffer 20 m, umbral 0.7 de longitud sobre red_vial 380","stats":{"provincial_en_padron_n":261,"provincial_falta_n":0,"nacional_en_padron_n":0,"nacional_falta_n":78,"provincial_en_padron_km":548.9,"provincial_falta_km":0.0,"nacional_en_padron_km":0.0,"nacional_falta_km":90.2},"filter":"only falta_en_padron — already-in-padron features stripped (Red Vial 380 covers them)"},"features":[{"type":"Feature","id":"nacional-613","properties":{"id":613,"fna":"Derivador Ruta Nacional 9","gna":"Derivador Ruta Nacional","rtn":"DAU9","fun":"6","rst":"Pavimento","hct":"Ruta Nacional","ccn":"No aplica","rcc":"","lzn":0.05,"red":"Nacional","origen":"nacional","estado":"falta_en_padron","cobertura_frac":0.0,"longitud_km":0.05},"geometry":{"type":"LineString","coordinates":[[-62.47368758,-32.59529332],[-62.4734922,-32.59532457],[-62.47343872,-32.59535119],[-62.4734005,-32.59537357],[-62.47337241,-32.59540776],[-62.4733455,-32.5954655],[-62.47331723,-32.59554573],[-62.47331513,-32.59554336]]}},{"type":"Feature","id":"nacional-22639","properties":{"id":22639,"fna":"Ruta Nacional 1V09","gna":"Ruta Nacional","rtn":"RN1V09","fun":"6","rst":"Pavimento","hct":"Ruta Nacional","ccn":"No aplica","rcc":"","lzn":2.594,"red":"Nacional","origen":"nacional","estado":"falta_en_padron","cobertura_frac":0.135,"longitud_km":0.127},"geometry":{"type":"LineString","coordinates":[[-62.4150616,-32.63194397],[-62.413740434318825,-32.63218134268438]]}},{"type":"Feature","id":"nacional-3018","properties":{"id":3018,"fna":"Ruta Nacional 1V09","gna":"Ruta Nacional","rtn":"RN1V09","fun":"6","rst":"Pavimento","hct":"Ruta Nacional","ccn":"No aplica","rcc":"","lzn":2.89,"red":"Nacional","origen":"nacional","estado":"falta_en_padron","cobertura_frac":0.006,"longitud_km":2.885},"geometry":{"type":"LineString","coordinates":[[-62.47220218,-32.6217242],[-62.47028506,-32.62205044],[-62.46701591,-32.62264909],[-62.46325379,-32.62332558],[-62.46053453,-32.62381538],[-62.45674499,-32.6244954],[-62.45415657,-32.62495652],[-62.45056039,-32.62559885],[-62.44812414,-32.62603315],[-62.44490549,-32.62660872],[-62.44229066,-32.62707509],[-62.44207198,-32.62711463]]}},{"type":"Feature","id":"nacional-1498","properties":{"id":1498,"fna":"Derivador Ruta Nacional 9","gna":"Derivador Ruta Nacional","rtn":"DAU9","fun":"6","rst":"Pavimento","hct":"Ruta Nacional","ccn":"No aplica","rcc":"","lzn":0.051,"red":"Nacional","origen":"nacional","estado":"falta_en_padron","cobertura_frac":0.371,"longitud_km":0.051},"geometry":{"type":"LineString","coordinates":[[-62.47422942,-32.59904133],[-62.47417187,-32.59894683],[-62.47414851,-32.59891981],[-62.47410883,-32.59888483],[-62.47404998,-32.59884584],[-62.47398738,-32.59882081],[-62.47380864,-32.59879391],[-62.47380918,-32.59879378]]}},{"type":"Feature","id":"nacional-4091","properties":{"id":4091,"fna":"Autopista Ruta Nacional 9","gna":"Autopista Ruta Nacional","rtn":"AU9","fun":"6","rst":"Pavimento","hct":"Ruta Nacional","ccn":"No aplica","rcc":"","lzn":0.734,"red":"Nacional","origen":"nacional","estado":"falta_en_padron","cobertura_frac":0.0,"longitud_km":0.733},"geometry":{"type":"LineString","coordinates":[[-62.47729586,-32.59628638],[-62.4733718,-32.59703111],[-62.47218482,-32.59725636],[-62.46966478,-32.59772755]]}},{"type":"Feature","id":"nacional-1892","properties":{"id":1892,"fna":"Ruta Nacional 1V09","gna":"Ruta Nacional","rtn":"RN1V09","fun":"6","rst":"Pavimento","hct":"Ruta Nacional","ccn":"No aplica","rcc":"","lzn":0.05,"red":"Nacional","origen":"nacional","estado":"falta_en_padron","cobertura_frac":0.622,"longitud_km":0.05},"geometry":{"type":"LineString","coordinates":[[-62.58691267,-32.60115887],[-62.58743416,-32.60106427]]}},{"type":"Feature","id":"nacional-4487","properties":{"id":4487,"fna":"Derivador Ruta Nacional 9","gna":"Derivador Ruta Nacional","rtn":"DAU9","fun":"6","rst":"Pavimento","hct":"Ruta Nacional","ccn":"No aplica","rcc":"","lzn":0.402,"red":"Nacional","origen":"nacional","estado":"falta_en_padron","cobertura_frac":0.212,"longitud_km":0.402},"geometry":{"type":"LineString","coordinates":[[-62.5773157,-32.57881786],[-62.57795559,-32.57858536],[-62.57830183,-32.5784859],[-62.57860254,-32.57842169],[-62.57875991,-32.57838371],[-62.57883685,-32.5783603],[-62.57888933,-32.57833979],[-62.57894531,-32.57831634],[-62.57901181,-32.57827524],[-62.57905736,-32.57823115],[-62.57909938,-32.57820178],[-62.57913443,-32.57816357],[-62.57917643,-32.57814009],[-62.57922891,-32.57811663],[-62.57928487,-32.57809907],[-62.57940376,-32.5780728],[-62.58107825,-32.57784545],[-62.58125302,-32.57783106],[-62.58137187,-32.57781951]]}},{"type":"Feature","id":"nacional-902","properties":{"id":902,"fna":"Derivador Ruta Nacional 9","gna":"Derivador Ruta Nacional","rtn":"DAU9","fun":"6","rst":"Pavimento","hct":"Ruta Nacional","ccn":"No aplica","rcc":"","lzn":0.399,"red":"Nacional","origen":"nacional","estado":"falta_en_padron","cobertura_frac":0.042,"longitud_km":0.398},"geometry":{"type":"LineString","coordinates":[[-62.58137187,-32.57781951],[-62.58146971,-32.57782264],[-62.58156055,-32.5778287],[-62.5817632,-32.57784675],[-62.58307817,-32.57797587],[-62.5831713,-32.57798488],[-62.58325862,-32.57800271],[-62.5832621,-32.57800566],[-62.58331096,-32.57803226],[-62.58337374,-32.57807949],[-62.58348184,-32.57816804],[-62.58354812,-32.57821234],[-62.58363192,-32.578239],[-62.58378561,-32.57826579],[-62.58472277,-32.57845307],[-62.58542851,-32.57867794]]}},{"type":"Feature","id":"nacional-306","properties":{"id":306,"fna":"Derivador Ruta Nacional 9","gna":"Derivador Ruta Nacional","rtn":"DAU9","fun":"6","rst":"Pavimento","hct":"Ruta Nacional","ccn":"No aplica","rcc":"","lzn":0.444,"red":"Nacional","origen":"nacional","estado":"falta_en_padron","cobertura_frac":0.0,"longitud_km":0.444},"geometry":{"type":"LineString","coordinates":[[-62.47380918,-32.59879378],[-62.47371227,-32.59879582],[-62.47350217,-32.59879052],[-62.47329065,-32.59876633],[-62.4731031,-32.59872569],[-62.47293522,-32.59866858],[-62.4727834,-32.59862008],[-62.47267994,-32.59857023],[-62.47262128,-32.59852522],[-62.47257947,-32.59846846],[-62.47256298,-32.5983858],[-62.47256325,-32.59831735],[-62.47256353,-32.59824655],[-62.47256381,-32.59817338],[-62.4725417,-32.59809543],[-62.47250827,-32.59804577],[-62.47245339,-32.59797089],[-62.4723389,-32.5978738],[-62.4721963,-32.5978026],[-62.47204519,-32.59775498],[-62.47189965,-32.59771917],[-62.47178486,-32.59769997],[-62.47163297,-32.59769551],[-62.47148166,-32.59769982],[-62.47120984,-32.59771558],[-62.4697806,-32.59791087]]}},{"type":"Feature","id":"nacional-994","properties":{"id":994,"fna":"Derivador Ruta Nacional 9","gna":"Derivador Ruta Nacional","rtn":"DAU9","fun":"6","rst":"Pavimento","hct":"Ruta Nacional","ccn":"No aplica","rcc":"","lzn":0.03,"red":"Nacional","origen":"nacional","estado":"falta_en_padron","cobertura_frac":0.0,"longitud_km":0.03},"geometry":{"type":"LineString","coordinates":[[-62.47295982,-32.59541066],[-62.4730597,-32.59537892],[-62.4732653,-32.59533738]]}},{"type":"Feature","id":"nacional-336","properties":{"id":336,"fna":"Derivador Ruta Nacional 9","gna":"Derivador Ruta Nacional","rtn":"DAU9","fun":"6","rst":"Pavimento","hct":"Ruta Nacional","ccn":"No aplica","rcc":"","lzn":0.04,"red":"Nacional","origen":"nacional","estado":"falta_en_padron","cobertura_frac":0.0,"longitud_km":0.04},"geometry":{"type":"LineString","coordinates":[[-62.47331513,-32.59554336],[-62.47325649,-32.59547703],[-62.47321343,-32.59543944],[-62.4731779,-32.59542328],[-62.47313727,-32.59541353],[-62.47308265,-32.59540589],[-62.47302038,-32.59540464],[-62.47295936,-32.5954109],[-62.47295982,-32.59541066]]}},{"type":"Feature","id":"nacional-368","properties":{"id":368,"fna":"Derivador Ruta Nacional 9","gna":"Derivador Ruta Nacional","rtn":"DAU9","fun":"6","rst":"Pavimento","hct":"Ruta Nacional","ccn":"No aplica","rcc":"","lzn":0.051,"red":"Nacional","origen":"nacional","estado":"falta_en_padron","cobertura_frac":0.0,"longitud_km":0.052},"geometry":{"type":"LineString","coordinates":[[-62.6844458,-32.57799179],[-62.68443074,-32.57794077],[-62.68442829,-32.57789401],[-62.68443342,-32.57783451],[-62.6844562,-32.5777814],[-62.6844815,-32.57773255],[-62.68453707,-32.57767948],[-62.6845926,-32.57764979],[-62.68466578,-32.57762011]]}},{"type":"Feature","id":"nacional-434","properties":{"id":434,"fna":"Derivador Ruta Nacional 9","gna":"Derivador Ruta Nacional","rtn":"DAU9","fun":"6","rst":"Pavimento","hct":"Ruta Nacional","ccn":"No aplica","rcc":"","lzn":0.423,"red":"Nacional","origen":"nacional","estado":"falta_en_padron","cobertura_frac":0.0,"longitud_km":0.423},"geometry":{"type":"LineString","coordinates":[[-62.68671921,-32.5754639],[-62.68682125,-32.57528729],[-62.6869016,-32.57517302],[-62.68698138,-32.57507495],[-62.68705241,-32.57501005],[-62.68712033,-32.57496075],[-62.68721292,-32.57491926],[-62.68731165,-32.57488558],[-62.68741038,-32.5748597],[-62.68751525,-32.57484941],[-62.6876201,-32.57485472],[-62.68772492,-32.57487822],[-62.6878174,-32.57490951],[-62.68793758,-32.57496941],[-62.68801767,-32.57503706],[-62.68809772,-32.57512551],[-62.68816542,-32.57522433],[-62.68820532,-32.57535432],[-62.68830309,-32.57572284],[-62.68836741,-32.57602437],[-62.68842181,-32.57618978],[-62.6884249,-32.57618978],[-62.68848022,-32.57631978],[-62.6884833,-32.57632238],[-62.68856943,-32.57647581],[-62.68866177,-32.57659545],[-62.68875723,-32.57669691],[-62.68889171,-32.57682274],[-62.68923301,-32.57709155]]}},{"type":"Feature","id":"nacional-995","properties":{"id":995,"fna":"Derivador Ruta Nacional 9","gna":"Derivador Ruta Nacional","rtn":"DAU9","fun":"6","rst":"Pavimento","hct":"Ruta Nacional","ccn":"No aplica","rcc":"","lzn":0.04,"red":"Nacional","origen":"nacional","estado":"falta_en_padron","cobertura_frac":0.0,"longitud_km":0.04},"geometry":{"type":"LineString","coordinates":[[-62.4732653,-32.59533738],[-62.47326717,-32.595337],[-62.47337652,-32.59531606],[-62.47349705,-32.59529987],[-62.47368758,-32.59529332]]}},{"type":"Feature","id":"nacional-491","properties":{"id":491,"fna":"Derivador Ruta Nacional 9","gna":"Derivador Ruta Nacional","rtn":"DAU9","fun":"6","rst":"Pavimento","hct":"Ruta Nacional","ccn":"No aplica","rcc":"","lzn":0.456,"red":"Nacional","origen":"nacional","estado":"falta_en_padron","cobertura_frac":0.0,"longitud_km":0.456},"geometry":{"type":"LineString","coordinates":[[-62.46966478,-32.59772755],[-62.47107394,-32.59733992],[-62.47128998,-32.59726027],[-62.47146822,-32.59720327],[-62.47157204,-32.59716107],[-62.47169272,-32.59710712],[-62.47179663,-32.59704368],[-62.47189497,-32.59697078],[-62.47197653,-32.59689076],[-62.47206374,-32.59679659],[-62.4720949,-32.59670934],[-62.47210918,-32.59664093],[-62.47211783,-32.59657695],[-62.47211251,-32.59650377],[-62.47207082,-32.59641868],[-62.47202065,-32.59635245],[-62.47198442,-32.59630279],[-62.47195939,-32.59625551],[-62.47194283,-32.59619174],[-62.47195427,-32.59613276],[-62.47199093,-32.5960715],[-62.47203317,-32.59601497],[-62.47213307,-32.59592159],[-62.47224554,-32.59581805],[-62.47235797,-32.59572159],[-62.47245347,-32.59565812],[-62.47258547,-32.59557588],[-62.47273142,-32.59550547],[-62.47288298,-32.59543508],[-62.47295982,-32.59541066]]}},{"type":"Feature","id":"nacional-543","properties":{"id":543,"fna":"Derivador Ruta Nacional 9","gna":"Derivador Ruta Nacional","rtn":"DAU9","fun":"6","rst":"Pavimento","hct":"Ruta Nacional","ccn":"No aplica","rcc":"","lzn":0.337,"red":"Nacional","origen":"nacional","estado":"falta_en_padron","cobertura_frac":0.0,"longitud_km":0.337},"geometry":{"type":"LineString","coordinates":[[-62.68523852,-32.57728439],[-62.68528626,-32.57722261],[-62.68531444,-32.5771788],[-62.68537471,-32.57706219],[-62.68541925,-32.57697417],[-62.68545861,-32.57686194],[-62.68549011,-32.57676291],[-62.68552161,-32.57666828],[-62.68554266,-32.57656483],[-62.68556907,-32.57637984],[-62.68557967,-32.57628079],[-62.68558506,-32.57616852],[-62.68558,-32.57606064],[-62.68557231,-32.57596157],[-62.68555419,-32.57584927],[-62.68552299,-32.57575017],[-62.68549437,-32.57567834],[-62.6854501,-32.57558143],[-62.68538758,-32.57546248],[-62.685312,-32.57534352],[-62.68521495,-32.57520049],[-62.68510282,-32.57506608],[-62.68498543,-32.57495588],[-62.6848341,-32.57482803],[-62.684542,-32.57459385]]}},{"type":"Feature","id":"nacional-544","properties":{"id":544,"fna":"Derivador Ruta Nacional 9","gna":"Derivador Ruta Nacional","rtn":"DAU9","fun":"6","rst":"Pavimento","hct":"Ruta Nacional","ccn":"No aplica","rcc":"","lzn":0.068,"red":"Nacional","origen":"nacional","estado":"falta_en_padron","cobertura_frac":0.0,"longitud_km":0.068},"geometry":{"type":"LineString","coordinates":[[-62.68466578,-32.57762011],[-62.68483283,-32.57758772],[-62.68489755,-32.57757175],[-62.68494705,-32.57755577],[-62.68500228,-32.57752055],[-62.68506135,-32.57747091],[-62.68512615,-32.57740203],[-62.68518096,-32.57734377],[-62.68523852,-32.57728439]]}},{"type":"Feature","id":"nacional-554","properties":{"id":554,"fna":"Derivador Ruta Nacional 9","gna":"Derivador Ruta Nacional","rtn":"DAU9","fun":"6","rst":"Pavimento","hct":"Ruta Nacional","ccn":"No aplica","rcc":"","lzn":0.038,"red":"Nacional","origen":"nacional","estado":"falta_en_padron","cobertura_frac":0.0,"longitud_km":0.038},"geometry":{"type":"LineString","coordinates":[[-62.47410094,-32.59853997],[-62.47417621,-32.59862406],[-62.47420194,-32.59864743],[-62.47424244,-32.59866307],[-62.47429034,-32.59867252],[-62.47433643,-32.5986742],[-62.47444182,-32.59867641]]}},{"type":"Feature","id":"nacional-610","properties":{"id":610,"fna":"Derivador Ruta Nacional 9","gna":"Derivador Ruta Nacional","rtn":"DAU9","fun":"6","rst":"Pavimento","hct":"Ruta Nacional","ccn":"No aplica","rcc":"","lzn":0.402,"red":"Nacional","origen":"nacional","estado":"falta_en_padron","cobertura_frac":0.11,"longitud_km":0.402},"geometry":{"type":"LineString","coordinates":[[-62.47368758,-32.59529332],[-62.47382485,-32.59529369],[-62.47396396,-32.59530824],[-62.47410677,-32.59532515],[-62.47421037,-32.5953396],[-62.4743419,-32.59537773],[-62.47442586,-32.5953992],[-62.47454336,-32.59544201],[-62.47464127,-32.59548004],[-62.474714,-32.59550856],[-62.47478109,-32.59554651],[-62.47482851,-32.59560093],[-62.47486182,-32.59567891],[-62.47485863,-32.59578039],[-62.4748667,-32.59586775],[-62.47487757,-32.59595511],[-62.47491926,-32.59604019],[-62.47497982,-32.59612634],[-62.4750692,-32.59619503],[-62.47517544,-32.59625433],[-62.47529292,-32.59630186],[-62.47543562,-32.5963471],[-62.4755952,-32.59637586],[-62.47574082,-32.59639278],[-62.47585847,-32.59639782],[-62.47606839,-32.59639131],[-62.47624216,-32.5963729],[-62.47729586,-32.59628638]]}},{"type":"Feature","id":"nacional-615","properties":{"id":615,"fna":"Derivador Ruta Nacional 9","gna":"Derivador Ruta Nacional","rtn":"DAU9","fun":"6","rst":"Pavimento","hct":"Ruta Nacional","ccn":"No aplica","rcc":"","lzn":0.057,"red":"Nacional","origen":"nacional","estado":"falta_en_padron","cobertura_frac":0.0,"longitud_km":0.057},"geometry":{"type":"LineString","coordinates":[[-62.47319803,-32.59505929],[-62.47319823,-32.5950575],[-62.47323402,-32.5951129],[-62.47326293,-32.59515294],[-62.47329797,-32.5951917],[-62.47333153,-32.59521887],[-62.47338037,-32.59524865],[-62.47342926,-32.59526554],[-62.47368758,-32.59529332]]}},{"type":"Feature","id":"nacional-616","properties":{"id":616,"fna":"Derivador Ruta Nacional 9","gna":"Derivador Ruta Nacional","rtn":"DAU9","fun":"6","rst":"Pavimento","hct":"Ruta Nacional","ccn":"No aplica","rcc":"","lzn":0.414,"red":"Nacional","origen":"nacional","estado":"falta_en_padron","cobertura_frac":0.113,"longitud_km":0.413},"geometry":{"type":"LineString","coordinates":[[-62.47736778,-32.5964893],[-62.47630373,-32.59676943],[-62.47601919,-32.59686581],[-62.47589881,-32.59691096],[-62.4757894,-32.59695078],[-62.47568552,-32.59700715],[-62.47559563,-32.59706827],[-62.47551693,-32.5971365],[-62.47543815,-32.59722362],[-62.47537334,-32.59732021],[-62.47533095,-32.59741451],[-62.47531942,-32.59749883],[-62.47533573,-32.59762633],[-62.47537464,-32.59770905],[-62.47541913,-32.59779414],[-62.47543573,-32.59785083],[-62.47543834,-32.59790041],[-62.47542967,-32.59796883],[-62.47541265,-32.59802307],[-62.47537882,-32.59807727],[-62.47529163,-32.59816436],[-62.47514545,-32.59829229],[-62.47503866,-32.59837697],[-62.47490146,-32.59846392],[-62.4747302,-32.5985555],[-62.4745085,-32.59865167],[-62.47444182,-32.59867641]]}},{"type":"Feature","id":"nacional-620","properties":{"id":620,"fna":"Derivador Ruta Nacional 9","gna":"Derivador Ruta Nacional","rtn":"DAU9","fun":"6","rst":"Pavimento","hct":"Ruta Nacional","ccn":"No aplica","rcc":"","lzn":0.378,"red":"Nacional","origen":"nacional","estado":"falta_en_padron","cobertura_frac":0.197,"longitud_km":0.377},"geometry":{"type":"LineString","coordinates":[[-62.58162141,-32.57900233],[-62.58131207,-32.57901403],[-62.58067737,-32.5790727],[-62.5798019,-32.57916608],[-62.57971103,-32.57916591],[-62.57963417,-32.57915987],[-62.5795678,-32.57914796],[-62.57949448,-32.57912132],[-62.57943517,-32.57908587],[-62.57936538,-32.57904745],[-62.5792746,-32.57901783],[-62.57920126,-32.57899708],[-62.57902659,-32.57897613],[-62.57842905,-32.57895437],[-62.57819574,-32.57894508],[-62.57765875,-32.5789805]]}},{"type":"Feature","id":"nacional-834","properties":{"id":834,"fna":"Derivador Ruta Nacional 9","gna":"Derivador Ruta Nacional","rtn":"DAU9","fun":"6","rst":"Pavimento","hct":"Ruta Nacional","ccn":"No aplica","rcc":"","lzn":0.051,"red":"Nacional","origen":"nacional","estado":"falta_en_padron","cobertura_frac":0.356,"longitud_km":0.051},"geometry":{"type":"LineString","coordinates":[[-62.6848263,-32.57820686],[-62.684717,-32.57823447],[-62.68462724,-32.57825958],[-62.6845419,-32.57831118],[-62.68437466,-32.57844585]]}},{"type":"Feature","id":"nacional-996","properties":{"id":996,"fna":"Derivador Ruta Nacional 9","gna":"Derivador Ruta Nacional","rtn":"DAU9","fun":"6","rst":"Pavimento","hct":"Ruta Nacional","ccn":"No aplica","rcc":"","lzn":0.061,"red":"Nacional","origen":"nacional","estado":"falta_en_padron","cobertura_frac":0.0,"longitud_km":0.061},"geometry":{"type":"LineString","coordinates":[[-62.47444182,-32.59867641],[-62.47433174,-32.59871727],[-62.47415713,-32.59876132],[-62.47414665,-32.59876397],[-62.47391121,-32.59879164],[-62.47380918,-32.59879378]]}},{"type":"Feature","id":"nacional-907","properties":{"id":907,"fna":"Derivador Ruta Nacional 9","gna":"Derivador Ruta Nacional","rtn":"DAU9","fun":"6","rst":"Pavimento","hct":"Ruta Nacional","ccn":"No aplica","rcc":"","lzn":0.047,"red":"Nacional","origen":"nacional","estado":"falta_en_padron","cobertura_frac":0.0,"longitud_km":0.047},"geometry":{"type":"LineString","coordinates":[[-62.47295982,-32.59541066],[-62.47304086,-32.5953683],[-62.47307275,-32.59533733],[-62.47310974,-32.59530317],[-62.47313657,-32.59526791],[-62.4731635,-32.59520481],[-62.47318785,-32.59515241],[-62.47319803,-32.59505929]]}},{"type":"Feature","id":"nacional-835","properties":{"id":835,"fna":"Derivador Ruta Nacional 9","gna":"Derivador Ruta Nacional","rtn":"DAU9","fun":"6","rst":"Pavimento","hct":"Ruta Nacional","ccn":"No aplica","rcc":"","lzn":0.436,"red":"Nacional","origen":"nacional","estado":"falta_en_padron","cobertura_frac":0.0,"longitud_km":0.436},"geometry":{"type":"LineString","coordinates":[[-62.68907795,-32.57725848],[-62.68839549,-32.57693345],[-62.68822159,-32.57688049],[-62.68804769,-32.57682752],[-62.68786333,-32.57678921],[-62.68771374,-32.5767656],[-62.68751441,-32.57673945],[-62.68735445,-32.57672509],[-62.68720851,-32.57672021],[-62.68703168,-32.57672948],[-62.68689132,-32.57674352],[-62.6867313,-32.57676937],[-62.68654517,-32.57680178],[-62.68643568,-32.57682295],[-62.68629529,-32.57685591],[-62.68615208,-32.57690779],[-62.68602009,-32.57695496],[-62.68590775,-32.5770045],[-62.68577534,-32.57708161],[-62.68564893,-32.57715243],[-62.68551129,-32.57722796],[-62.68541013,-32.5773059],[-62.68531458,-32.57738621],[-62.68521622,-32.57746652],[-62.68515157,-32.57753031],[-62.68512623,-32.57758232],[-62.68511495,-32.57761542],[-62.68511208,-32.57766271],[-62.68511699,-32.57778212]]}},{"type":"Feature","id":"nacional-837","properties":{"id":837,"fna":"Derivador Ruta Nacional 9","gna":"Derivador Ruta Nacional","rtn":"DAU9","fun":"6","rst":"Pavimento","hct":"Ruta Nacional","ccn":"No aplica","rcc":"","lzn":0.052,"red":"Nacional","origen":"nacional","estado":"falta_en_padron","cobertura_frac":0.377,"longitud_km":0.052},"geometry":{"type":"LineString","coordinates":[[-62.68437466,-32.57844585],[-62.68441234,-32.57831796],[-62.68445099,-32.57823153],[-62.68447153,-32.57818115],[-62.68447947,-32.57813076],[-62.68447483,-32.578083],[-62.6844458,-32.57799179]]}},{"type":"Feature","id":"nacional-838","properties":{"id":838,"fna":"Derivador Ruta Nacional 9","gna":"Derivador Ruta Nacional","rtn":"DAU9","fun":"6","rst":"Pavimento","hct":"Ruta Nacional","ccn":"No aplica","rcc":"","lzn":0.344,"red":"Nacional","origen":"nacional","estado":"falta_en_padron","cobertura_frac":0.0,"longitud_km":0.344},"geometry":{"type":"LineString","coordinates":[[-62.68671656,-32.57560503],[-62.6872843,-32.57585855],[-62.68741142,-32.57588506],[-62.68749357,-32.57589339],[-62.68756987,-32.57589018],[-62.68763248,-32.5758853],[-62.6877225,-32.57586561],[-62.6877937,-32.57583976],[-62.68785636,-32.57580356],[-62.68791512,-32.57575581],[-62.68795824,-32.57570475],[-62.68799744,-32.57565204],[-62.68802882,-32.57559932],[-62.6880465,-32.57554823],[-62.68806225,-32.57548066],[-62.68806822,-32.57541802],[-62.68806049,-32.57534983],[-62.68803127,-32.57526407],[-62.68799031,-32.57518325],[-62.6879239,-32.57511064],[-62.68784183,-32.57504956],[-62.68776756,-32.57500662],[-62.68767957,-32.57497191],[-62.68756027,-32.574952],[-62.68744679,-32.57496012],[-62.68731178,-32.57497811],[-62.68718651,-32.57502579],[-62.68708467,-32.57509657],[-62.68699651,-32.5751789],[-62.68671921,-32.5754639]]}},{"type":"Feature","id":"nacional-844","properties":{"id":844,"fna":"Derivador Ruta Nacional 9","gna":"Derivador Ruta Nacional","rtn":"DAU9","fun":"6","rst":"Pavimento","hct":"Ruta Nacional","ccn":"No aplica","rcc":"","lzn":0.367,"red":"Nacional","origen":"nacional","estado":"falta_en_padron","cobertura_frac":0.195,"longitud_km":0.366},"geometry":{"type":"LineString","coordinates":[[-62.58545894,-32.57892706],[-62.58476877,-32.5788511],[-62.58449079,-32.57886091],[-62.58416782,-32.57888097],[-62.58391186,-32.57890669],[-62.58366755,-32.57893429],[-62.5835143,-32.57895271],[-62.58346543,-32.57896198],[-62.58341654,-32.57897872],[-62.5833387,-32.57902909],[-62.58325199,-32.57907383],[-62.58320309,-32.57909245],[-62.58315421,-32.57910545],[-62.5831009,-32.57911471],[-62.58259535,-32.57907072],[-62.58178292,-32.57899622],[-62.58162141,-32.57900233]]}},{"type":"Feature","id":"nacional-997","properties":{"id":997,"fna":"Derivador Ruta Nacional 9","gna":"Derivador Ruta Nacional","rtn":"DAU9","fun":"6","rst":"Pavimento","hct":"Ruta Nacional","ccn":"No aplica","rcc":"","lzn":0.057,"red":"Nacional","origen":"nacional","estado":"falta_en_padron","cobertura_frac":0.348,"longitud_km":0.057},"geometry":{"type":"LineString","coordinates":[[-62.47422942,-32.59904133],[-62.47415713,-32.59876132],[-62.47410094,-32.59853997]]}},{"type":"Feature","id":"nacional-908","properties":{"id":908,"fna":"Derivador Ruta Nacional 9","gna":"Derivador Ruta Nacional","rtn":"DAU9","fun":"6","rst":"Pavimento","hct":"Ruta Nacional","ccn":"No aplica","rcc":"","lzn":0.044,"red":"Nacional","origen":"nacional","estado":"falta_en_padron","cobertura_frac":0.0,"longitud_km":0.044},"geometry":{"type":"LineString","coordinates":[[-62.47380918,-32.59879378],[-62.47391937,-32.59876781],[-62.47396184,-32.59875239],[-62.47399695,-32.5987323],[-62.47404316,-32.59870136],[-62.47406354,-32.59867501],[-62.47408585,-32.59862847],[-62.47410056,-32.59854219],[-62.47410094,-32.59853997]]}},{"type":"Feature","id":"nacional-881","properties":{"id":881,"fna":"Derivador Ruta Nacional 9","gna":"Derivador Ruta Nacional","rtn":"DAU9","fun":"6","rst":"Pavimento","hct":"Ruta Nacional","ccn":"No aplica","rcc":"","lzn":0.34,"red":"Nacional","origen":"nacional","estado":"falta_en_padron","cobertura_frac":0.0,"longitud_km":0.341},"geometry":{"type":"LineString","coordinates":[[-62.47410094,-32.59853997],[-62.47346388,-32.59615821],[-62.47331513,-32.59554336]]}},{"type":"Feature","id":"nacional-882","properties":{"id":882,"fna":"Derivador Ruta Nacional 9","gna":"Derivador Ruta Nacional","rtn":"DAU9","fun":"6","rst":"Pavimento","hct":"Ruta Nacional","ccn":"No aplica","rcc":"","lzn":0.136,"red":"Nacional","origen":"nacional","estado":"falta_en_padron","cobertura_frac":0.285,"longitud_km":0.136},"geometry":{"type":"LineString","coordinates":[[-62.58162141,-32.57900233],[-62.58154511,-32.57879373],[-62.58152157,-32.57821812],[-62.58151938,-32.57810714],[-62.58151457,-32.5780485],[-62.58147999,-32.57797223],[-62.58143068,-32.57788983],[-62.58137187,-32.57781951]]}},{"type":"Feature","id":"nacional-993","properties":{"id":993,"fna":"Derivador Ruta Nacional 9","gna":"Derivador Ruta Nacional","rtn":"DAU9","fun":"6","rst":"Pavimento","hct":"Ruta Nacional","ccn":"No aplica","rcc":"","lzn":0.023,"red":"Nacional","origen":"nacional","estado":"falta_en_padron","cobertura_frac":0.0,"longitud_km":0.023},"geometry":{"type":"LineString","coordinates":[[-62.47331513,-32.59554336],[-62.4732653,-32.59533738]]}},{"type":"Feature","id":"nacional-1007","properties":{"id":1007,"fna":"Derivador Ruta Nacional 9","gna":"Derivador Ruta Nacional","rtn":"DAU9","fun":"6","rst":"Pavimento","hct":"Ruta Nacional","ccn":"No aplica","rcc":"","lzn":0.04,"red":"Nacional","origen":"nacional","estado":"falta_en_padron","cobertura_frac":0.422,"longitud_km":0.04},"geometry":{"type":"LineString","coordinates":[[-62.68542861,-32.57807222],[-62.68529668,-32.57808154],[-62.68523213,-32.57808383],[-62.68514229,-32.57809793],[-62.68501555,-32.57814543]]}},{"type":"Feature","id":"nacional-1024","properties":{"id":1024,"fna":"Derivador Ruta Nacional 9","gna":"Derivador Ruta Nacional","rtn":"DAU9","fun":"6","rst":"Pavimento","hct":"Ruta Nacional","ccn":"No aplica","rcc":"","lzn":0.031,"red":"Nacional","origen":"nacional","estado":"falta_en_padron","cobertura_frac":0.0,"longitud_km":0.032},"geometry":{"type":"LineString","coordinates":[[-62.4732653,-32.59533738],[-62.47319803,-32.59505929]]}},{"type":"Feature","id":"nacional-1085","properties":{"id":1085,"fna":"Derivador Ruta Nacional 9","gna":"Derivador Ruta Nacional","rtn":"DAU9","fun":"6","rst":"Pavimento","hct":"Ruta Nacional","ccn":"No aplica","rcc":"","lzn":0.045,"red":"Nacional","origen":"nacional","estado":"falta_en_padron","cobertura_frac":0.0,"longitud_km":0.045},"geometry":{"type":"LineString","coordinates":[[-62.68511699,-32.57778212],[-62.68513205,-32.57782464],[-62.68514458,-32.57787778],[-62.68514955,-32.5779288],[-62.68514192,-32.57797342],[-62.6851267,-32.57802653],[-62.68510394,-32.57806689],[-62.68506099,-32.57811572],[-62.68501555,-32.57814543]]}},{"type":"Feature","id":"nacional-1086","properties":{"id":1086,"fna":"Derivador Ruta Nacional 9","gna":"Derivador Ruta Nacional","rtn":"DAU9","fun":"6","rst":"Pavimento","hct":"Ruta Nacional","ccn":"No aplica","rcc":"","lzn":0.051,"red":"Nacional","origen":"nacional","estado":"falta_en_padron","cobertura_frac":0.0,"longitud_km":0.051},"geometry":{"type":"LineString","coordinates":[[-62.68466578,-32.57762011],[-62.68472128,-32.57760955],[-62.68479191,-32.57760537],[-62.68488269,-32.5776161],[-62.68495327,-32.5776353],[-62.68499109,-32.57764809],[-62.68501376,-32.57766299],[-62.68506415,-32.5777013],[-62.68509184,-32.57773534],[-62.68511699,-32.57778212]]}},{"type":"Feature","id":"nacional-1447","properties":{"id":1447,"fna":"Ruta Nacional 1V09","gna":"Ruta Nacional","rtn":"RN1V09","fun":"6","rst":"Pavimento","hct":"Ruta Nacional","ccn":"No aplica","rcc":"","lzn":0.206,"red":"Nacional","origen":"nacional","estado":"falta_en_padron","cobertura_frac":0.0,"longitud_km":0.206},"geometry":{"type":"LineString","coordinates":[[-62.58478009,-32.60158617],[-62.58516251,-32.60149127],[-62.58551325,-32.60140383],[-62.58670101,-32.60119727],[-62.58691267,-32.60115887]]}},{"type":"Feature","id":"nacional-1769","properties":{"id":1769,"fna":"Derivador Ruta Nacional 9","gna":"Derivador Ruta Nacional","rtn":"DAU9","fun":"6","rst":"Pavimento","hct":"Ruta Nacional","ccn":"No aplica","rcc":"","lzn":0.077,"red":"Nacional","origen":"nacional","estado":"falta_en_padron","cobertura_frac":0.258,"longitud_km":0.077},"geometry":{"type":"LineString","coordinates":[[-62.47319803,-32.59505929],[-62.47319771,-32.59505797],[-62.47305881,-32.59437675]]}},{"type":"Feature","id":"nacional-2098","properties":{"id":2098,"fna":"Autopista Ruta Nacional 9","gna":"Autopista Ruta Nacional","rtn":"AU9","fun":"6","rst":"Pavimento","hct":"Ruta Nacional","ccn":"No aplica","rcc":"","lzn":0.518,"red":"Nacional","origen":"nacional","estado":"falta_en_padron","cobertura_frac":0.0,"longitud_km":0.518},"geometry":{"type":"LineString","coordinates":[[-62.68907795,-32.57725848],[-62.6880667,-32.57666546],[-62.68649626,-32.57574247],[-62.684542,-32.57459385]]}},{"type":"Feature","id":"nacional-2270","properties":{"id":2270,"fna":"Derivador Ruta Nacional 9","gna":"Derivador Ruta Nacional","rtn":"DAU9","fun":"6","rst":"Pavimento","hct":"Ruta Nacional","ccn":"No aplica","rcc":"","lzn":0.245,"red":"Nacional","origen":"nacional","estado":"falta_en_padron","cobertura_frac":0.0,"longitud_km":0.246},"geometry":{"type":"LineString","coordinates":[[-62.68523852,-32.57728439],[-62.68555404,-32.57693445],[-62.68576468,-32.57665833],[-62.6860296,-32.57631146],[-62.68627986,-32.57601286],[-62.68649626,-32.57574247],[-62.68664168,-32.57556078],[-62.68671921,-32.5754639]]}},{"type":"Feature","id":"nacional-3420","properties":{"id":3420,"fna":"Autopista Ruta Nacional 9","gna":"Autopista Ruta Nacional","rtn":"AU9","fun":"6","rst":"Pavimento","hct":"Ruta Nacional","ccn":"No aplica","rcc":"","lzn":1.999,"red":"Nacional","origen":"nacional","estado":"falta_en_padron","cobertura_frac":0.0,"longitud_km":1.138},"geometry":{"type":"LineString","coordinates":[[-62.69904751276857,-32.58310066762078],[-62.69637035,-32.58154138],[-62.69232166,-32.57916054],[-62.68907795,-32.57725848]]}},{"type":"Feature","id":"nacional-3619","properties":{"id":3619,"fna":"Ruta Nacional 1V09","gna":"Ruta Nacional","rtn":"RN1V09","fun":"6","rst":"Pavimento","hct":"Ruta Nacional","ccn":"No aplica","rcc":"","lzn":0.228,"red":"Nacional","origen":"nacional","estado":"falta_en_padron","cobertura_frac":0.075,"longitud_km":0.228},"geometry":{"type":"LineString","coordinates":[[-62.58953686,-32.6007347],[-62.58879989,-32.6008829],[-62.58836009,-32.60097914],[-62.58763387,-32.60112834],[-62.58716848,-32.60118628]]}},{"type":"Feature","id":"nacional-3638","properties":{"id":3638,"fna":"Ruta Nacional 1V09","gna":"Ruta Nacional","rtn":"RN1V09","fun":"6","rst":"Pavimento","hct":"Ruta Nacional","ccn":"No aplica","rcc":"","lzn":0.404,"red":"Nacional","origen":"nacional","estado":"falta_en_padron","cobertura_frac":0.042,"longitud_km":0.403},"geometry":{"type":"LineString","coordinates":[[-62.58478009,-32.60158617],[-62.58283122,-32.60194608],[-62.58057093,-32.6023501]]}},{"type":"Feature","id":"nacional-3639","properties":{"id":3639,"fna":"Ruta Nacional 1V09","gna":"Ruta Nacional","rtn":"RN1V09","fun":"6","rst":"Pavimento","hct":"Ruta Nacional","ccn":"No aplica","rcc":"","lzn":1.074,"red":"Nacional","origen":"nacional","estado":"falta_en_padron","cobertura_frac":0.016,"longitud_km":1.072},"geometry":{"type":"LineString","coordinates":[[-62.60072271,-32.59872034],[-62.59401259,-32.59993061],[-62.58953686,-32.6007347]]}},{"type":"Feature","id":"nacional-3746","properties":{"id":3746,"fna":"Derivador Ruta Nacional 9","gna":"Derivador Ruta Nacional","rtn":"DAU9","fun":"6","rst":"Pavimento","hct":"Ruta Nacional","ccn":"No aplica","rcc":"","lzn":0.019,"red":"Nacional","origen":"nacional","estado":"falta_en_padron","cobertura_frac":0.0,"longitud_km":0.019},"geometry":{"type":"LineString","coordinates":[[-62.68501555,-32.57814543],[-62.68496003,-32.57817087],[-62.6848919,-32.57819417],[-62.6848263,-32.57820686]]}},{"type":"Feature","id":"nacional-3767","properties":{"id":3767,"fna":"Derivador Ruta Nacional 9","gna":"Derivador Ruta Nacional","rtn":"DAU9","fun":"6","rst":"Pavimento","hct":"Ruta Nacional","ccn":"No aplica","rcc":"","lzn":0.047,"red":"Nacional","origen":"nacional","estado":"falta_en_padron","cobertura_frac":0.0,"longitud_km":0.047},"geometry":{"type":"LineString","coordinates":[[-62.6848263,-32.57820686],[-62.68476829,-32.57820679],[-62.68469013,-32.57819608],[-62.68462962,-32.57818114],[-62.68457418,-32.57815345],[-62.68453135,-32.5781194],[-62.6844961,-32.57807898],[-62.68446843,-32.57803645],[-62.6844458,-32.57799179]]}},{"type":"Feature","id":"nacional-3885","properties":{"id":3885,"fna":"Ruta Nacional 1V09","gna":"Ruta Nacional","rtn":"RN1V09","fun":"6","rst":"Pavimento","hct":"Ruta Nacional","ccn":"No aplica","rcc":"","lzn":0.229,"red":"Nacional","origen":"nacional","estado":"falta_en_padron","cobertura_frac":0.074,"longitud_km":0.228},"geometry":{"type":"LineString","coordinates":[[-62.58716848,-32.60118628],[-62.58588274,-32.60143101],[-62.5852584,-32.60151853],[-62.58478009,-32.60158617]]}},{"type":"Feature","id":"nacional-3886","properties":{"id":3886,"fna":"Ruta Nacional 1V09","gna":"Ruta Nacional","rtn":"RN1V09","fun":"6","rst":"Pavimento","hct":"Ruta Nacional","ccn":"No aplica","rcc":"","lzn":1.965,"red":"Nacional","origen":"nacional","estado":"falta_en_padron","cobertura_frac":0.017,"longitud_km":1.961},"geometry":{"type":"LineString","coordinates":[[-62.58057093,-32.6023501],[-62.57773804,-32.6028564],[-62.56944863,-32.60435292],[-62.56142828,-32.60579177],[-62.56009379,-32.60602917]]}},{"type":"Feature","id":"nacional-5096","properties":{"id":5096,"fna":"Ruta Nacional 1V09","gna":"Ruta Nacional","rtn":"RN1V09","fun":"6","rst":"Pavimento","hct":"Ruta Nacional","ccn":"No aplica","rcc":"","lzn":2.591,"red":"Nacional","origen":"nacional","estado":"falta_en_padron","cobertura_frac":0.013,"longitud_km":2.586},"geometry":{"type":"LineString","coordinates":[[-62.44207198,-32.62711463],[-62.43921377,-32.62763135],[-62.43579441,-32.62823882],[-62.43174295,-32.62896064],[-62.42727985,-32.62976385],[-62.42484868,-32.63019999],[-62.42105907,-32.63087897],[-62.41642742,-32.63169854],[-62.4150616,-32.63194397]]}},{"type":"Feature","id":"nacional-5092","properties":{"id":5092,"fna":"Ruta Nacional 1V09","gna":"Ruta Nacional","rtn":"RN1V09","fun":"6","rst":"Pavimento","hct":"Ruta Nacional","ccn":"No aplica","rcc":"","lzn":3.774,"red":"Nacional","origen":"nacional","estado":"falta_en_padron","cobertura_frac":0.01,"longitud_km":3.768},"geometry":{"type":"LineString","coordinates":[[-62.67125226,-32.60359283],[-62.66939273,-32.60293052],[-62.66565475,-32.60161682],[-62.66142109,-32.60010459],[-62.6569549,-32.5985217],[-62.65210758,-32.59680114],[-62.64754023,-32.59518113],[-62.6433425,-32.59368961],[-62.6399766,-32.59250865],[-62.63967279,-32.59241834],[-62.63935444,-32.59234426],[-62.6390505,-32.59228648],[-62.63869346,-32.59222856],[-62.63825427,-32.59219075],[-62.63794053,-32.59217362],[-62.63761834,-32.59217274],[-62.63731411,-32.59219224],[-62.6370195,-32.59221991],[-62.63664273,-32.59227175],[-62.63448632,-32.5926441],[-62.63379545,-32.59276917]]}},{"type":"Feature","id":"nacional-5093","properties":{"id":5093,"fna":"Ruta Nacional 1V09","gna":"Ruta Nacional","rtn":"RN1V09","fun":"6","rst":"Pavimento","hct":"Ruta Nacional","ccn":"No aplica","rcc":"","lzn":1.646,"red":"Nacional","origen":"nacional","estado":"falta_en_padron","cobertura_frac":0.449,"longitud_km":0.038},"geometry":{"type":"LineString","coordinates":[[-62.671629579333484,-32.60372721033592],[-62.67125226,-32.60359283]]}},{"type":"Feature","id":"nacional-5097","properties":{"id":5097,"fna":"Ruta Nacional 1V09","gna":"Ruta Nacional","rtn":"RN1V09","fun":"6","rst":"Pavimento","hct":"Ruta Nacional","ccn":"No aplica","rcc":"","lzn":2.628,"red":"Nacional","origen":"nacional","estado":"falta_en_padron","cobertura_frac":0.013,"longitud_km":2.623},"geometry":{"type":"LineString","coordinates":[[-62.56009379,-32.60602917],[-62.55536727,-32.60686992],[-62.55036455,-32.60775759],[-62.54183872,-32.60927439],[-62.53361176,-32.61073559],[-62.53269554,-32.61089976]]}},{"type":"Feature","id":"nacional-5112","properties":{"id":5112,"fna":"Ruta Nacional 1V09","gna":"Ruta Nacional","rtn":"RN1V09","fun":"6","rst":"Pavimento","hct":"Ruta Nacional","ccn":"No aplica","rcc":"","lzn":0.711,"red":"Nacional","origen":"nacional","estado":"falta_en_padron","cobertura_frac":0.024,"longitud_km":0.71},"geometry":{"type":"LineString","coordinates":[[-62.47220218,-32.6217242],[-62.47274002,-32.62160853],[-62.47294703,-32.62156669],[-62.4731117,-32.62153145],[-62.4733712,-32.62147016],[-62.47356164,-32.62142615],[-62.47401385,-32.62134125],[-62.47522705,-32.62111985],[-62.47686568,-32.62083146],[-62.47834081,-32.62056601],[-62.47960355,-32.62035411]]}},{"type":"Feature","id":"nacional-5113","properties":{"id":5113,"fna":"Ruta Nacional 1V09","gna":"Ruta Nacional","rtn":"RN1V09","fun":"6","rst":"Pavimento","hct":"Ruta Nacional","ccn":"No aplica","rcc":"","lzn":0.441,"red":"Nacional","origen":"nacional","estado":"falta_en_padron","cobertura_frac":0.039,"longitud_km":0.44},"geometry":{"type":"LineString","coordinates":[[-62.47960355,-32.62035411],[-62.48122187,-32.6200552],[-62.48224674,-32.61986991],[-62.48319159,-32.61970114],[-62.48420479,-32.6195751]]}},{"type":"Feature","id":"nacional-5120","properties":{"id":5120,"fna":"Ruta Nacional 1V09","gna":"Ruta Nacional","rtn":"RN1V09","fun":"6","rst":"Pavimento","hct":"Ruta Nacional","ccn":"No aplica","rcc":"","lzn":1.303,"red":"Nacional","origen":"nacional","estado":"falta_en_padron","cobertura_frac":0.026,"longitud_km":1.301},"geometry":{"type":"LineString","coordinates":[[-62.6143033,-32.59627391],[-62.60920321,-32.59718979],[-62.60216308,-32.59846049],[-62.60072271,-32.59872034]]}},{"type":"Feature","id":"nacional-5660","properties":{"id":5660,"fna":"Autopista Ruta Nacional 9","gna":"Autopista Ruta Nacional","rtn":"AU9","fun":"6","rst":"Pavimento","hct":"Ruta Nacional","ccn":"No aplica","rcc":"","lzn":13.077,"red":"Nacional","origen":"nacional","estado":"falta_en_padron","cobertura_frac":0.006,"longitud_km":5.868},"geometry":{"type":"LineString","coordinates":[[-62.46966478,-32.59772755],[-62.46534882,-32.59853441],[-62.45873746,-32.59978227],[-62.45234052,-32.60098995],[-62.44609352,-32.60216525],[-62.43837295,-32.60360622],[-62.4327115,-32.60466197],[-62.4260079,-32.60592402],[-62.41946838,-32.60714389],[-62.41200522,-32.6085521],[-62.408526575741426,-32.60921136992818]]}},{"type":"Feature","id":"nacional-5661","properties":{"id":5661,"fna":"Autopista Ruta Nacional 9","gna":"Autopista Ruta Nacional","rtn":"AU9","fun":"6","rst":"Pavimento","hct":"Ruta Nacional","ccn":"No aplica","rcc":"","lzn":0.769,"red":"Nacional","origen":"nacional","estado":"falta_en_padron","cobertura_frac":0.0,"longitud_km":0.767},"geometry":{"type":"LineString","coordinates":[[-62.58542851,-32.57867794],[-62.58397646,-32.57846833],[-62.58253311,-32.57834026],[-62.58115287,-32.57834375],[-62.58094648,-32.57834772],[-62.5799584,-32.57841372],[-62.57896963,-32.57853559],[-62.57793603,-32.57870674],[-62.5773157,-32.57881786]]}},{"type":"Feature","id":"nacional-7329","properties":{"id":7329,"fna":"Ruta Nacional 1V09","gna":"Ruta Nacional","rtn":"RN1V09","fun":"6","rst":"Pavimento","hct":"Ruta Nacional","ccn":"No aplica","rcc":"","lzn":0.102,"red":"Nacional","origen":"nacional","estado":"falta_en_padron","cobertura_frac":0.25,"longitud_km":0.102},"geometry":{"type":"LineString","coordinates":[[-62.58697449,-32.6003288],[-62.58697341,-32.600322],[-62.5871463,-32.60083906],[-62.58718964,-32.6009425],[-62.58721564,-32.6010053],[-62.58725056,-32.60103124],[-62.5873249,-32.6010573],[-62.58743416,-32.60106427]]}},{"type":"Feature","id":"nacional-7349","properties":{"id":7349,"fna":"Ruta Nacional 1V09","gna":"Ruta Nacional","rtn":"RN1V09","fun":"6","rst":"Pavimento","hct":"Ruta Nacional","ccn":"No aplica","rcc":"","lzn":0.441,"red":"Nacional","origen":"nacional","estado":"falta_en_padron","cobertura_frac":0.034,"longitud_km":0.44},"geometry":{"type":"LineString","coordinates":[[-62.48420479,-32.6195751],[-62.48412514,-32.61958949],[-62.48372857,-32.61968351],[-62.48324799,-32.61978241],[-62.4825357,-32.61990147],[-62.48135571,-32.62011402],[-62.480434,-32.62028506],[-62.4796204,-32.62042618]]}},{"type":"Feature","id":"nacional-7350","properties":{"id":7350,"fna":"Ruta Nacional 1V09","gna":"Ruta Nacional","rtn":"RN1V09","fun":"6","rst":"Pavimento","hct":"Ruta Nacional","ccn":"No aplica","rcc":"","lzn":2.098,"red":"Nacional","origen":"nacional","estado":"falta_en_padron","cobertura_frac":0.008,"longitud_km":2.094},"geometry":{"type":"LineString","coordinates":[[-62.50607797,-32.61568281],[-62.50590108,-32.61571493],[-62.49570437,-32.61750854],[-62.48748361,-32.6189917],[-62.48538053,-32.61936272],[-62.48420479,-32.6195751]]}},{"type":"Feature","id":"nacional-7358","properties":{"id":7358,"fna":"Ruta Nacional 1V09","gna":"Ruta Nacional","rtn":"RN1V09","fun":"6","rst":"Pavimento","hct":"Ruta Nacional","ccn":"No aplica","rcc":"","lzn":0.099,"red":"Nacional","origen":"nacional","estado":"falta_en_padron","cobertura_frac":0.273,"longitud_km":0.099},"geometry":{"type":"LineString","coordinates":[[-62.58691267,-32.60115887],[-62.58702697,-32.60108588],[-62.5870578,-32.60104539],[-62.58707128,-32.60096796],[-62.58705435,-32.60083508],[-62.58697449,-32.6003288]]}},{"type":"Feature","id":"nacional-7700","properties":{"id":7700,"fna":"Ruta Nacional 1V09","gna":"Ruta Nacional","rtn":"RN1V09","fun":"6","rst":"Pavimento","hct":"Ruta Nacional","ccn":"No aplica","rcc":"","lzn":0.201,"red":"Nacional","origen":"nacional","estado":"falta_en_padron","cobertura_frac":0.0,"longitud_km":0.201},"geometry":{"type":"LineString","coordinates":[[-62.58743416,-32.60106427],[-62.58784058,-32.60099054],[-62.58858711,-32.60084727],[-62.58891141,-32.60079663],[-62.58953686,-32.6007347]]}},{"type":"Feature","id":"nacional-7805","properties":{"id":7805,"fna":"Derivador Ruta Nacional 9","gna":"Derivador Ruta Nacional","rtn":"DAU9","fun":"6","rst":"Pavimento","hct":"Ruta Nacional","ccn":"No aplica","rcc":"","lzn":0.047,"red":"Nacional","origen":"nacional","estado":"falta_en_padron","cobertura_frac":0.421,"longitud_km":0.047},"geometry":{"type":"LineString","coordinates":[[-62.47444182,-32.59867641],[-62.47435266,-32.59873357],[-62.47430632,-32.5987867],[-62.47427366,-32.59883699],[-62.47425293,-32.59889451],[-62.47422964,-32.59903998],[-62.47422942,-32.59904133]]}},{"type":"Feature","id":"nacional-8772","properties":{"id":8772,"fna":"Autopista Ruta Nacional 9","gna":"Autopista Ruta Nacional","rtn":"AU9","fun":"6","rst":"Pavimento","hct":"Ruta Nacional","ccn":"No aplica","rcc":"","lzn":9.616,"red":"Nacional","origen":"nacional","estado":"falta_en_padron","cobertura_frac":0.007,"longitud_km":9.598},"geometry":{"type":"LineString","coordinates":[[-62.57765875,-32.5789805],[-62.57717032,-32.57906615],[-62.57508607,-32.57943848],[-62.57161485,-32.58006655],[-62.56699521,-32.58089329],[-62.56195455,-32.58181232],[-62.55751218,-32.58262537],[-62.55438747,-32.58318636],[-62.55270421,-32.58348852],[-62.54782119,-32.58436672],[-62.54271594,-32.5852966],[-62.53703414,-32.58631772],[-62.53162863,-32.58729896],[-62.52698226,-32.5881413],[-62.52617349,-32.5882879],[-62.52017132,-32.58936884],[-62.51411508,-32.59046459],[-62.51126866,-32.59098712],[-62.50900654,-32.5913749],[-62.50629376,-32.59174488],[-62.50238863,-32.59224579],[-62.49822261,-32.59276307],[-62.49475908,-32.59326908],[-62.49218359,-32.59370226],[-62.48751689,-32.59458042],[-62.47882603,-32.59621604],[-62.47736778,-32.5964893]]}},{"type":"Feature","id":"nacional-8773","properties":{"id":8773,"fna":"Autopista Ruta Nacional 9","gna":"Autopista Ruta Nacional","rtn":"AU9","fun":"6","rst":"Pavimento","hct":"Ruta Nacional","ccn":"No aplica","rcc":"","lzn":10.075,"red":"Nacional","origen":"nacional","estado":"falta_en_padron","cobertura_frac":0.007,"longitud_km":10.059},"geometry":{"type":"LineString","coordinates":[[-62.68671656,-32.57560503],[-62.68664168,-32.57556078],[-62.68374609,-32.5738499],[-62.68085834,-32.5721884],[-62.68000873,-32.57173476],[-62.6791952,-32.57134968],[-62.67856441,-32.57109641],[-62.67810104,-32.57092833],[-62.67763635,-32.57075978],[-62.67690961,-32.57052437],[-62.67615298,-32.57032598],[-62.67521949,-32.5701324],[-62.67421371,-32.56997726],[-62.67322027,-32.56987633],[-62.67223366,-32.56982511],[-62.67132745,-32.56983039],[-62.67050199,-32.56986114],[-62.66945743,-32.56997616],[-62.66821766,-32.57016504],[-62.66710978,-32.57041704],[-62.66503005,-32.5709443],[-62.65965786,-32.57236058],[-62.65506734,-32.57357141],[-62.6489764,-32.57517015],[-62.64334437,-32.57664121],[-62.6371389,-32.57828748],[-62.63499302,-32.57885064],[-62.6316095,-32.57973851],[-62.62631541,-32.58112828],[-62.62040336,-32.58266704],[-62.61436777,-32.58425772],[-62.61231277,-32.5847896],[-62.61152239,-32.58495684],[-62.61068037,-32.58512985],[-62.60978021,-32.58523408],[-62.6087329,-32.58531845],[-62.60767873,-32.58535929],[-62.60621068,-32.5852973],[-62.60518791,-32.58517696],[-62.60423188,-32.58501993],[-62.60323763,-32.58480832],[-62.60172521,-32.58434857],[-62.5973932,-32.58280948],[-62.59226494,-32.58093626],[-62.58834324,-32.57953479],[-62.5871986,-32.57914009],[-62.58632498,-32.57887808],[-62.58542851,-32.57867794]]}},{"type":"Feature","id":"nacional-8774","properties":{"id":8774,"fna":"Autopista Ruta Nacional 9","gna":"Autopista Ruta Nacional","rtn":"AU9","fun":"6","rst":"Pavimento","hct":"Ruta Nacional","ccn":"No aplica","rcc":"","lzn":0.288,"red":"Nacional","origen":"nacional","estado":"falta_en_padron","cobertura_frac":0.0,"longitud_km":0.288},"geometry":{"type":"LineString","coordinates":[[-62.68923301,-32.57709155],[-62.68915492,-32.57704564],[-62.68671656,-32.57560503]]}},{"type":"Feature","id":"nacional-8775","properties":{"id":8775,"fna":"Autopista Ruta Nacional 9","gna":"Autopista Ruta Nacional","rtn":"AU9","fun":"6","rst":"Pavimento","hct":"Ruta Nacional","ccn":"No aplica","rcc":"","lzn":9.825,"red":"Nacional","origen":"nacional","estado":"falta_en_padron","cobertura_frac":0.007,"longitud_km":9.809},"geometry":{"type":"LineString","coordinates":[[-62.684542,-32.57459385],[-62.68383606,-32.57417891],[-62.68091014,-32.57245668],[-62.68035337,-32.57215279],[-62.67976952,-32.5718623],[-62.67909051,-32.57154407],[-62.67832393,-32.57122037],[-62.67801632,-32.57111351],[-62.67756209,-32.57095571],[-62.67664205,-32.57066884],[-62.67556768,-32.57041987],[-62.67433329,-32.57020141],[-62.67331667,-32.57008903],[-62.67220555,-32.57003034],[-62.67096673,-32.57004328],[-62.66987296,-32.57012997],[-62.66880382,-32.57028002],[-62.66778637,-32.57047692],[-62.6665281,-32.57078467],[-62.66234774,-32.57187517],[-62.65754145,-32.57314522],[-62.65291348,-32.57435564],[-62.6480165,-32.57564476],[-62.64261952,-32.5770625],[-62.63812715,-32.5782446],[-62.63505054,-32.57905389],[-62.63398378,-32.57933447],[-62.62936566,-32.58053626],[-62.62489138,-32.58170478],[-62.62048284,-32.58285781],[-62.61545451,-32.58418308],[-62.61223106,-32.58502263],[-62.61142641,-32.58519745],[-62.61065445,-32.58534078],[-62.60968212,-32.58546427],[-62.60857698,-32.58554125],[-62.607311,-32.58555335],[-62.6062618,-32.58549916],[-62.60527735,-32.58539104],[-62.60433636,-32.58525152],[-62.60320875,-32.58501123],[-62.60199552,-32.58466515],[-62.60058474,-32.58417217],[-62.59874416,-32.58351277],[-62.59741952,-32.58302502],[-62.59567414,-32.58240278],[-62.59247213,-32.58124095],[-62.58851193,-32.57980825],[-62.5871443,-32.57936029],[-62.5860708,-32.57905156],[-62.58545894,-32.57892706]]}},{"type":"Feature","id":"nacional-8779","properties":{"id":8779,"fna":"Autopista Ruta Nacional 9","gna":"Autopista Ruta Nacional","rtn":"AU9","fun":"6","rst":"Pavimento","hct":"Ruta Nacional","ccn":"No aplica","rcc":"","lzn":9.59,"red":"Nacional","origen":"nacional","estado":"falta_en_padron","cobertura_frac":0.007,"longitud_km":9.572},"geometry":{"type":"LineString","coordinates":[[-62.5773157,-32.57881786],[-62.57403406,-32.57940567],[-62.56756402,-32.58058149],[-62.56099386,-32.58176489],[-62.55461749,-32.58293289],[-62.55433528,-32.58298371],[-62.54835857,-32.58405988],[-62.54125937,-32.58534237],[-62.5341476,-32.58662508],[-62.52693057,-32.58793644],[-62.5263946,-32.58803381],[-62.5199137,-32.58919757],[-62.513686,-32.59032926],[-62.50991102,-32.59098925],[-62.50829358,-32.59127244],[-62.50464233,-32.59174682],[-62.50020603,-32.59229577],[-62.49500308,-32.59300596],[-62.49388778,-32.59318285],[-62.490741,-32.59375584],[-62.48434284,-32.59497154],[-62.47729586,-32.59628638]]}},{"type":"Feature","id":"nacional-8790","properties":{"id":8790,"fna":"Autopista Ruta Nacional 9","gna":"Autopista Ruta Nacional","rtn":"AU9","fun":"6","rst":"Pavimento","hct":"Ruta Nacional","ccn":"No aplica","rcc":"","lzn":1.896,"red":"Nacional","origen":"nacional","estado":"falta_en_padron","cobertura_frac":0.0,"longitud_km":1.138},"geometry":{"type":"LineString","coordinates":[[-62.699197660631675,-32.58294224866478],[-62.69826311,-32.58239466],[-62.69451134,-32.58019467],[-62.68923301,-32.57709155]]}},{"type":"Feature","id":"nacional-9535","properties":{"id":9535,"fna":"Derivador Ruta Nacional 9","gna":"Derivador Ruta Nacional","rtn":"DAU9","fun":"6","rst":"Pavimento","hct":"Ruta Nacional","ccn":"No aplica","rcc":"","lzn":0.045,"red":"Nacional","origen":"nacional","estado":"falta_en_padron","cobertura_frac":0.397,"longitud_km":0.045},"geometry":{"type":"LineString","coordinates":[[-62.68511699,-32.57778212],[-62.68518189,-32.57789694],[-62.68520711,-32.57792534],[-62.68523793,-32.57795612],[-62.68529401,-32.57799639],[-62.68535009,-32.5780272],[-62.68542861,-32.57807222]]}},{"type":"Feature","id":"nacional-13599","properties":{"id":13599,"fna":"Ruta Nacional 1V09","gna":"Ruta Nacional","rtn":"RN1V09","fun":"6","rst":"Pavimento","hct":"Ruta Nacional","ccn":"No aplica","rcc":"","lzn":0.711,"red":"Nacional","origen":"nacional","estado":"falta_en_padron","cobertura_frac":0.022,"longitud_km":0.71},"geometry":{"type":"LineString","coordinates":[[-62.4796204,-32.62042618],[-62.47894265,-32.62054374],[-62.4770065,-32.62089922],[-62.47484665,-32.62128563],[-62.47321496,-32.62158006],[-62.47255822,-32.62167629],[-62.47220218,-32.6217242]]}},{"type":"Feature","id":"nacional-18321","properties":{"id":18321,"fna":"Ruta Nacional 1V09","gna":"Ruta Nacional","rtn":"RN1V09","fun":"6","rst":"Pavimento","hct":"Ruta Nacional","ccn":"No aplica","rcc":"","lzn":2.554,"red":"Nacional","origen":"nacional","estado":"falta_en_padron","cobertura_frac":0.013,"longitud_km":2.549},"geometry":{"type":"LineString","coordinates":[[-62.53269554,-32.61089976],[-62.52511249,-32.61225824],[-62.51496889,-32.61406791],[-62.50607797,-32.61568281]]}},{"type":"Feature","id":"nacional-18343","properties":{"id":18343,"fna":"Ruta Nacional 1V09","gna":"Ruta Nacional","rtn":"RN1V09","fun":"6","rst":"Pavimento","hct":"Ruta Nacional","ccn":"No aplica","rcc":"","lzn":1.871,"red":"Nacional","origen":"nacional","estado":"falta_en_padron","cobertura_frac":0.018,"longitud_km":1.867},"geometry":{"type":"LineString","coordinates":[[-62.63379545,-32.59276917],[-62.63056301,-32.5933543],[-62.62653742,-32.59407292],[-62.62134276,-32.59501097],[-62.615629,-32.5960358],[-62.6143033,-32.59627391]]}},{"type":"Feature","id":"nacional-19613","properties":{"id":19613,"fna":"Autopista Ruta Nacional 9","gna":"Autopista Ruta Nacional","rtn":"AU9","fun":"6","rst":"Pavimento","hct":"Ruta Nacional","ccn":"No aplica","rcc":"","lzn":13.082,"red":"Nacional","origen":"nacional","estado":"falta_en_padron","cobertura_frac":0.006,"longitud_km":5.874},"geometry":{"type":"LineString","coordinates":[[-62.4697806,-32.59791087],[-62.46802168,-32.59824039],[-62.46084227,-32.59959585],[-62.45297132,-32.60106707],[-62.44550287,-32.60247739],[-62.43734615,-32.60400839],[-62.43091339,-32.60523858],[-62.42261688,-32.6067829],[-62.41526605,-32.60815566],[-62.40857350385957,-32.609418114622024]]}},{"type":"Feature","id":"nacional-19614","properties":{"id":19614,"fna":"Autopista Ruta Nacional 9","gna":"Autopista Ruta Nacional","rtn":"AU9","fun":"6","rst":"Pavimento","hct":"Ruta Nacional","ccn":"No aplica","rcc":"","lzn":0.73,"red":"Nacional","origen":"nacional","estado":"falta_en_padron","cobertura_frac":0.0,"longitud_km":0.728},"geometry":{"type":"LineString","coordinates":[[-62.47736778,-32.5964893],[-62.4697806,-32.59791087]]}},{"type":"Feature","id":"nacional-19645","properties":{"id":19645,"fna":"Autopista Ruta Nacional 9","gna":"Autopista Ruta Nacional","rtn":"AU9","fun":"6","rst":"Pavimento","hct":"Ruta Nacional","ccn":"No aplica","rcc":"","lzn":0.74,"red":"Nacional","origen":"nacional","estado":"falta_en_padron","cobertura_frac":0.0,"longitud_km":0.738},"geometry":{"type":"LineString","coordinates":[[-62.58545894,-32.57892706],[-62.58453942,-32.57874502],[-62.58346,-32.57863357],[-62.58208321,-32.57854167],[-62.58116386,-32.57855675],[-62.58048789,-32.57859069],[-62.57914518,-32.57871983],[-62.57765875,-32.5789805]]}}]}