{"type":"FeatureCollection","metadata":{"schema_version":"1.0","generated_at":"2026-05-18T18:36:52Z"},"features":[{"type":"Feature","properties":{"id":"canal-ne-sin-intervencion","codigo":null,"nombre":"Canal NE (sin intervención)","descripcion":null,"estado":"relevado","longitud_m":8218.1,"longitud_declarada_m":null,"prioridad":null,"featured":false,"tramo_folder":null,"source_style":"sin_obra"},"geometry":{"type":"LineString","coordinates":[[-62.45473834783109,-32.58863827768679],[-62.45377686722309,-32.58610722982952],[-62.45427903002762,-32.58478389856496],[-62.45329211235696,-32.58003037570987],[-62.4519556210593,-32.5801593538365],[-62.4448772935304,-32.57712058278523],[-62.43688780449591,-32.57362356307599],[-62.43688827342704,-32.57345144419553],[-62.42404514380363,-32.56623712433645],[-62.4236978545681,-32.56622005369665],[-62.41778053998536,-32.56279676697787],[-62.41716603711284,-32.56291801000172],[-62.41137563022004,-32.55930259521563],[-62.41104753766241,-32.55935472342875],[-62.41068122894156,-32.55807782189756],[-62.40661666363392,-32.55633780376516],[-62.40599916053603,-32.55544041899731],[-62.3998423318315,-32.55190981680893],[-62.39769258341279,-32.54978919082135],[-62.39750837523167,-32.54977199673824],[-62.39300788011449,-32.54671117533461],[-62.39053111787242,-32.54468865217858]]}},{"type":"Feature","properties":{"id":"canal-legua-monte-lena-sin-intervencion","codigo":null,"nombre":"Canal Legua Monte Leña (sin intervención)","descripcion":null,"estado":"relevado","longitud_m":8627.8,"longitud_declarada_m":null,"prioridad":null,"featured":false,"tramo_folder":null,"source_style":"sin_obra"},"geometry":{"type":"LineString","coordinates":[[-62.47520466668138,-32.58513742687861],[-62.50413364056986,-32.57997349805029],[-62.5239039838367,-32.57639560010023],[-62.52396763721792,-32.57630767668615],[-62.52419259207794,-32.57637504168654],[-62.54641703542463,-32.57243297428573],[-62.55131328552675,-32.57154287387646],[-62.56374864537147,-32.56937916354191],[-62.56427181278182,-32.5691914467028],[-62.56502708600262,-32.56908239886724]]}},{"type":"Feature","properties":{"id":"canal-viejo-sin-intervencion","codigo":null,"nombre":"Canal Viejo (sin intervención)","descripcion":null,"estado":"relevado","longitud_m":16051.3,"longitud_declarada_m":null,"prioridad":null,"featured":false,"tramo_folder":null,"source_style":"sin_obra"},"geometry":{"type":"LineString","coordinates":[[-62.49311649211734,-32.67483375873728],[-62.48542512904135,-32.644040658287],[-62.48493800208301,-32.64384567072234],[-62.47565892072435,-32.64551584097935],[-62.47527353896422,-32.64556348473634],[-62.47489919372615,-32.64532910336958],[-62.46736684953154,-32.61523047533685],[-62.46723255262242,-32.61487076428138],[-62.46688638697044,-32.61471645735111],[-62.46677121857114,-32.61472461015461],[-62.46143110620837,-32.6156958530785],[-62.46105414563977,-32.61560121003423],[-62.46078942601712,-32.61533497054397],[-62.45564239862619,-32.59517500835986],[-62.45552100672205,-32.59468581130458],[-62.45460602579385,-32.58874236413382],[-62.4748749997811,-32.58508047044646],[-62.47494632171069,-32.58497759921428],[-62.47121768056942,-32.56992142159521],[-62.47128905907319,-32.56980988009811],[-62.4766487683267,-32.56462511792062]]}},{"type":"Feature","properties":{"id":"candil-tramo-se-no-sin-intervencion","codigo":null,"nombre":"Candil tramo SE→NO (sin intervención)","descripcion":null,"estado":"relevado","longitud_m":1899.7,"longitud_declarada_m":null,"prioridad":null,"featured":false,"tramo_folder":null,"source_style":"sin_obra"},"geometry":{"type":"LineString","coordinates":[[-62.47665387609175,-32.56470343711125],[-62.48997235192226,-32.5518101730002]]}},{"type":"Feature","properties":{"id":"s1-canal-chico-este-san-marcos-sud-readecuacion","codigo":"S1","nombre":"Canal chico este San Marcos Sud · readecuación","descripcion":null,"estado":"relevado","longitud_m":6054.1,"longitud_declarada_m":null,"prioridad":null,"featured":false,"tramo_folder":null,"source_style":"readec"},"geometry":{"type":"LineString","coordinates":[[-62.46173264536526,-32.68389003200027],[-62.47009972000856,-32.68246514645378],[-62.45846677601826,-32.63612525965597]]}},{"type":"Feature","properties":{"id":"canal-existente-operativo-sin-intervencion","codigo":null,"nombre":"Canal existente operativo (sin intervención)","descripcion":null,"estado":"relevado","longitud_m":1001.3,"longitud_declarada_m":null,"prioridad":null,"featured":false,"tramo_folder":null,"source_style":"sin_obra"},"geometry":{"type":"LineString","coordinates":[[-62.46228007603871,-32.69286061042729],[-62.46172833393073,-32.68384369514105]]}},{"type":"Feature","properties":{"id":"canal-existente-sin-intervencion","codigo":null,"nombre":"Canal existente (sin intervención)","descripcion":null,"estado":"relevado","longitud_m":3006.5,"longitud_declarada_m":null,"prioridad":null,"featured":false,"tramo_folder":null,"source_style":"sin_obra"},"geometry":{"type":"LineString","coordinates":[[-62.4587449819881,-32.63594360947904],[-62.45878837880359,-32.63572123018604],[-62.45774008544886,-32.63335186768062],[-62.45746496796747,-32.63317377856873],[-62.45523338828577,-32.63231838201276],[-62.45017608447765,-32.63220468649084],[-62.44694519947075,-32.63265978305981],[-62.44317240781287,-32.63133470172845],[-62.44141329380119,-32.63078974663051],[-62.44122182658569,-32.63078923140223],[-62.43542006374092,-32.6287008777151],[-62.43055983547224,-32.62949372036304],[-62.4304613957814,-32.62930170416216]]}},{"type":"Feature","properties":{"id":"canal-existente-operativo-sin-intervencion-0","codigo":null,"nombre":"Canal existente operativo (sin intervención)","descripcion":null,"estado":"relevado","longitud_m":3176.1,"longitud_declarada_m":null,"prioridad":null,"featured":false,"tramo_folder":null,"source_style":"sin_obra"},"geometry":{"type":"LineString","coordinates":[[-62.4584770709228,-32.63610560771569],[-62.45871282259063,-32.63593668906194],[-62.46347500380137,-32.63505564728085],[-62.46358990713738,-32.6349559196159],[-62.46089951740227,-32.62410059200477],[-62.46075999216539,-32.62357504854297],[-62.45817096588013,-32.61316018677608],[-62.45823647710921,-32.61304220514284],[-62.46005880257427,-32.61273189583805],[-62.46015280565381,-32.61261972571638]]}},{"type":"Feature","properties":{"id":"n4-readecuacion-tramo-inicial-colector-norte","codigo":"N4","nombre":"Readecuación tramo inicial colector norte","descripcion":null,"estado":"relevado","longitud_m":1351.6,"longitud_declarada_m":1355.0,"prioridad":null,"featured":false,"tramo_folder":null,"source_style":"readec"},"geometry":{"type":"LineString","coordinates":[[-62.39264867082696,-32.44848386939895],[-62.39319236947949,-32.44903550793516],[-62.39333674422428,-32.4494436259284],[-62.39600473932828,-32.46025215355257]]}},{"type":"Feature","properties":{"id":"e9-colector-norte-sin-intervencion-en-esta-etapa","codigo":"E9","nombre":"Colector norte (sin intervención en esta etapa)","descripcion":null,"estado":"relevado","longitud_m":19418.9,"longitud_declarada_m":19413.0,"prioridad":null,"featured":false,"tramo_folder":null,"source_style":"sin_obra"},"geometry":{"type":"LineString","coordinates":[[-62.39600473932828,-32.46025215355257],[-62.39625884654487,-32.46023204452569],[-62.4048279457796,-32.45918976692941],[-62.4117567277849,-32.45803053572033],[-62.41195009422031,-32.45805112618562],[-62.41209555788153,-32.45821456668293],[-62.41291557636184,-32.46141946930307],[-62.41303696275896,-32.46155830819761],[-62.4132687333131,-32.46159960836831],[-62.42237322248127,-32.46001415193614],[-62.42250081840952,-32.46007322434271],[-62.42455267297677,-32.46298644530973],[-62.42482352500956,-32.46356022966338],[-62.4260594065456,-32.46690950320728],[-62.426309922694,-32.46745571373045],[-62.42663299203872,-32.46920016798735],[-62.42695516424028,-32.47069358096225],[-62.42706400954866,-32.47174556167113],[-62.42729463263349,-32.47235941533654],[-62.42735561529428,-32.47264043856259],[-62.42738519244322,-32.47313998384333],[-62.4275070273885,-32.47404560827545],[-62.42775856865461,-32.47491295257778],[-62.42847637383318,-32.47647416467815],[-62.42886458998144,-32.47748511958581],[-62.42911754160861,-32.47838249069478],[-62.42935502974726,-32.47927355147641],[-62.4302329306547,-32.48159127489931],[-62.4303807815885,-32.48211161987866],[-62.43076128216364,-32.48302750035995],[-62.43570697449733,-32.49093253166093],[-62.43955623521294,-32.49657806838746],[-62.4442008422524,-32.50303548198471],[-62.44771255898559,-32.50576738424736],[-62.44796972961428,-32.50580010577363],[-62.47801618005978,-32.50059538736904],[-62.47903986357874,-32.50062820397692],[-62.48472461683816,-32.50331669155547],[-62.4891786888488,-32.50523986601812],[-62.49157783608835,-32.50606164834764],[-62.49180122557771,-32.50605576063464],[-62.49854977950438,-32.50933097027416],[-62.50475005279044,-32.51118563209749],[-62.50516634151113,-32.51130276922595],[-62.50557573696184,-32.51148667578915],[-62.50800617310524,-32.51101310776345],[-62.50857396645338,-32.511134359682],[-62.50886917296629,-32.51120545416305],[-62.50957969877386,-32.51136748227852],[-62.50991764872245,-32.51149659884363],[-62.51121124606892,-32.51212381126722],[-62.51213010916535,-32.51273612385087],[-62.51323512162387,-32.51368016260422],[-62.51402062033653,-32.51443704903169],[-62.51473457976557,-32.5151226020819],[-62.52485909519384,-32.51327695061701],[-62.52502923828416,-32.51316473075894],[-62.52773179019513,-32.50794421178276],[-62.52782666327381,-32.5077994701984],[-62.53125917578389,-32.50474565311433],[-62.53448007876546,-32.50195306527199],[-62.53905005462174,-32.49916920432665],[-62.54951534812545,-32.49709289529367]]}},{"type":"Feature","properties":{"id":"canal-existente-sin-intervencion-1","codigo":null,"nombre":"Canal existente (sin intervención)","descripcion":"Reducido a la mitad — el otro tramo está reemplazado por Sistematización escurrimientos Campo Bojanich (CGIC).","estado":"relevado","longitud_m":2063.3,"longitud_declarada_m":null,"prioridad":null,"featured":false,"tramo_folder":null,"source_style":"sin_obra"},"geometry":{"type":"LineString","coordinates":[[-62.41798245744901,-32.50504763686019],[-62.4207711749504,-32.50658997126797],[-62.42575392287372,-32.51120400296571],[-62.43396485717188,-32.51733090299604],[-62.4342046240899,-32.5174538573027]]}},{"type":"Feature","properties":{"id":"n1-incorporacion-de-e15-al-sistema-oficial-via-alternativa-de-descarga-al-litin-tortugas","codigo":"N1","nombre":"Incorporación de E15 al sistema oficial · vía alternativa de descarga al Litín-Tortugas","descripcion":null,"estado":"relevado","longitud_m":2017.1,"longitud_declarada_m":null,"prioridad":null,"featured":false,"tramo_folder":null,"source_style":"readec"},"geometry":{"type":"LineString","coordinates":[[-62.42046519203475,-32.46023198106214],[-62.41505059010561,-32.45763324930645],[-62.41462592117345,-32.45755988794322],[-62.41209706042696,-32.45793408945121],[-62.41190405470753,-32.45782004002366],[-62.4111114201853,-32.45469017232863],[-62.4105124698367,-32.45242468275224],[-62.40981391082443,-32.44979734645698],[-62.40948934375117,-32.44847619097148],[-62.40941346453766,-32.44827427253612],[-62.40898904108982,-32.44811665186952]]}},{"type":"Feature","properties":{"id":"canal-sin-control-caso-a-normalizar","codigo":null,"nombre":"Canal sin control · caso a normalizar","descripcion":null,"estado":"relevado","longitud_m":4285.6,"longitud_declarada_m":null,"prioridad":null,"featured":false,"tramo_folder":null,"source_style":"asociada"},"geometry":{"type":"LineString","coordinates":[[-62.42423142328209,-32.46247634875093],[-62.42467463790761,-32.46267419275117],[-62.42516355187988,-32.46294543661039],[-62.4257226365972,-32.4632529716976],[-62.42615044984796,-32.46339433425015],[-62.42652167136172,-32.46357007086523],[-62.42765849689123,-32.46393943132961],[-62.42917986108996,-32.46437203194127],[-62.42958731951346,-32.46440260785347],[-62.42998119208369,-32.46455732708446],[-62.43128297008965,-32.46495212549694],[-62.4329005165833,-32.46534346075335],[-62.43574366455536,-32.4658931983241],[-62.44130257071407,-32.46701363169453],[-62.4428065087246,-32.46732154634677],[-62.44311061122015,-32.46736691788767],[-62.44394140133894,-32.46734393880442],[-62.44453902157679,-32.46728468611606],[-62.44719163786512,-32.46666189127137],[-62.44971213628581,-32.46592307145487],[-62.45152129209661,-32.46472172820457],[-62.45481465934008,-32.46248459371368],[-62.45838628690195,-32.46005959044843],[-62.46029102773094,-32.45877917461554],[-62.46085403710422,-32.45604988878534],[-62.46107654052062,-32.45429021496828]]}},{"type":"Feature","properties":{"id":"canal-sin-control-caso-a-normalizar-0","codigo":null,"nombre":"Canal sin control · caso a normalizar","descripcion":null,"estado":"relevado","longitud_m":1316.1,"longitud_declarada_m":null,"prioridad":null,"featured":false,"tramo_folder":null,"source_style":"asociada"},"geometry":{"type":"LineString","coordinates":[[-62.46423853771169,-32.50296443505548],[-62.46185572285557,-32.49314975839512],[-62.46191088075376,-32.49290460384466],[-62.46212306890622,-32.49280530757276],[-62.46371341609971,-32.49245339936673]]}},{"type":"Feature","properties":{"id":"s2-nucleo-candil-tramo-no-so-readecuacion","codigo":null,"nombre":"S2 núcleo · Candil tramo NO→SO · readecuación","descripcion":null,"estado":"relevado","longitud_m":3258.8,"longitud_declarada_m":null,"prioridad":null,"featured":false,"tramo_folder":null,"source_style":"readec"},"geometry":{"type":"LineString","coordinates":[[-62.48997235192226,-32.5518101730002],[-62.49262333254625,-32.5535343136837],[-62.49834663437015,-32.55692218490584],[-62.49864894827122,-32.55696367933047],[-62.50396142518655,-32.56099004770451],[-62.50929994218012,-32.56517473023052],[-62.5126406684522,-32.56781259022378],[-62.51658094290768,-32.57055101305617]]}},{"type":"Feature","properties":{"id":"cgic-zona_norte_bell_ville","codigo":null,"nombre":"Canal zona norte de Bell Ville","descripcion":"Fuente: APRHI / CGIC Marcos Juárez. Nombre oficial: 'Proyecto de canal zona norte de Bell Ville'","estado":"relevado","longitud_m":6619.7,"longitud_declarada_m":null,"prioridad":null,"featured":false,"tramo_folder":"cgic_zona_norte_bell_ville","source_style":"cgic_materializado"},"geometry":{"type":"LineString","coordinates":[[-62.5634350211431,-32.6194997864334],[-62.5630439287067,-32.6178537694124],[-62.5629355836518,-32.6173336935864],[-62.5706732897648,-32.6159197465619],[-62.5737128625687,-32.6154022309481],[-62.5762707718713,-32.6149838462839],[-62.5764000357866,-32.6149477255912],[-62.5764314273392,-32.6148059445769],[-62.5761461245847,-32.6138206549237],[-62.575529381656,-32.6112532872394],[-62.5750591081918,-32.6092872012709],[-62.5741890765476,-32.6058080862983],[-62.5737203554036,-32.6039015544026],[-62.5735956004665,-32.6036771473706],[-62.5735487111693,-32.6034873674485],[-62.5735376857613,-32.6028667214023],[-62.5723748364236,-32.5984721192751],[-62.5660790938292,-32.5739326086455],[-62.5652287669321,-32.5702906008659]]}},{"type":"Feature","properties":{"id":"cgic-canal_10_de_mayo","codigo":null,"nombre":"Canal 10 de Mayo (Cuenca Nor-Noreste San Marcos Sud)","descripcion":"Fuente: APRHI / CGIC Marcos Juárez. Nombre oficial: 'Canal 10 de Mayo ( SISTEMATIZACION CUENCA NOR-NORESTE SAN MARCOS SUD)'","estado":"relevado","longitud_m":20759.6,"longitud_declarada_m":null,"prioridad":null,"featured":false,"tramo_folder":"cgic_canal_10_de_mayo","source_style":"cgic_materializado"},"geometry":{"type":"LineString","coordinates":[[-62.5495966355819,-32.497015332943],[-62.539125749245,-32.4991192142609],[-62.5366924574305,-32.5004325066345],[-62.5307997823009,-32.505172464438],[-62.5278254540195,-32.5076001984221],[-62.5278289501982,-32.5076241489983],[-62.5272603285447,-32.5086179185499],[-62.5248160240865,-32.5132422585898],[-62.514735124121,-32.5149681332288],[-62.5125443493649,-32.5130794289951],[-62.5097888956484,-32.5116678914154],[-62.5096287443591,-32.5115963234124],[-62.5093881065381,-32.5114887841184],[-62.5082585665593,-32.5109839960721],[-62.5080943851963,-32.5109841892455],[-62.5060792176024,-32.5114926903728],[-62.5057932440968,-32.511493021815],[-62.505548121677,-32.5114933048666],[-62.49900517321,-32.509378007979],[-62.4789753014969,-32.5006179981912],[-62.47805379533,-32.5005682583724],[-62.4478640546942,-32.5058598314037],[-62.4442176686059,-32.5030220769245],[-62.4366059901335,-32.4925250582682],[-62.4364829542601,-32.4922129185601],[-62.4363595683661,-32.49189988444],[-62.4306971754756,-32.483854130345],[-62.4305482807898,-32.4834320321372],[-62.4286646123597,-32.4778866224136],[-62.427451757859,-32.4736403345815],[-62.4274208036785,-32.473524182153],[-62.4262209530273,-32.4672889778141],[-62.4261858137875,-32.4671885754497],[-62.4244579428738,-32.4632046031111],[-62.4243421907397,-32.4629121174111],[-62.4238622789855,-32.4612334525923],[-62.4225401779463,-32.4601583438784],[-62.4129926380094,-32.4614564813745],[-62.4116509982735,-32.4579907616712],[-62.3960775518026,-32.4601133938946],[-62.3929579090514,-32.448766410558],[-62.3928597515607,-32.4486769163112],[-62.3924486261224,-32.4483020788697]]}},{"type":"Feature","properties":{"id":"cgic-cuenca_nor_noreste","codigo":null,"nombre":"Sistematización Cuenca Nor-Noreste San Marcos Sud","descripcion":"Fuente: APRHI / CGIC Marcos Juárez. Nombre oficial: 'SISTEMATIZACION CUENCA NOR-NORESTE SAN MARCOS SUD'","estado":"relevado","longitud_m":3538.2,"longitud_declarada_m":null,"prioridad":null,"featured":false,"tramo_folder":"cgic_cuenca_nor_noreste","source_style":"cgic_materializado"},"geometry":{"type":"LineString","coordinates":[[-62.4478213717891,-32.5059613719],[-62.4478999996102,-32.5060399988674],[-62.4507199995269,-32.5068899987523],[-62.4529100001211,-32.5075199988447],[-62.4538699995146,-32.5078199994289],[-62.4539999995556,-32.5078499988475],[-62.4542100000375,-32.5078199995939],[-62.4544199998573,-32.5078099985657],[-62.4576600000056,-32.5090499996845],[-62.4613000000505,-32.5109899988374],[-62.4641299999693,-32.512240000411],[-62.4643900001891,-32.512320000016],[-62.4645100000005,-32.5124799990249],[-62.4661299995095,-32.5122399992815],[-62.4681700001895,-32.5133299987333],[-62.4683700004927,-32.513409999784],[-62.4731900007046,-32.5151899992621],[-62.4738799994015,-32.5154599993266],[-62.476879999999,-32.516529999614],[-62.481959999941,-32.5184299990585]]}},{"type":"Feature","properties":{"id":"cgic-monte_castillo_oeste","codigo":null,"nombre":"Limpieza y refuncionalización Canal Monte Castillo Oeste 1","descripcion":"Fuente: APRHI / CGIC Marcos Juárez. Nombre oficial: 'LIMPIEZA Y REFUNCIONALIZACIÓN DEL CANAL MONTE CASTILLO OESTE 1'","estado":"relevado","longitud_m":4822.9,"longitud_declarada_m":null,"prioridad":null,"featured":false,"tramo_folder":"cgic_monte_castillo_oeste","source_style":"cgic_proyectado"},"geometry":{"type":"LineString","coordinates":[[-62.3194501446159,-32.4338671495621],[-62.3194500000227,-32.4341600004455],[-62.319479999229,-32.4343199988958],[-62.3195899992487,-32.4345299985685],[-62.322210000177,-32.4452499997209],[-62.3222699994695,-32.4453499989366],[-62.3225100004096,-32.4454300004425],[-62.3234299999266,-32.4456899987088],[-62.3237700006522,-32.4458199994],[-62.3239500008628,-32.4459299975595],[-62.3242899999965,-32.4461799990702],[-62.3249100006614,-32.4465899989029],[-62.3253500003606,-32.4467599991789],[-62.3261399992527,-32.4469799992129],[-62.3279199992855,-32.4471499991362],[-62.3285799999934,-32.4472599986039],[-62.328789999959,-32.4473299993906],[-62.329600000414,-32.4476699991891],[-62.3301900002215,-32.4478699989138],[-62.3311900000781,-32.448139999413],[-62.3316799993877,-32.4481899992837],[-62.3319399998414,-32.4482399992024],[-62.3322700001888,-32.4483799990445],[-62.3327499997092,-32.4486299987238],[-62.3330699994955,-32.4488199994436],[-62.3334299998254,-32.4489999989911],[-62.3337400008362,-32.4490699987349],[-62.3368599994112,-32.4501099993601],[-62.3382599993701,-32.4503699989794],[-62.3394400002947,-32.4506699986869],[-62.3400600007195,-32.450859998653],[-62.3405899991431,-32.4509599987162],[-62.3415799997768,-32.4510799988936],[-62.3420499999303,-32.4510999985874],[-62.3426700001747,-32.4511499992784],[-62.3432699993907,-32.4512799987665],[-62.3437399996898,-32.451439999387],[-62.3446800002087,-32.451729999317],[-62.3449900003841,-32.4517999994226],[-62.3456799992525,-32.4518799992254],[-62.346550000953,-32.4518999985819],[-62.34694000017,-32.4517699993021],[-62.3473699994235,-32.451589998633],[-62.3480699994139,-32.4511999990359],[-62.3483999995848,-32.4511199984446],[-62.3488399999167,-32.4511199984231],[-62.3491100003062,-32.4511899988778],[-62.3495199992819,-32.4513799993877],[-62.3500899999814,-32.4517199996303],[-62.3504199994453,-32.4519999991067],[-62.3507899992724,-32.4522799983537],[-62.3516200007824,-32.4526999988938],[-62.3520600006371,-32.4528599989727],[-62.3525200003347,-32.4529799985691],[-62.3538800000911,-32.4532399990297],[-62.354100000163,-32.453299998989],[-62.3545300008518,-32.453209999112],[-62.3553037295168,-32.4535097035767],[-62.356903291773,-32.4542580464044]]}},{"type":"Feature","properties":{"id":"cgic-la_sara_litin-01","codigo":null,"nombre":"Visación planos Establecimiento La Sara (Pedanía Litin) (tramo 1 de 6)","descripcion":"Fuente: APRHI / CGIC Marcos Juárez. Nombre oficial: 'SOLICITA VISACION DE PLANOS DE MENSURA.- ESTABLECIMIENTO \"LA SARA\", PEDANÍA LITIN.'","estado":"relevado","longitud_m":1368.5,"longitud_declarada_m":null,"prioridad":null,"featured":false,"tramo_folder":"cgic_la_sara_litin","source_style":"cgic_proyectado"},"geometry":{"type":"LineString","coordinates":[[-62.5216286147776,-32.4558051186792],[-62.5198261706152,-32.4539582763715],[-62.5188391176584,-32.4529080946653],[-62.5180666415339,-32.4521657165979],[-62.517208335129,-32.4515138697184],[-62.5166933507938,-32.4507895878782],[-62.5157921279853,-32.4497755837509],[-62.5151483985197,-32.4491961478111],[-62.514826533213,-32.4489788579176],[-62.5140325991878,-32.4481278034432],[-62.5135390729904,-32.447638894813],[-62.5128738849793,-32.4467878270508],[-62.5125734779324,-32.4462445865823]]}},{"type":"Feature","properties":{"id":"cgic-la_sara_litin-02","codigo":null,"nombre":"Visación planos Establecimiento La Sara (Pedanía Litin) (tramo 2 de 6)","descripcion":"Fuente: APRHI / CGIC Marcos Juárez. Nombre oficial: 'SOLICITA VISACION DE PLANOS DE MENSURA.- ESTABLECIMIENTO \"LA SARA\", PEDANÍA LITIN.'","estado":"relevado","longitud_m":1079.5,"longitud_declarada_m":null,"prioridad":null,"featured":false,"tramo_folder":"cgic_la_sara_litin","source_style":"cgic_proyectado"},"geometry":{"type":"LineString","coordinates":[[-62.5359194249696,-32.4420615355936],[-62.5371210548107,-32.4455202639025],[-62.53694939261,-32.4462808041904],[-62.5367562739203,-32.4469507977433],[-62.5365202396789,-32.4476026792608],[-62.5360481705115,-32.449051287805],[-62.5334517924584,-32.4501377290517]]}},{"type":"Feature","properties":{"id":"cgic-la_sara_litin-03","codigo":null,"nombre":"Visación planos Establecimiento La Sara (Pedanía Litin) (tramo 3 de 6)","descripcion":"Fuente: APRHI / CGIC Marcos Juárez. Nombre oficial: 'SOLICITA VISACION DE PLANOS DE MENSURA.- ESTABLECIMIENTO \"LA SARA\", PEDANÍA LITIN.'","estado":"relevado","longitud_m":1539.4,"longitud_declarada_m":null,"prioridad":null,"featured":false,"tramo_folder":"cgic_la_sara_litin","source_style":"cgic_proyectado"},"geometry":{"type":"LineString","coordinates":[[-62.5370352236024,-32.4458824270646],[-62.5398676365018,-32.445719453141],[-62.5407903165946,-32.44580999422],[-62.5417344544756,-32.4457013454412],[-62.5431506608687,-32.4455383720484],[-62.544695612722,-32.4451037746784],[-62.5446956131503,-32.4445605257434],[-62.5443952052432,-32.4428945395915],[-62.5434510679356,-32.4416269228127],[-62.5434296096785,-32.4412647429284],[-62.5433223219268,-32.4409387797476],[-62.5432579490898,-32.4406671444416],[-62.5427000488984,-32.4381499355949]]}},{"type":"Feature","properties":{"id":"cgic-la_sara_litin-04","codigo":null,"nombre":"Visación planos Establecimiento La Sara (Pedanía Litin) (tramo 4 de 6)","descripcion":"Fuente: APRHI / CGIC Marcos Juárez. Nombre oficial: 'SOLICITA VISACION DE PLANOS DE MENSURA.- ESTABLECIMIENTO \"LA SARA\", PEDANÍA LITIN.'","estado":"relevado","longitud_m":757.2,"longitud_declarada_m":null,"prioridad":null,"featured":false,"tramo_folder":"cgic_la_sara_litin","source_style":"cgic_proyectado"},"geometry":{"type":"LineString","coordinates":[[-62.5275922368489,-32.4431968349276],[-62.528321796708,-32.4442109131059],[-62.5283003389591,-32.445043897149],[-62.5277853557334,-32.4498062452529]]}},{"type":"Feature","properties":{"id":"cgic-la_sara_litin-05","codigo":null,"nombre":"Visación planos Establecimiento La Sara (Pedanía Litin) (tramo 5 de 6)","descripcion":"Fuente: APRHI / CGIC Marcos Juárez. Nombre oficial: 'SOLICITA VISACION DE PLANOS DE MENSURA.- ESTABLECIMIENTO \"LA SARA\", PEDANÍA LITIN.'","estado":"relevado","longitud_m":1331.7,"longitud_declarada_m":null,"prioridad":null,"featured":false,"tramo_folder":"cgic_la_sara_litin","source_style":"cgic_proyectado"},"geometry":{"type":"LineString","coordinates":[[-62.5222079723729,-32.4414820510856],[-62.5213711235946,-32.4416450317925],[-62.5208346811866,-32.4420253188936],[-62.5196330520108,-32.4425866922949],[-62.5175087417896,-32.4434740171622],[-62.5125520199005,-32.4442888999071],[-62.511361119151,-32.4444790381564],[-62.5101487601757,-32.4446329587322],[-62.509451385815,-32.4447325552606],[-62.5088398425347,-32.4449770167119]]}},{"type":"Feature","properties":{"id":"cgic-la_sara_litin-06","codigo":null,"nombre":"Visación planos Establecimiento La Sara (Pedanía Litin) (tramo 6 de 6)","descripcion":"Fuente: APRHI / CGIC Marcos Juárez. Nombre oficial: 'SOLICITA VISACION DE PLANOS DE MENSURA.- ESTABLECIMIENTO \"LA SARA\", PEDANÍA LITIN.'","estado":"relevado","longitud_m":3062.8,"longitud_declarada_m":null,"prioridad":null,"featured":false,"tramo_folder":"cgic_la_sara_litin","source_style":"cgic_proyectado"},"geometry":{"type":"LineString","coordinates":[[-62.5382475818285,-32.4230271092276],[-62.5330548252378,-32.4241863125657],[-62.5317888228375,-32.424385550412],[-62.5315742466927,-32.4244398873997],[-62.5314454999076,-32.4244036633935],[-62.5299434635556,-32.4246572365908],[-62.5231842966342,-32.4257077472188],[-62.5230555503752,-32.4256171862426],[-62.5227766002999,-32.4253273916149],[-62.5217895476307,-32.424385550347],[-62.5210599868947,-32.4236429384241],[-62.5208883256155,-32.4234255870337],[-62.5202231374158,-32.4225199519885],[-62.5199012720959,-32.4220127928261],[-62.5191931699397,-32.4209078992655],[-62.5188069310369,-32.4203645046577],[-62.5180773708839,-32.4194588385698],[-62.5177769633594,-32.4189154335677],[-62.5171117756215,-32.4175025697987],[-62.5164036722636,-32.4169048127325],[-62.5155453657057,-32.4168685847036],[-62.5119833918254,-32.4179010720469]]}},{"type":"Feature","properties":{"id":"cgic-monte_lena_norte-01","codigo":null,"nombre":"Sistematización excedentes norte Monte Leña (tramo 1 de 12)","descripcion":"Fuente: APRHI / CGIC Marcos Juárez. Nombre oficial: 'Sistemación de excedentes hídricos al norte de Monte Leña'","estado":"relevado","longitud_m":1046.8,"longitud_declarada_m":null,"prioridad":null,"featured":false,"tramo_folder":"cgic_monte_lena_norte","source_style":"cgic_proyectado"},"geometry":{"type":"LineString","coordinates":[[-62.675859202022,-32.5046906713622],[-62.6784527408111,-32.513836693994]]}},{"type":"Feature","properties":{"id":"cgic-monte_lena_norte-02","codigo":null,"nombre":"Sistematización excedentes norte Monte Leña (tramo 2 de 12)","descripcion":"Fuente: APRHI / CGIC Marcos Juárez. Nombre oficial: 'Sistemación de excedentes hídricos al norte de Monte Leña'","estado":"relevado","longitud_m":1522.0,"longitud_declarada_m":null,"prioridad":null,"featured":false,"tramo_folder":"cgic_monte_lena_norte","source_style":"cgic_proyectado"},"geometry":{"type":"LineString","coordinates":[[-62.6446304916389,-32.5064147378189],[-62.6452187657341,-32.5087900578982],[-62.6455124221485,-32.5099072997187],[-62.6457237168932,-32.5107080847432],[-62.6457172119314,-32.5107437591054],[-62.6456914847382,-32.5107741203861],[-62.6456518719429,-32.5108074029662],[-62.6455961491151,-32.5108314541262],[-62.645453599469,-32.5108576375925],[-62.6451387002775,-32.5109128749917],[-62.6448092397982,-32.5109906617866],[-62.6445851980855,-32.5110678140704],[-62.6444457454177,-32.5111538211658],[-62.6443040421883,-32.5112561811094],[-62.64418962474,-32.511369460584],[-62.6440682932176,-32.5115074731538],[-62.6437944292213,-32.5117786438969],[-62.6435239793418,-32.512048028335],[-62.64344651848,-32.5121642514008],[-62.6434147598728,-32.5122593932359],[-62.6434021626303,-32.5123375582143],[-62.6434074526325,-32.5123969338411],[-62.6434303492668,-32.5125129237063],[-62.6436455360729,-32.5132905184017],[-62.6437979426885,-32.5138896113868],[-62.6438760885659,-32.5142223310771],[-62.6439965109781,-32.5146340202571],[-62.6440504200806,-32.5148486326125],[-62.6440756532025,-32.514988095801],[-62.6441086307662,-32.5150682112645],[-62.6441714170778,-32.5151716182028],[-62.6442798435538,-32.5153001233361],[-62.6443817881773,-32.515405852853],[-62.6445064613038,-32.515494063498],[-62.6446071844836,-32.5155470926282],[-62.6447106750385,-32.5155903420136],[-62.6451214743164,-32.5157359493661],[-62.6453513933728,-32.5158179021821],[-62.6455104350343,-32.5158609450047],[-62.6456279600904,-32.5158734892787],[-62.6456725771791,-32.5158784618037],[-62.6458000339366,-32.5159010783658],[-62.6458840324993,-32.5159051833035],[-62.6459528333774,-32.5158932440479],[-62.6460144028369,-32.5158880104811],[-62.6461115729121,-32.515898610587],[-62.6461863158381,-32.5159031771267],[-62.6462841490386,-32.5159202868182],[-62.6464734964348,-32.5159655173909],[-62.6466905252563,-32.5160304635073],[-62.6469032485529,-32.5161184925162],[-62.6470167921034,-32.5161804730057],[-62.6470893073878,-32.5162289889507],[-62.6471445880407,-32.5162829075285],[-62.6471990021137,-32.5163581588068],[-62.6472867931802,-32.5164985154525],[-62.6473520754375,-32.5166831826329],[-62.6474777861846,-32.5170536980825]]}},{"type":"Feature","properties":{"id":"cgic-monte_lena_norte-03","codigo":null,"nombre":"Sistematización excedentes norte Monte Leña (tramo 3 de 12)","descripcion":"Fuente: APRHI / CGIC Marcos Juárez. Nombre oficial: 'Sistemación de excedentes hídricos al norte de Monte Leña'","estado":"relevado","longitud_m":990.7,"longitud_declarada_m":null,"prioridad":null,"featured":false,"tramo_folder":"cgic_monte_lena_norte","source_style":"cgic_proyectado"},"geometry":{"type":"LineString","coordinates":[[-62.6134846019087,-32.5133593976409],[-62.6157663193982,-32.5220483853638]]}},{"type":"Feature","properties":{"id":"cgic-monte_lena_norte-04","codigo":null,"nombre":"Sistematización excedentes norte Monte Leña (tramo 4 de 12)","descripcion":"Fuente: APRHI / CGIC Marcos Juárez. Nombre oficial: 'Sistemación de excedentes hídricos al norte de Monte Leña'","estado":"relevado","longitud_m":679.4,"longitud_declarada_m":null,"prioridad":null,"featured":false,"tramo_folder":"cgic_monte_lena_norte","source_style":"cgic_proyectado"},"geometry":{"type":"LineString","coordinates":[[-62.6220731370483,-32.5209203574616],[-62.6149921052432,-32.5221868585873]]}},{"type":"Feature","properties":{"id":"cgic-monte_lena_norte-05","codigo":null,"nombre":"Sistematización excedentes norte Monte Leña (tramo 5 de 12)","descripcion":"Fuente: APRHI / CGIC Marcos Juárez. Nombre oficial: 'Sistemación de excedentes hídricos al norte de Monte Leña'","estado":"relevado","longitud_m":442.1,"longitud_declarada_m":null,"prioridad":null,"featured":false,"tramo_folder":"cgic_monte_lena_norte","source_style":"cgic_proyectado"},"geometry":{"type":"LineString","coordinates":[[-62.6182921947168,-32.5301649690288],[-62.6170261915797,-32.5302735164238],[-62.6144298131719,-32.5283739278127]]}},{"type":"Feature","properties":{"id":"cgic-monte_lena_norte-06","codigo":null,"nombre":"Sistematización excedentes norte Monte Leña (tramo 6 de 12)","descripcion":"Fuente: APRHI / CGIC Marcos Juárez. Nombre oficial: 'Sistemación de excedentes hídricos al norte de Monte Leña'","estado":"relevado","longitud_m":120.0,"longitud_declarada_m":null,"prioridad":null,"featured":false,"tramo_folder":"cgic_monte_lena_norte","source_style":"cgic_proyectado"},"geometry":{"type":"LineString","coordinates":[[-62.6130996837186,-32.5254481449402],[-62.6126374534245,-32.5257780401493],[-62.6121656335951,-32.5261823216686]]}},{"type":"Feature","properties":{"id":"cgic-monte_lena_norte-07","codigo":null,"nombre":"Sistematización excedentes norte Monte Leña (tramo 7 de 12)","descripcion":"Fuente: APRHI / CGIC Marcos Juárez. Nombre oficial: 'Sistemación de excedentes hídricos al norte de Monte Leña'","estado":"relevado","longitud_m":269.9,"longitud_declarada_m":null,"prioridad":null,"featured":false,"tramo_folder":"cgic_monte_lena_norte","source_style":"cgic_proyectado"},"geometry":{"type":"LineString","coordinates":[[-62.6042670707922,-32.539817089784],[-62.6056618195806,-32.5402874072383],[-62.607035110975,-32.5402512291567]]}},{"type":"Feature","properties":{"id":"cgic-monte_lena_norte-08","codigo":null,"nombre":"Sistematización excedentes norte Monte Leña (tramo 8 de 12)","descripcion":"Fuente: APRHI / CGIC Marcos Juárez. Nombre oficial: 'Sistemación de excedentes hídricos al norte de Monte Leña'","estado":"relevado","longitud_m":412.4,"longitud_declarada_m":null,"prioridad":null,"featured":false,"tramo_folder":"cgic_monte_lena_norte","source_style":"cgic_proyectado"},"geometry":{"type":"LineString","coordinates":[[-62.6031581031276,-32.5366111367707],[-62.6041022399877,-32.5402290340919]]}},{"type":"Feature","properties":{"id":"cgic-monte_lena_norte-09","codigo":null,"nombre":"Sistematización excedentes norte Monte Leña (tramo 9 de 12)","descripcion":"Fuente: APRHI / CGIC Marcos Juárez. Nombre oficial: 'Sistemación de excedentes hídricos al norte de Monte Leña'","estado":"relevado","longitud_m":320.6,"longitud_declarada_m":null,"prioridad":null,"featured":false,"tramo_folder":"cgic_monte_lena_norte","source_style":"cgic_proyectado"},"geometry":{"type":"LineString","coordinates":[[-62.5712852392791,-32.5649233588027],[-62.5719898860904,-32.5677410757531]]}},{"type":"Feature","properties":{"id":"cgic-monte_lena_norte-10","codigo":null,"nombre":"Sistematización excedentes norte Monte Leña (tramo 10 de 12)","descripcion":"Fuente: APRHI / CGIC Marcos Juárez. Nombre oficial: 'Sistemación de excedentes hídricos al norte de Monte Leña'","estado":"relevado","longitud_m":17245.3,"longitud_declarada_m":null,"prioridad":null,"featured":false,"tramo_folder":"cgic_monte_lena_norte","source_style":"cgic_proyectado"},"geometry":{"type":"LineString","coordinates":[[-62.6878496473252,-32.5119050266438],[-62.6868415450648,-32.5121340218732],[-62.675766335454,-32.5081000069604],[-62.6663157727679,-32.5083010467763],[-62.6586467530569,-32.5081228853436],[-62.6579250241766,-32.5082059548204],[-62.6578036216929,-32.5082142777945],[-62.6570472762198,-32.5089895623859],[-62.6534547026969,-32.5096831607686],[-62.6514880382392,-32.5100701405716],[-62.6486733663244,-32.5111281322814],[-62.6462069463449,-32.5123597019567],[-62.6447149443771,-32.5129645883566],[-62.6430670697326,-32.5134409064252],[-62.6411163276562,-32.5136749146387],[-62.6392910099795,-32.5133501241487],[-62.6380037965526,-32.5124265812999],[-62.6325758466221,-32.5135337016355],[-62.6309037859176,-32.5125635890833],[-62.6287567509906,-32.5121164808657],[-62.626904200361,-32.5116316540601],[-62.6190450445269,-32.5139008554182],[-62.6148664490355,-32.5159432887494],[-62.6160604884972,-32.5218499599746],[-62.6175075481611,-32.5274447950579],[-62.6134231802133,-32.5312723548967],[-62.6045397032677,-32.5403354499884],[-62.6096987381685,-32.561199582188],[-62.6071018525677,-32.561674782597],[-62.6061543128148,-32.5624246989539],[-62.606222506272,-32.5632402685876],[-62.6019355192843,-32.563801013567],[-62.5999830263657,-32.5640248577262],[-62.5952958338333,-32.5646045501648],[-62.5932449395297,-32.5648415625955],[-62.5917907935981,-32.5649745212559],[-62.5881554289858,-32.5654947908444],[-62.5858027306511,-32.5658011707068],[-62.5831550878777,-32.5661422335599],[-62.5790471583294,-32.5667044212049],[-62.5725010942753,-32.5678420831592],[-62.5650056997532,-32.5692001791041]]}},{"type":"Feature","properties":{"id":"cgic-monte_lena_norte-11","codigo":null,"nombre":"Sistematización excedentes norte Monte Leña (tramo 11 de 12)","descripcion":"Fuente: APRHI / CGIC Marcos Juárez. Nombre oficial: 'Sistemación de excedentes hídricos al norte de Monte Leña'","estado":"relevado","longitud_m":675.8,"longitud_declarada_m":null,"prioridad":null,"featured":false,"tramo_folder":"cgic_monte_lena_norte","source_style":"cgic_proyectado"},"geometry":{"type":"LineString","coordinates":[[-62.5719898860947,-32.5677410748514],[-62.5649356992304,-32.56896912689]]}},{"type":"Feature","properties":{"id":"cgic-monte_lena_norte-12","codigo":null,"nombre":"Sistematización excedentes norte Monte Leña (tramo 12 de 12)","descripcion":"Fuente: APRHI / CGIC Marcos Juárez. Nombre oficial: 'Sistemación de excedentes hídricos al norte de Monte Leña'","estado":"relevado","longitud_m":334.8,"longitud_declarada_m":null,"prioridad":null,"featured":false,"tramo_folder":"cgic_monte_lena_norte","source_style":"cgic_proyectado"},"geometry":{"type":"LineString","coordinates":[[-62.5648293931106,-32.5692470127772],[-62.565525323982,-32.5721966629548]]}},{"type":"Feature","properties":{"id":"cgic-campomaggi-01","codigo":null,"nombre":"Sistematización Cuenca Campomaggi (tramo 1 de 3)","descripcion":"Fuente: APRHI / CGIC Marcos Juárez. Nombre oficial: 'Sitematización Cuenca Campomaggi'","estado":"relevado","longitud_m":462.8,"longitud_declarada_m":null,"prioridad":null,"featured":false,"tramo_folder":"cgic_campomaggi","source_style":"cgic_proyectado"},"geometry":{"type":"LineString","coordinates":[[-62.3596682648954,-32.4545794488993],[-62.3572368036719,-32.4542462638428],[-62.359597147246,-32.4545631256861],[-62.3596682648954,-32.4545794488993]]}},{"type":"Feature","properties":{"id":"cgic-campomaggi-02","codigo":null,"nombre":"Sistematización Cuenca Campomaggi (tramo 2 de 3)","descripcion":"Fuente: APRHI / CGIC Marcos Juárez. Nombre oficial: 'Sitematización Cuenca Campomaggi'","estado":"relevado","longitud_m":75.7,"longitud_declarada_m":null,"prioridad":null,"featured":false,"tramo_folder":"cgic_campomaggi","source_style":"cgic_proyectado"},"geometry":{"type":"LineString","coordinates":[[-62.3600569777137,-32.4546686665853],[-62.3596682648954,-32.4545794488993],[-62.3597473510572,-32.4545902858764],[-62.3600569777137,-32.4546686665853]]}},{"type":"Feature","properties":{"id":"cgic-campomaggi-03","codigo":null,"nombre":"Sistematización Cuenca Campomaggi (tramo 3 de 3)","descripcion":"Fuente: APRHI / CGIC Marcos Juárez. Nombre oficial: 'Sitematización Cuenca Campomaggi'","estado":"relevado","longitud_m":4934.0,"longitud_declarada_m":null,"prioridad":null,"featured":false,"tramo_folder":"cgic_campomaggi","source_style":"cgic_proyectado"},"geometry":{"type":"LineString","coordinates":[[-62.392861903561,-32.4588957862854],[-62.391650215262,-32.4584358637624],[-62.3901324202012,-32.4572462977393],[-62.3879787740407,-32.4567239325615],[-62.3862367633952,-32.4566257031089],[-62.3851082659012,-32.4563774229079],[-62.3847800510147,-32.4561627519138],[-62.3844518373503,-32.4562377771669],[-62.3831871754518,-32.4566939629838],[-62.3824602973078,-32.4573528465606],[-62.3805344705536,-32.4578739519402],[-62.3791504510363,-32.4581557213321],[-62.3775196680708,-32.458194197443],[-62.3763341317722,-32.4582485125793],[-62.3747730859568,-32.4584974651834],[-62.3744404919965,-32.4585789394164],[-62.3737753041121,-32.4585925187395],[-62.3731423029236,-32.4584748327705],[-62.3719031218438,-32.4581262996284],[-62.3704010847247,-32.45753333879],[-62.368636191877,-32.4564062478163],[-62.3684430728885,-32.4563292976216],[-62.3655945667082,-32.4557317978534],[-62.365240515351,-32.455713691336],[-62.3648220899975,-32.4553606210536],[-62.363953054201,-32.4550338896448],[-62.3635024439016,-32.4550519963811],[-62.3623115429263,-32.4555770774437],[-62.3618716609542,-32.4554412800245],[-62.3609275229426,-32.4548890398338],[-62.3600569777137,-32.4546686665853],[-62.3609382520769,-32.454870933412],[-62.3618716609647,-32.4554322266398],[-62.3623866441934,-32.4554141207993],[-62.3631591204718,-32.4549614651792],[-62.364210546432,-32.4499187266794],[-62.3638564954987,-32.4495927947093],[-62.362579763962,-32.4443958341327],[-62.3626441364249,-32.4441513709182],[-62.3626334078609,-32.4441694793343]]}},{"type":"Feature","properties":{"id":"cgic-campo_bojanich","codigo":null,"nombre":"Sistematización escurrimientos Campo Bojanich","descripcion":"Fuente: APRHI / CGIC Marcos Juárez. Nombre oficial: 'SISTEMATIZACIÓN DE ESCURRIMIENTOS RURALES CAMPO BOJANICH AL CANAL NOR-NORESTE DE SAN MARCOS SUD'","estado":"relevado","longitud_m":3963.7,"longitud_declarada_m":null,"prioridad":null,"featured":false,"tramo_folder":"cgic_campo_bojanich","source_style":"cgic_proyectado"},"geometry":{"type":"LineString","coordinates":[[-62.4475930103836,-32.5242419910211],[-62.4419730218391,-32.5211769900008],[-62.4399939353755,-32.5203919026604],[-62.4343117680337,-32.5175122941154],[-62.4342046240899,-32.5174538573027],[-62.4321184903997,-32.5087403476401],[-62.4478407410931,-32.5060366233444]]}}]}
